{"type":"FeatureCollection","features":[{"type":"Feature","properties":{"boro":"Brooklyn"},"geometry":{"type":"MultiPolygon","coordinates":[[[[-73.83358,40.6236],[-73.83365,40.62394],[-73.83356,40.62394],[-73.83358,40.6236]]],[[[-73.83779,40.61556],[-73.83507,40.61755],[-73.83497,40.61855],[-73.83575,40.61961],[-73.83421,40.6208],[-73.83499,40.62101],[-73.83502,40.62268],[-73.83362,40.6226],[-73.83402,40.61438],[-73.83779,40.61556]]],[[[-73.83574,40.60579],[-73.83533,40.60685],[-73.83437,40.60785],[-73.83446,40.60719],[-73.83574,40.60579]]],[[[-73.8497,40.60656],[-73.84758,40.60699],[-73.84593,40.60857],[-73.84575,40.61137],[-73.84513,40.61227],[-73.84563,40.61372],[-73.84357,40.61367],[-73.84353,40.61305],[-73.84264,40.61317],[-73.841,40.61163],[-73.83818,40.61308],[-73.83624,40.61227],[-73.83887,40.60791],[-73.83926,40.60825],[-73.8394,40.60759],[-73.84134,40.60682],[-73.84042,40.60577],[-73.84149,40.6045],[-73.84397,40.6041],[-73.84472,40.60466],[-73.84492,40.60368],[-73.84562,40.60352],[-73.84829,40.60518],[-73.84756,40.60521],[-73.8475,40.60588],[-73.84964,40.60603],[-73.8497,40.60656]],[[-73.84511,40.60609],[-73.84469,40.60534],[-73.84481,40.60622],[-73.84511,40.60609]]],[[[-73.84238,40.62744],[-73.84053,40.62662],[-73.84061,40.62753],[-73.83947,40.62729],[-73.84072,40.62586],[-73.84238,40.62744]]],[[[-73.846,40.62504],[-73.84477,40.62485],[-73.84476,40.62423],[-73.84384,40.62429],[-73.84294,40.62332],[-73.84537,40.62305],[-73.84532,40.62435],[-73.846,40.62504]]],[[[-73.84996,40.6321],[-73.84988,40.63409],[-73.84813,40.63774],[-73.84622,40.63861],[-73.84427,40.63669],[-73.84502,40.63568],[-73.8466,40.63522],[-73.84789,40.63273],[-73.84996,40.6321]]],[[[-73.84819,40.62852],[-73.84837,40.62887],[-73.84805,40.62867],[-73.84819,40.62852]]],[[[-73.84868,40.63046],[-73.84844,40.63056],[-73.84843,40.63046],[-73.84868,40.63046]]],[[[-73.85746,40.62049],[-73.85517,40.62196],[-73.85447,40.62079],[-73.85187,40.62059],[-73.85129,40.62181],[-73.85236,40.62297],[-73.85175,40.62339],[-73.85025,40.62358],[-73.84948,40.62253],[-73.84846,40.6224],[-73.85135,40.62014],[-73.85657,40.61957],[-73.85746,40.62049]]],[[[-73.8566,40.61083],[-73.85517,40.61019],[-73.85226,40.61037],[-73.85265,40.61117],[-73.85048,40.61234],[-73.84967,40.61211],[-73.84942,40.60984],[-73.85442,40.60717],[-73.85507,40.60746],[-73.8547,40.60812],[-73.85555,40.60898],[-73.85526,40.60946],[-73.85595,40.60954],[-73.8566,40.61083]]],[[[-73.86336,40.60032],[-73.86078,40.60261],[-73.85483,40.60187],[-73.85277,40.60095],[-73.85077,40.59884],[-73.85269,40.59717],[-73.85717,40.59604],[-73.86044,40.59647],[-73.86336,40.60032]]],[[[-73.85856,40.63046],[-73.85754,40.63274],[-73.85537,40.63281],[-73.8539,40.63382],[-73.85234,40.63354],[-73.853,40.63193],[-73.85167,40.63087],[-73.85202,40.63042],[-73.85365,40.63088],[-73.85679,40.62984],[-73.85856,40.63046]]],[[[-74.04175,40.62246],[-74.04107,40.63019],[-74.0369,40.63883],[-74.03876,40.63959],[-74.03668,40.63924],[-74.03578,40.64064],[-74.0367,40.64169],[-74.03453,40.64388],[-74.03407,40.64431],[-74.03293,40.64363],[-74.03189,40.64392],[-74.03052,40.64527],[-74.02788,40.64436],[-74.02617,40.64628],[-74.02974,40.64849],[-74.02939,40.6488],[-74.02583,40.64668],[-74.02496,40.64683],[-74.02425,40.6476],[-74.02554,40.64978],[-74.02496,40.6506],[-74.02605,40.65099],[-74.02542,40.65193],[-74.0242,40.65122],[-74.02365,40.65158],[-74.02537,40.65272],[-74.02147,40.65077],[-74.02137,40.65127],[-74.02381,40.65304],[-74.02193,40.65222],[-74.02127,40.65286],[-74.0232,40.6541],[-74.02165,40.65364],[-74.02124,40.65417],[-74.02164,40.65488],[-74.01832,40.65373],[-74.02005,40.65534],[-74.01778,40.65416],[-74.01734,40.65485],[-74.0198,40.65649],[-74.01735,40.65525],[-74.01669,40.65553],[-74.01911,40.65737],[-74.01861,40.65785],[-74.01574,40.65632],[-74.01769,40.65845],[-74.01494,40.65706],[-74.0146,40.65771],[-74.01746,40.65945],[-74.01554,40.66076],[-74.01179,40.65898],[-74.01126,40.65979],[-74.01402,40.66153],[-74.01265,40.66198],[-74.00858,40.65957],[-74.00761,40.66063],[-74.01046,40.66264],[-74.00868,40.66337],[-74.00625,40.66191],[-74.00568,40.66234],[-74.00623,40.66279],[-74.00589,40.6636],[-74.00767,40.66479],[-74.00564,40.66453],[-74.00461,40.66333],[-74.00445,40.6641],[-74.00528,40.66466],[-74.00486,40.66506],[-74.00117,40.66295],[-73.99967,40.6643],[-74.00292,40.66646],[-73.99928,40.66818],[-73.99875,40.67147],[-74.0003,40.66872],[-74.00221,40.66852],[-74.00319,40.66726],[-74.00588,40.66795],[-74.00687,40.66603],[-74.00496,40.67078],[-74.00551,40.67079],[-74.00755,40.66705],[-74.00731,40.66855],[-74.00986,40.66848],[-74.01154,40.66509],[-74.01575,40.66457],[-74.01744,40.66527],[-74.01934,40.67162],[-74.01751,40.67103],[-74.01645,40.66493],[-74.01594,40.66547],[-74.0123,40.66575],[-74.01035,40.66899],[-74.01173,40.67052],[-74.01425,40.66973],[-74.01193,40.67073],[-74.01426,40.67133],[-74.0152,40.67075],[-74.01414,40.67206],[-74.01569,40.67104],[-74.01311,40.67326],[-74.01512,40.67216],[-74.01632,40.67291],[-74.01487,40.67461],[-74.01817,40.67194],[-74.0188,40.67225],[-74.01737,40.67362],[-74.01801,40.67391],[-74.0181,40.67511],[-74.01889,40.67509],[-74.01793,40.67647],[-74.01977,40.67661],[-74.01995,40.6771],[-74.01843,40.67805],[-74.01966,40.67839],[-74.01839,40.67861],[-74.01954,40.67897],[-74.01928,40.67965],[-74.01282,40.68362],[-74.01214,40.68291],[-74.01398,40.68169],[-74.01293,40.68049],[-74.00978,40.68322],[-74.01074,40.6843],[-74.01193,40.68389],[-74.00798,40.68628],[-74.00589,40.68625],[-74.00298,40.69043],[-74.00092,40.69022],[-74.00197,40.69184],[-74.00175,40.6924],[-73.99457,40.70438],[-73.99213,40.70469],[-73.99104,40.70403],[-73.99023,40.70493],[-73.98849,40.70456],[-73.98796,40.70513],[-73.97835,40.706],[-73.97855,40.70499],[-73.97721,40.70421],[-73.9774,40.70326],[-73.97596,40.70472],[-73.97687,40.70276],[-73.97619,40.70225],[-73.97533,40.70295],[-73.97585,40.70196],[-73.97455,40.70159],[-73.97569,40.69956],[-73.97432,40.70119],[-73.9726,40.70147],[-73.97332,40.70241],[-73.97284,40.70273],[-73.96966,40.70038],[-73.97284,40.70335],[-73.96933,40.70142],[-73.96904,40.70177],[-73.97231,40.70384],[-73.97106,40.70384],[-73.97466,40.70607],[-73.97338,40.70576],[-73.97273,40.70622],[-73.97463,40.70768],[-73.97424,40.70802],[-73.97117,40.70591],[-73.97105,40.70694],[-73.97276,40.70883],[-73.97232,40.70908],[-73.97026,40.70689],[-73.97013,40.70491],[-73.96753,40.70353],[-73.9693,40.70509],[-73.96991,40.71127],[-73.96911,40.71154],[-73.96725,40.71699],[-73.96526,40.71914],[-73.96527,40.72013],[-73.9645,40.72021],[-73.96276,40.72239],[-73.9617,40.72473],[-73.96211,40.72515],[-73.958,40.72453],[-73.9585,40.72538],[-73.96013,40.72523],[-73.96035,40.72591],[-73.96161,40.72587],[-73.96102,40.72872],[-73.96233,40.73375],[-73.95982,40.73706],[-73.95693,40.73889],[-73.95293,40.73894],[-73.94652,40.73693],[-73.94719,40.73535],[-73.94694,40.73442],[-73.94557,40.73661],[-73.94499,40.73593],[-73.94322,40.73579],[-73.94155,40.73473],[-73.93981,40.73115],[-73.93814,40.72977],[-73.92924,40.7274],[-73.92787,40.72585],[-73.92567,40.7202],[-73.92482,40.72026],[-73.92454,40.71935],[-73.92494,40.7184],[-73.92892,40.71769],[-73.92968,40.71708],[-73.92948,40.71572],[-73.93207,40.71503],[-73.93124,40.71372],[-73.93259,40.71289],[-73.93095,40.7092],[-73.93031,40.70889],[-73.93185,40.71257],[-73.93048,40.71316],[-73.93085,40.7149],[-73.92859,40.71552],[-73.9289,40.71664],[-73.92823,40.71711],[-73.92464,40.71795],[-73.92364,40.71732],[-73.92306,40.71634],[-73.92483,40.71517],[-73.92223,40.71286],[-73.92075,40.71053],[-73.92173,40.70932],[-73.91181,40.70343],[-73.91278,40.70239],[-73.91068,40.70105],[-73.91161,40.69985],[-73.90426,40.6957],[-73.90565,40.69407],[-73.9014,40.69159],[-73.90184,40.69099],[-73.90042,40.68818],[-73.90101,40.6877],[-73.89662,40.68254],[-73.89417,40.68528],[-73.89257,40.68355],[-73.89015,40.685],[-73.88951,40.68433],[-73.88455,40.68668],[-73.87951,40.69114],[-73.87403,40.69419],[-73.86891,40.69514],[-73.86841,40.69473],[-73.86605,40.68207],[-73.8641,40.68237],[-73.86331,40.6792],[-73.86235,40.67916],[-73.8604,40.67136],[-73.85763,40.67166],[-73.85569,40.66387],[-73.85832,40.66344],[-73.85762,40.66012],[-73.86297,40.65837],[-73.86321,40.65697],[-73.86267,40.65569],[-73.86087,40.65508],[-73.85722,40.65028],[-73.85836,40.64725],[-73.85717,40.64368],[-73.86203,40.64288],[-73.86649,40.64013],[-73.86628,40.63947],[-73.86732,40.63987],[-73.86867,40.64093],[-73.8706,40.64484],[-73.87257,40.64558],[-73.87936,40.65459],[-73.87963,40.65425],[-73.87319,40.64544],[-73.87333,40.64404],[-73.86991,40.63896],[-73.868,40.63812],[-73.86961,40.63709],[-73.86964,40.6379],[-73.87388,40.63642],[-73.87842,40.63892],[-73.88048,40.64098],[-73.88074,40.64157],[-73.88007,40.642],[-73.88153,40.64245],[-73.88229,40.64382],[-73.88342,40.64451],[-73.88558,40.64404],[-73.88719,40.64529],[-73.87956,40.63824],[-73.87864,40.63829],[-73.87714,40.63598],[-73.87821,40.63457],[-73.88362,40.63096],[-73.8839,40.62946],[-73.88263,40.62827],[-73.88369,40.62756],[-73.8851,40.62877],[-73.88753,40.62833],[-73.89041,40.62629],[-73.893,40.62336],[-73.89548,40.62249],[-73.91605,40.63203],[-73.91749,40.63145],[-73.91647,40.6304],[-73.90229,40.62441],[-73.9028,40.6236],[-73.90105,40.62271],[-73.90051,40.62168],[-73.89647,40.62143],[-73.89561,40.6198],[-73.89664,40.61732],[-73.89583,40.61455],[-73.89187,40.61355],[-73.8897,40.61152],[-73.89022,40.61039],[-73.89225,40.60904],[-73.89335,40.60674],[-73.89834,40.6053],[-73.90014,40.6056],[-73.9011,40.60701],[-73.9006,40.61045],[-73.90133,40.61048],[-73.9085,40.61731],[-73.90835,40.61653],[-73.90907,40.61653],[-73.90797,40.61574],[-73.90811,40.61537],[-73.90226,40.61042],[-73.90164,40.60576],[-73.90524,40.60491],[-73.90595,40.60635],[-73.90864,40.60666],[-73.90983,40.60597],[-73.90833,40.60407],[-73.91092,40.60351],[-73.91365,40.60398],[-73.91674,40.60681],[-73.91643,40.60849],[-73.91709,40.60882],[-73.91616,40.61052],[-73.91454,40.6116],[-73.91493,40.61396],[-73.91411,40.61451],[-73.91444,40.61489],[-73.91586,40.61392],[-73.91573,40.61183],[-73.91803,40.61026],[-73.91768,40.60966],[-73.91843,40.60848],[-73.91801,40.60815],[-73.91884,40.60822],[-73.91814,40.60765],[-73.91856,40.60675],[-73.91446,40.60289],[-73.90904,40.60268],[-73.90948,40.60204],[-73.90906,40.60166],[-73.89933,40.60355],[-73.89563,40.60301],[-73.89242,40.6033],[-73.88753,40.60531],[-73.88396,40.60555],[-73.88298,40.60461],[-73.88336,40.60287],[-73.88181,40.59937],[-73.87996,40.59221],[-73.87941,40.59213],[-73.87972,40.59141],[-73.87897,40.5909],[-73.87886,40.58824],[-73.87672,40.58491],[-73.8797,40.58014],[-73.88391,40.57863],[-73.89119,40.57787],[-73.89552,40.57677],[-73.89651,40.57901],[-73.8967,40.58305],[-73.89881,40.58746],[-73.89966,40.5871],[-73.8992,40.58762],[-73.8997,40.58801],[-73.90122,40.58738],[-73.90085,40.58806],[-73.90426,40.58691],[-73.90651,40.58803],[-73.90708,40.58756],[-73.90644,40.58703],[-73.91152,40.5861],[-73.91197,40.5867],[-73.91144,40.59109],[-73.91203,40.59438],[-73.91573,40.5992],[-73.92171,40.60174],[-73.92395,40.59971],[-73.92466,40.59973],[-73.92954,40.60275],[-73.92921,40.60389],[-73.93103,40.6039],[-73.93207,40.60285],[-73.9311,40.60173],[-73.92742,40.60006],[-73.92191,40.59516],[-73.91818,40.59311],[-73.91488,40.59032],[-73.91454,40.58889],[-73.91917,40.58596],[-73.92492,40.58567],[-73.92808,40.5877],[-73.92783,40.58888],[-73.92863,40.58857],[-73.93058,40.58989],[-73.93003,40.59352],[-73.93225,40.59486],[-73.93268,40.59426],[-73.93101,40.59193],[-73.93113,40.58943],[-73.92973,40.58861],[-73.93027,40.5883],[-73.92972,40.58756],[-73.93126,40.58697],[-73.92857,40.58706],[-73.92789,40.58612],[-73.92752,40.5864],[-73.92461,40.58463],[-73.92002,40.58468],[-73.91566,40.58622],[-73.91349,40.58609],[-73.91259,40.58557],[-73.91248,40.58318],[-73.91151,40.58272],[-73.91149,40.58183],[-73.91505,40.58154],[-73.92442,40.58356],[-73.92963,40.5834],[-73.93118,40.58272],[-73.94103,40.58307],[-73.9417,40.58359],[-73.94203,40.58311],[-73.94754,40.58353],[-73.95327,40.58301],[-73.95318,40.58202],[-73.9497,40.58232],[-73.94274,40.581],[-73.93258,40.58126],[-73.93106,40.57616],[-73.93489,40.57522],[-73.93642,40.57586],[-73.93671,40.57542],[-73.94439,40.57579],[-73.9446,40.57524],[-73.94572,40.57556],[-73.95258,40.5742],[-73.95844,40.57409],[-73.95899,40.57343],[-73.95984,40.57393],[-73.96719,40.57333],[-73.96929,40.57292],[-73.96925,40.5723],[-73.96974,40.57284],[-73.97121,40.57268],[-73.97118,40.57194],[-73.9716,40.57262],[-73.97294,40.57247],[-73.97325,40.57163],[-73.97358,40.57228],[-73.97533,40.57203],[-73.97541,40.57142],[-73.97574,40.57197],[-73.97713,40.5719],[-73.97767,40.57117],[-73.97845,40.57189],[-73.9796,40.57167],[-73.97943,40.57122],[-73.98017,40.57172],[-73.98283,40.57154],[-73.98362,40.5713],[-73.98304,40.57015],[-73.98336,40.56953],[-73.98392,40.57138],[-73.99079,40.57025],[-74.00077,40.57049],[-74.00196,40.57021],[-74.00209,40.56959],[-74.00257,40.57178],[-74.00482,40.57288],[-74.01115,40.57417],[-74.01202,40.57489],[-74.01303,40.57785],[-74.01189,40.57973],[-74.00745,40.5818],[-74.00055,40.5813],[-73.99818,40.58173],[-73.99758,40.58067],[-73.98843,40.57882],[-73.98686,40.57965],[-73.98601,40.58153],[-73.98804,40.57963],[-73.99163,40.58108],[-73.99053,40.58449],[-73.99547,40.58221],[-74.00018,40.58308],[-74.00036,40.58419],[-73.99869,40.58529],[-73.99971,40.58569],[-73.99956,40.58624],[-73.99573,40.58766],[-73.99586,40.58824],[-73.99798,40.58731],[-73.99501,40.58893],[-73.99549,40.58926],[-74.00037,40.58648],[-74.00039,40.58713],[-73.99804,40.5883],[-73.99946,40.58923],[-73.99778,40.59116],[-73.99831,40.59158],[-74.00009,40.59124],[-73.99919,40.5923],[-73.99953,40.59301],[-74.0011,40.59252],[-74.00391,40.59628],[-74.01017,40.60035],[-74.02086,40.60352],[-74.03005,40.60476],[-74.03214,40.60591],[-74.03604,40.6093],[-74.03695,40.61125],[-74.03989,40.61436],[-74.04175,40.62246]],[[-73.89076,40.64932],[-73.89088,40.64856],[-73.88935,40.64708],[-73.88844,40.64736],[-73.8875,40.64578],[-73.88769,40.64781],[-73.89076,40.64932]],[[-73.89358,40.61117],[-73.89189,40.61157],[-73.89175,40.61186],[-73.89318,40.61174],[-73.89358,40.61117]],[[-73.90139,40.61167],[-73.9021,40.61143],[-73.90158,40.61114],[-73.90139,40.61167]],[[-73.90926,40.61665],[-73.9086,40.61549],[-73.90827,40.61554],[-73.90926,40.61665]],[[-73.91603,40.58263],[-73.91516,40.58236],[-73.91477,40.58269],[-73.91511,40.58311],[-73.91603,40.58263]],[[-73.91677,40.58279],[-73.91645,40.58309],[-73.91677,40.5831],[-73.91677,40.58279]],[[-73.92426,40.59108],[-73.92467,40.59099],[-73.92443,40.59084],[-73.92426,40.59108]],[[-74.00368,40.66235],[-74.00456,40.66236],[-74.00367,40.66205],[-74.00368,40.66235]],[[-74.02472,40.65137],[-74.02474,40.6508],[-74.02442,40.65111],[-74.02472,40.65137]]],[[[-73.85752,40.62491],[-73.85766,40.62531],[-73.85734,40.62515],[-73.85752,40.62491]]],[[[-73.87116,40.58687],[-73.86981,40.58946],[-73.86635,40.59189],[-73.86327,40.59091],[-73.86125,40.58799],[-73.86168,40.58614],[-73.86327,40.58388],[-73.86773,40.58166],[-73.86896,40.58169],[-73.87035,40.58306],[-73.87116,40.58687]]],[[[-73.86378,40.62395],[-73.86344,40.6242],[-73.86197,40.62427],[-73.86304,40.6233],[-73.86378,40.62395]]],[[[-73.87972,40.61696],[-73.87938,40.61985],[-73.87779,40.62165],[-73.86645,40.62826],[-73.86519,40.62766],[-73.86498,40.62566],[-73.86651,40.62339],[-73.86493,40.62111],[-73.86621,40.61815],[-73.87395,40.61584],[-73.87829,40.61585],[-73.87972,40.61696]]],[[[-73.86874,40.60704],[-73.86868,40.60824],[-73.86702,40.60807],[-73.86874,40.60704]]],[[[-73.86831,40.60314],[-73.86793,40.60396],[-73.86703,40.60417],[-73.86768,40.60307],[-73.86831,40.60314]]],[[[-73.86967,40.59669],[-73.87021,40.59696],[-73.86953,40.59871],[-73.86967,40.59669]]],[[[-73.873,40.61056],[-73.87104,40.60972],[-73.86966,40.60654],[-73.87109,40.60469],[-73.87107,40.60629],[-73.87246,40.60819],[-73.873,40.61056]]],[[[-73.8702,40.599],[-73.87108,40.59891],[-73.87049,40.6026],[-73.8702,40.599]]],[[[-73.92225,40.59832],[-73.91992,40.59962],[-73.91635,40.59823],[-73.91338,40.59472],[-73.91293,40.59208],[-73.91524,40.59159],[-73.91788,40.59473],[-73.92083,40.59634],[-73.92225,40.59832]]]]}},{"type":"Feature","properties":{"boro":"Bronx"},"geometry":{"type":"MultiPolygon","coordinates":[[[[-73.77296,40.8522],[-73.77173,40.85264],[-73.77296,40.8538],[-73.77214,40.85445],[-73.77235,40.85967],[-73.77085,40.8601],[-73.76533,40.85504],[-73.76782,40.85444],[-73.76936,40.85258],[-73.76861,40.85079],[-73.76958,40.84754],[-73.7679,40.84529],[-73.76901,40.8451],[-73.77119,40.84695],[-73.77157,40.8475],[-73.77092,40.84979],[-73.77296,40.8522]]],[[[-73.76692,40.86705],[-73.76712,40.86724],[-73.76668,40.86732],[-73.76692,40.86705]]],[[[-73.76964,40.86554],[-73.76978,40.86569],[-73.76945,40.86576],[-73.76964,40.86554]]],[[[-73.77263,40.87188],[-73.77116,40.87181],[-73.77085,40.87163],[-73.77224,40.87156],[-73.77263,40.87188]]],[[[-73.77326,40.86063],[-73.77334,40.86085],[-73.77322,40.86079],[-73.77326,40.86063]]],[[[-73.77514,40.87455],[-73.77451,40.8745],[-73.77494,40.87392],[-73.7751,40.87403],[-73.77514,40.87455]]],[[[-73.77512,40.86119],[-73.77514,40.86159],[-73.77493,40.86163],[-73.77512,40.86119]]],[[[-73.77463,40.86182],[-73.77486,40.86198],[-73.7746,40.86207],[-73.77463,40.86182]]],[[[-73.79351,40.85226],[-73.79283,40.85235],[-73.79304,40.85337],[-73.79257,40.85402],[-73.79134,40.85455],[-73.7925,40.85579],[-73.79245,40.85658],[-73.79309,40.85669],[-73.79288,40.85748],[-73.7924,40.85785],[-73.79127,40.8573],[-73.79178,40.85775],[-73.79144,40.85815],[-73.79095,40.85762],[-73.78926,40.85876],[-73.78873,40.85752],[-73.78803,40.85751],[-73.78886,40.85655],[-73.78844,40.85436],[-73.78691,40.85406],[-73.78794,40.85345],[-73.7859,40.8518],[-73.78338,40.85159],[-73.78437,40.85095],[-73.78353,40.84922],[-73.78154,40.8494],[-73.78185,40.84899],[-73.78098,40.84846],[-73.78211,40.84681],[-73.7804,40.84693],[-73.78115,40.84625],[-73.78133,40.8467],[-73.7824,40.84639],[-73.78182,40.84548],[-73.78189,40.84533],[-73.783,40.84504],[-73.78301,40.84411],[-73.78053,40.84452],[-73.77993,40.84388],[-73.78023,40.84288],[-73.78162,40.84247],[-73.78125,40.84203],[-73.78031,40.84252],[-73.7802,40.84205],[-73.78182,40.84157],[-73.7808,40.84126],[-73.78143,40.8409],[-73.78114,40.83949],[-73.78188,40.83765],[-73.78288,40.83734],[-73.78282,40.83634],[-73.78344,40.83687],[-73.78498,40.83675],[-73.78488,40.83745],[-73.78564,40.83706],[-73.78583,40.83721],[-73.78521,40.83754],[-73.78574,40.83923],[-73.78741,40.83968],[-73.78768,40.84068],[-73.78824,40.84071],[-73.78772,40.84127],[-73.78837,40.8415],[-73.78824,40.84221],[-73.78903,40.84319],[-73.78993,40.84304],[-73.78947,40.84428],[-73.79192,40.84723],[-73.79101,40.84899],[-73.78981,40.84951],[-73.79099,40.84983],[-73.78999,40.85069],[-73.79104,40.85181],[-73.79312,40.85158],[-73.79351,40.85226]],[[-73.78287,40.84312],[-73.78259,40.84256],[-73.78194,40.84323],[-73.7814,40.84279],[-73.7814,40.84339],[-73.78084,40.84289],[-73.78084,40.84351],[-73.78044,40.84295],[-73.7803,40.84384],[-73.78069,40.8444],[-73.78137,40.8437],[-73.78185,40.84413],[-73.78183,40.84358],[-73.78221,40.84406],[-73.78287,40.84312]],[[-73.78207,40.84567],[-73.78239,40.8453],[-73.782,40.8454],[-73.78207,40.84567]],[[-73.79144,40.85367],[-73.79214,40.85288],[-73.79114,40.85332],[-73.79144,40.85367]],[[-73.79208,40.85708],[-73.79224,40.85662],[-73.79191,40.85681],[-73.79208,40.85708]],[[-73.79275,40.85735],[-73.79258,40.85669],[-73.79236,40.85713],[-73.79275,40.85735]],[[-73.79287,40.85328],[-73.79243,40.85285],[-73.79255,40.85332],[-73.79287,40.85328]]],[[[-73.78118,40.85503],[-73.78068,40.85534],[-73.78077,40.85484],[-73.78118,40.85503]]],[[[-73.7822,40.87643],[-73.78121,40.87659],[-73.78129,40.87594],[-73.78142,40.87577],[-73.7822,40.87643]]],[[[-73.78213,40.87453],[-73.78244,40.87521],[-73.78193,40.8754],[-73.78213,40.87453]]],[[[-73.78386,40.85483],[-73.7833,40.85585],[-73.7826,40.85482],[-73.78317,40.85493],[-73.78386,40.85483]]],[[[-73.78469,40.86257],[-73.78427,40.86321],[-73.78354,40.8631],[-73.78391,40.86251],[-73.78469,40.86257]]],[[[-73.78323,40.86232],[-73.78289,40.86264],[-73.78314,40.86207],[-73.78323,40.86232]]],[[[-73.93361,40.83279],[-73.93299,40.83568],[-73.92862,40.84468],[-73.91957,40.85684],[-73.91341,40.86337],[-73.91242,40.86345],[-73.9128,40.8639],[-73.91043,40.86656],[-73.90868,40.87137],[-73.90956,40.87304],[-73.91133,40.87435],[-73.91908,40.87606],[-73.92275,40.87891],[-73.9249,40.87889],[-73.92039,40.88764],[-73.91501,40.90308],[-73.91263,40.90812],[-73.91165,40.91342],[-73.91033,40.91553],[-73.85956,40.90055],[-73.85958,40.90244],[-73.85824,40.90229],[-73.85713,40.90362],[-73.85718,40.90529],[-73.85619,40.90524],[-73.85681,40.90616],[-73.85381,40.90768],[-73.85471,40.90801],[-73.85459,40.90894],[-73.85296,40.91035],[-73.85234,40.90986],[-73.85107,40.91037],[-73.85326,40.90746],[-73.85099,40.90665],[-73.85017,40.90751],[-73.84482,40.90553],[-73.84475,40.90419],[-73.84139,40.90417],[-73.84078,40.90163],[-73.83922,40.89942],[-73.83965,40.89733],[-73.83834,40.89411],[-73.82361,40.88988],[-73.82285,40.89121],[-73.79301,40.88336],[-73.79533,40.88049],[-73.79503,40.87974],[-73.79744,40.87514],[-73.79978,40.87416],[-73.80081,40.87149],[-73.80266,40.8701],[-73.80297,40.86875],[-73.80594,40.86893],[-73.80571,40.86956],[-73.80753,40.87056],[-73.80772,40.86981],[-73.80673,40.86953],[-73.80632,40.86848],[-73.80487,40.86823],[-73.80462,40.86687],[-73.80291,40.86698],[-73.80272,40.86566],[-73.80177,40.86593],[-73.79774,40.87235],[-73.79476,40.87325],[-73.79339,40.87695],[-73.7944,40.87764],[-73.79289,40.87958],[-73.78914,40.88126],[-73.78912,40.88008],[-73.78994,40.87956],[-73.78953,40.87902],[-73.78611,40.87906],[-73.78422,40.87828],[-73.78468,40.87606],[-73.78693,40.87395],[-73.78713,40.87284],[-73.78624,40.87242],[-73.78508,40.87359],[-73.78524,40.87182],[-73.78402,40.87377],[-73.78341,40.87372],[-73.78382,40.87284],[-73.78307,40.87215],[-73.78329,40.8707],[-73.7856,40.86834],[-73.78595,40.86932],[-73.78859,40.86917],[-73.79153,40.86732],[-73.79223,40.86525],[-73.79146,40.86227],[-73.79189,40.86107],[-73.79358,40.86052],[-73.79411,40.8597],[-73.79486,40.85808],[-73.79435,40.85653],[-73.79684,40.85626],[-73.79799,40.85485],[-73.79873,40.85487],[-73.79902,40.85395],[-73.79796,40.85299],[-73.79781,40.85195],[-73.79819,40.85059],[-73.79932,40.8499],[-73.80019,40.84821],[-73.80146,40.84877],[-73.80418,40.85334],[-73.80453,40.85485],[-73.80352,40.85557],[-73.80475,40.86149],[-73.806,40.86178],[-73.80582,40.86003],[-73.80741,40.86011],[-73.80818,40.85949],[-73.81091,40.86236],[-73.81382,40.86387],[-73.81629,40.86125],[-73.81382,40.86055],[-73.81273,40.85888],[-73.81231,40.85416],[-73.81638,40.85407],[-73.81715,40.85226],[-73.81701,40.85108],[-73.81571,40.85082],[-73.81623,40.85012],[-73.81513,40.84917],[-73.81607,40.84643],[-73.81369,40.84727],[-73.81473,40.84628],[-73.81392,40.84586],[-73.8117,40.84668],[-73.81266,40.84421],[-73.81323,40.84493],[-73.8138,40.84474],[-73.81347,40.84366],[-73.815,40.8435],[-73.81574,40.84443],[-73.81655,40.84389],[-73.81517,40.84258],[-73.81557,40.84175],[-73.81473,40.84138],[-73.81523,40.84101],[-73.81431,40.83962],[-73.81646,40.83771],[-73.81607,40.83608],[-73.8155,40.83595],[-73.81611,40.8352],[-73.81549,40.83231],[-73.81467,40.83076],[-73.8139,40.83091],[-73.81411,40.83023],[-73.81274,40.82829],[-73.80993,40.82818],[-73.81255,40.82783],[-73.81374,40.82683],[-73.81292,40.82635],[-73.81372,40.82528],[-73.81211,40.82555],[-73.81398,40.8242],[-73.81331,40.82399],[-73.81274,40.82478],[-73.81178,40.82435],[-73.80909,40.82587],[-73.80698,40.82539],[-73.80666,40.82342],[-73.80595,40.82288],[-73.80597,40.82078],[-73.80462,40.81903],[-73.80347,40.81827],[-73.80071,40.81805],[-73.79759,40.81651],[-73.79738,40.81576],[-73.79908,40.81548],[-73.8013,40.81328],[-73.8014,40.81236],[-73.80183,40.81284],[-73.80361,40.81252],[-73.80471,40.81476],[-73.8063,40.81593],[-73.80499,40.8122],[-73.80391,40.81211],[-73.80234,40.81005],[-73.80101,40.81071],[-73.80123,40.81007],[-73.79854,40.80959],[-73.79231,40.80686],[-73.79086,40.80734],[-73.79006,40.80541],[-73.79104,40.80426],[-73.79339,40.80421],[-73.79566,40.80609],[-73.79792,40.80671],[-73.80168,40.80902],[-73.80393,40.80853],[-73.80992,40.81293],[-73.81402,40.81354],[-73.8145,40.81291],[-73.81459,40.81349],[-73.81622,40.81385],[-73.81982,40.81318],[-73.82107,40.8122],[-73.82068,40.81299],[-73.82409,40.81216],[-73.82536,40.81103],[-73.82802,40.81145],[-73.83019,40.81084],[-73.83217,40.80817],[-73.83162,40.80494],[-73.83744,40.8062],[-73.84043,40.81254],[-73.83957,40.8145],[-73.84009,40.81781],[-73.83879,40.81955],[-73.83906,40.82266],[-73.84233,40.82907],[-73.84189,40.83071],[-73.83885,40.8337],[-73.83918,40.83863],[-73.8399,40.83955],[-73.83959,40.83404],[-73.84222,40.83152],[-73.84308,40.82966],[-73.84002,40.82219],[-73.84,40.81994],[-73.84199,40.81876],[-73.84617,40.81068],[-73.8472,40.81058],[-73.84823,40.81248],[-73.85064,40.81394],[-73.85262,40.81415],[-73.84904,40.81212],[-73.84988,40.80844],[-73.84876,40.80833],[-73.8492,40.80786],[-73.84754,40.80593],[-73.8479,40.805],[-73.85605,40.80459],[-73.85813,40.80547],[-73.85919,40.80626],[-73.8594,40.80753],[-73.85872,40.80687],[-73.8584,40.80822],[-73.85897,40.80994],[-73.85995,40.8096],[-73.85933,40.809],[-73.8594,40.80816],[-73.86066,40.80963],[-73.86766,40.81058],[-73.8708,40.81449],[-73.87641,40.81609],[-73.8766,40.81535],[-73.87239,40.81397],[-73.87057,40.81209],[-73.86811,40.80675],[-73.87175,40.80155],[-73.87355,40.80085],[-73.87814,40.80132],[-73.87819,40.80258],[-73.87919,40.80279],[-73.88372,40.80186],[-73.88505,40.80213],[-73.88794,40.80496],[-73.88949,40.80539],[-73.89,40.80489],[-73.88985,40.80567],[-73.89179,40.80562],[-73.89212,40.80638],[-73.89255,40.80578],[-73.89128,40.80498],[-73.8922,40.80528],[-73.89257,40.80562],[-73.89286,40.80632],[-73.89484,40.80572],[-73.89526,40.80675],[-73.89528,40.80577],[-73.8956,40.80629],[-73.89587,40.80581],[-73.89703,40.80613],[-73.90219,40.80476],[-73.91089,40.79702],[-73.91372,40.79679],[-73.92024,40.79961],[-73.92292,40.80237],[-73.92763,40.8027],[-73.92759,40.80391],[-73.92873,40.8041],[-73.93229,40.80837],[-73.93287,40.81041],[-73.93241,40.82127],[-73.93361,40.83279]],[[-73.8082,40.87108],[-73.80803,40.87043],[-73.80769,40.87064],[-73.8082,40.87108]],[[-73.85564,40.80507],[-73.85636,40.80494],[-73.85563,40.80475],[-73.85564,40.80507]],[[-73.85906,40.80653],[-73.85838,40.80605],[-73.85865,40.80669],[-73.85906,40.80653]]],[[[-73.78375,40.87654],[-73.78364,40.87748],[-73.78349,40.87748],[-73.78375,40.87654]]],[[[-73.78568,40.87985],[-73.78496,40.88075],[-73.78367,40.88002],[-73.78497,40.88032],[-73.78504,40.87976],[-73.78568,40.87985]]],[[[-73.78773,40.85877],[-73.787,40.86023],[-73.7845,40.86047],[-73.78514,40.85879],[-73.78611,40.85927],[-73.78773,40.85877]]],[[[-73.78951,40.83536],[-73.78846,40.83531],[-73.78833,40.83467],[-73.78931,40.83447],[-73.78951,40.83536]]],[[[-73.80695,40.84146],[-73.80681,40.84249],[-73.80394,40.84259],[-73.80222,40.84163],[-73.80264,40.84108],[-73.80695,40.84146]]],[[[-73.89282,40.79282],[-73.89179,40.79678],[-73.89083,40.79801],[-73.88886,40.79787],[-73.88898,40.79875],[-73.88821,40.79867],[-73.88399,40.79587],[-73.87838,40.79452],[-73.87288,40.79145],[-73.87123,40.79006],[-73.87079,40.78796],[-73.87308,40.78586],[-73.87831,40.78536],[-73.8877,40.78687],[-73.88906,40.78738],[-73.89055,40.79009],[-73.89218,40.79039],[-73.89282,40.79282]]],[[[-73.90021,40.79926],[-73.90004,40.80091],[-73.89833,40.80241],[-73.89647,40.80079],[-73.89864,40.7991],[-73.90021,40.79926]]],[[[-73.89919,40.7965],[-73.89788,40.79712],[-73.89681,40.79581],[-73.89797,40.79565],[-73.89919,40.7965]]]]}},{"type":"Feature","properties":{"boro":"Manhattan"},"geometry":{"type":"MultiPolygon","coordinates":[[[[-74.01934,40.70609],[-74.01827,40.70762],[-74.01885,40.70805],[-74.01777,40.71283],[-74.01672,40.71219],[-74.01637,40.7132],[-74.01743,40.71357],[-74.01772,40.71307],[-74.01671,40.71862],[-74.01335,40.71834],[-74.01308,40.71888],[-74.01296,40.71964],[-74.01357,40.72003],[-74.01638,40.72038],[-74.01311,40.72036],[-74.01305,40.72088],[-74.01562,40.72154],[-74.01251,40.72167],[-74.01172,40.72585],[-74.0152,40.72637],[-74.01512,40.72679],[-74.01153,40.72661],[-74.01149,40.72821],[-74.01439,40.72846],[-74.01408,40.73067],[-74.01119,40.73054],[-74.01097,40.73288],[-74.014,40.73333],[-74.01084,40.73345],[-74.012,40.73433],[-74.0108,40.73443],[-74.01049,40.7379],[-74.01114,40.73839],[-74.01041,40.73903],[-74.01158,40.73926],[-74.01151,40.7405],[-74.01266,40.74075],[-74.00946,40.74091],[-74.0114,40.74182],[-74.01084,40.7426],[-74.00934,40.74229],[-74.00917,40.74285],[-74.01215,40.74356],[-74.00887,40.74408],[-74.00887,40.74489],[-74.01184,40.74513],[-74.01178,40.7456],[-74.00944,40.74591],[-74.01159,40.7466],[-74.00922,40.74693],[-74.01141,40.74763],[-74.00903,40.74795],[-74.01122,40.74868],[-74.00997,40.74898],[-74.00917,40.75021],[-74.01056,40.75132],[-74.00907,40.75072],[-74.00863,40.75171],[-74.00997,40.75293],[-74.00834,40.75246],[-74.00774,40.75434],[-74.00492,40.75766],[-74.00522,40.75843],[-74.007,40.75923],[-74.00648,40.75989],[-74.0045,40.75914],[-74.00269,40.76106],[-74.00252,40.76161],[-74.00456,40.76252],[-74.00225,40.76178],[-74.00166,40.76263],[-74.00361,40.76378],[-74.00112,40.76322],[-74.00315,40.76473],[-73.99957,40.76363],[-73.99935,40.76428],[-74.00229,40.76556],[-73.99896,40.76462],[-73.99841,40.76557],[-74.00156,40.767],[-73.99798,40.76599],[-73.99756,40.76689],[-74.00065,40.76825],[-73.99706,40.76726],[-73.99664,40.76817],[-73.99973,40.76951],[-73.99716,40.76886],[-73.99672,40.76946],[-73.99903,40.77046],[-73.99876,40.77082],[-73.99631,40.76986],[-73.99554,40.77089],[-73.996,40.77131],[-73.99509,40.77161],[-73.99687,40.77282],[-73.99486,40.77198],[-73.99461,40.77243],[-73.99612,40.77328],[-73.99407,40.77261],[-73.99618,40.77399],[-73.99396,40.77324],[-73.99227,40.77513],[-73.98906,40.77949],[-73.99155,40.77958],[-73.98896,40.77995],[-73.98553,40.78536],[-73.98623,40.78602],[-73.98712,40.78521],[-73.98581,40.78662],[-73.98457,40.78666],[-73.96414,40.81577],[-73.95939,40.82086],[-73.95877,40.82186],[-73.95991,40.82257],[-73.95961,40.82299],[-73.95863,40.822],[-73.95822,40.82226],[-73.95828,40.82306],[-73.95956,40.82369],[-73.95726,40.82711],[-73.95632,40.82794],[-73.95511,40.82746],[-73.95448,40.82796],[-73.9512,40.83262],[-73.94843,40.83986],[-73.94613,40.8439],[-73.94697,40.85046],[-73.94347,40.85229],[-73.94188,40.85385],[-73.93244,40.86755],[-73.93191,40.87113],[-73.92918,40.87556],[-73.92648,40.87762],[-73.92618,40.87706],[-73.92354,40.8773],[-73.92238,40.87676],[-73.92261,40.8744],[-73.92116,40.87305],[-73.91997,40.87343],[-73.9208,40.87419],[-73.92081,40.87548],[-73.91888,40.87468],[-73.91892,40.87334],[-73.91758,40.87455],[-73.91569,40.87453],[-73.91143,40.87319],[-73.91043,40.87138],[-73.91255,40.86651],[-73.91441,40.86417],[-73.91537,40.86437],[-73.91539,40.86308],[-73.9173,40.86167],[-73.9195,40.85879],[-73.9216,40.86004],[-73.92177,40.85919],[-73.92091,40.85822],[-73.92152,40.8566],[-73.92972,40.84523],[-73.93492,40.8352],[-73.93516,40.83268],[-73.93383,40.81971],[-73.93434,40.80956],[-73.92904,40.80108],[-73.92928,40.79585],[-73.9302,40.79459],[-73.93582,40.7911],[-73.93699,40.78947],[-73.93613,40.78892],[-73.93719,40.78906],[-73.93983,40.78526],[-73.94324,40.78333],[-73.94388,40.78153],[-73.9436,40.78016],[-73.94211,40.77945],[-73.94294,40.7788],[-73.942,40.77619],[-73.94293,40.77468],[-73.9623,40.75444],[-73.97178,40.7429],[-73.97266,40.73921],[-73.97249,40.7358],[-73.97295,40.73507],[-73.97435,40.73497],[-73.97341,40.73127],[-73.97148,40.72925],[-73.97149,40.72735],[-73.97357,40.7186],[-73.97643,40.71191],[-73.97791,40.7106],[-73.98125,40.70983],[-73.98839,40.70913],[-73.98884,40.70996],[-73.99807,40.70851],[-74.00108,40.70691],[-74.00126,40.70608],[-74.00059,40.70541],[-74.00145,40.70487],[-74.00221,40.70535],[-74.00219,40.70461],[-74.00357,40.70547],[-74.00286,40.70408],[-74.00409,40.7051],[-74.00638,40.70383],[-74.00549,40.70243],[-74.00684,40.70352],[-74.00909,40.70199],[-74.00872,40.70121],[-74.00759,40.70133],[-74.00835,40.70067],[-74.0097,40.70181],[-74.01107,40.7014],[-74.0108,40.70021],[-74.0112,40.70064],[-74.01304,40.69978],[-74.01369,40.70096],[-74.01422,40.70011],[-74.0151,40.70033],[-74.01495,40.70078],[-74.01893,40.70477],[-74.01934,40.70609]],[[-73.92231,40.85658],[-73.92203,40.85614],[-73.92188,40.85665],[-73.92231,40.85658]],[[-73.97414,40.73596],[-73.97333,40.7353],[-73.97291,40.73539],[-73.97305,40.73585],[-73.97414,40.73596]],[[-73.98558,40.78649],[-73.98494,40.78613],[-73.9849,40.7865],[-73.98558,40.78649]],[[-73.98522,40.78591],[-73.9859,40.78588],[-73.98537,40.78555],[-73.98522,40.78591]],[[-74.01006,40.74172],[-74.00927,40.74197],[-74.00968,40.74228],[-74.01006,40.74172]]],[[[-73.93607,40.78422],[-73.93571,40.78568],[-73.9324,40.78972],[-73.93084,40.79099],[-73.92972,40.79137],[-73.92807,40.79085],[-73.92739,40.79167],[-73.92834,40.79297],[-73.92694,40.79551],[-73.92711,40.79719],[-73.92771,40.7973],[-73.92684,40.80005],[-73.92725,40.80039],[-73.92549,40.80196],[-73.92191,40.8015],[-73.92031,40.79938],[-73.91545,40.79706],[-73.9138,40.79451],[-73.91514,40.79201],[-73.91687,40.79036],[-73.91852,40.78973],[-73.92218,40.78552],[-73.92285,40.78356],[-73.92448,40.78232],[-73.9281,40.78092],[-73.93104,40.78239],[-73.93502,40.78301],[-73.93607,40.78422]],[[-73.9262,40.79115],[-73.92643,40.79072],[-73.92608,40.79081],[-73.9262,40.79115]]],[[[-73.92364,40.87882],[-73.92363,40.87896],[-73.92359,40.87895],[-73.92364,40.87882]]],[[[-73.93557,40.77163],[-73.93581,40.7718],[-73.93557,40.77192],[-73.93557,40.77163]]],[[[-73.93958,40.77958],[-73.93874,40.78105],[-73.93765,40.781],[-73.9376,40.78047],[-73.93958,40.77958]]],[[[-73.96154,40.74972],[-73.95902,40.75359],[-73.94472,40.76979],[-73.94213,40.77203],[-73.94008,40.77293],[-73.94028,40.77068],[-73.94112,40.76941],[-73.94287,40.76829],[-73.95322,40.75643],[-73.95791,40.75211],[-73.96154,40.74972]]],[[[-73.95773,40.74829],[-73.95769,40.74853],[-73.95749,40.74834],[-73.95773,40.74829]]],[[[-73.96057,40.74403],[-73.96065,40.74413],[-73.96052,40.74411],[-73.96057,40.74403]]],[[[-73.96128,40.73006],[-73.96225,40.72999],[-73.96128,40.73016],[-73.96128,40.73006]]],[[[-73.96366,40.73125],[-73.96198,40.73158],[-73.96167,40.73148],[-73.96366,40.73125]]],[[[-73.96207,40.72388],[-73.96237,40.72421],[-73.96201,40.72399],[-73.96207,40.72388]]],[[[-73.96568,40.72068],[-73.96508,40.7206],[-73.96503,40.72038],[-73.96512,40.72032],[-73.96568,40.72068]]],[[[-73.96504,40.72066],[-73.96484,40.72146],[-73.96403,40.72088],[-73.9644,40.72044],[-73.96504,40.72066]]],[[[-73.96445,40.74641],[-73.96422,40.74684],[-73.96413,40.74685],[-73.96445,40.74641]]],[[[-73.96576,40.71869],[-73.96646,40.71943],[-73.96574,40.71871],[-73.96576,40.71869]]],[[[-73.9666,40.71797],[-73.96707,40.71844],[-73.96656,40.71802],[-73.9666,40.71797]]],[[[-73.98218,40.70574],[-73.98242,40.70582],[-73.98102,40.7059],[-73.98218,40.70574]]],[[[-73.99814,40.70152],[-73.99619,40.70338],[-73.9948,40.70329],[-73.9967,40.70088],[-73.99814,40.70152]]],[[[-73.99488,40.70379],[-73.99488,40.70401],[-73.99477,40.70395],[-73.99488,40.70379]]],[[[-74.00002,40.69947],[-73.99947,40.70032],[-73.9975,40.69964],[-73.99802,40.69876],[-74.00002,40.69947]]],[[[-74.00105,40.69791],[-74.00049,40.69876],[-73.99838,40.69806],[-73.99887,40.69716],[-74.00105,40.69791]]],[[[-74.00301,40.69478],[-74.0024,40.69571],[-74.00027,40.69497],[-74.00096,40.69407],[-74.00301,40.69478]]],[[[-74.00479,40.69176],[-74.00441,40.69253],[-74.00217,40.69206],[-74.00221,40.69257],[-74.00401,40.69321],[-74.00345,40.69405],[-74.00127,40.6933],[-74.00213,40.692],[-74.0007,40.69061],[-74.00479,40.69176]]],[[[-74.00576,40.69024],[-74.00534,40.69109],[-74.00298,40.69043],[-74.00341,40.68961],[-74.00576,40.69024]]],[[[-74.00678,40.68883],[-74.00636,40.68967],[-74.00382,40.68893],[-74.00459,40.68822],[-74.00678,40.68883]]],[[[-74.00783,40.68739],[-74.00742,40.68821],[-74.005,40.68761],[-74.00563,40.68678],[-74.00783,40.68739]]],[[[-74.01193,40.68389],[-74.00835,40.6864],[-74.00816,40.68617],[-74.01193,40.68389]]],[[[-74.02319,40.683],[-74.02269,40.68419],[-74.02567,40.68423],[-74.02657,40.68591],[-74.01973,40.69312],[-74.01539,40.6933],[-74.01344,40.69213],[-74.01181,40.69248],[-74.01306,40.69198],[-74.01183,40.69106],[-74.01317,40.68815],[-74.01693,40.68685],[-74.01514,40.68644],[-74.01726,40.68678],[-74.02043,40.68522],[-74.0194,40.68509],[-74.02095,40.68438],[-74.02059,40.68518],[-74.02205,40.6846],[-74.02213,40.68377],[-74.02319,40.683]]],[[[-74.04367,40.69802],[-74.03995,40.70089],[-74.03771,40.69934],[-74.03823,40.69837],[-74.03934,40.69812],[-74.04136,40.69944],[-74.04157,40.69902],[-74.03991,40.6977],[-74.04166,40.69645],[-74.04367,40.69802]]],[[[-74.04773,40.68992],[-74.04703,40.69004],[-74.04717,40.69099],[-74.04615,40.69112],[-74.04351,40.68975],[-74.0427,40.69015],[-74.04255,40.68996],[-74.04439,40.68852],[-74.04773,40.68992]]]]}},{"type":"Feature","properties":{"boro":"Queens"},"geometry":{"type":"MultiPolygon","coordinates":[[[[-73.96262,40.73903],[-73.96145,40.74029],[-73.96194,40.7408],[-73.96008,40.74368],[-73.96057,40.74403],[-73.95947,40.74442],[-73.95967,40.74517],[-73.95845,40.7471],[-73.95704,40.74892],[-73.9554,40.74841],[-73.95632,40.74908],[-73.9562,40.74969],[-73.95488,40.74997],[-73.9545,40.75123],[-73.9435,40.7645],[-73.93984,40.76799],[-73.93489,40.77005],[-73.93487,40.77172],[-73.93747,40.77253],[-73.93781,40.77356],[-73.93765,40.77509],[-73.93638,40.77692],[-73.93381,40.7781],[-73.93179,40.77787],[-73.92992,40.77624],[-73.92862,40.77659],[-73.91726,40.78416],[-73.9126,40.78937],[-73.91102,40.78978],[-73.90986,40.79095],[-73.90033,40.78901],[-73.89593,40.78565],[-73.89876,40.78275],[-73.90119,40.78267],[-73.90218,40.78177],[-73.90256,40.78028],[-73.90129,40.78186],[-73.89863,40.78202],[-73.89438,40.78424],[-73.89583,40.783],[-73.89311,40.7819],[-73.89239,40.78244],[-73.89275,40.78297],[-73.89165,40.78219],[-73.89288,40.78183],[-73.89166,40.78084],[-73.89245,40.7797],[-73.8912,40.77856],[-73.89241,40.77737],[-73.89152,40.77654],[-73.89009,40.77778],[-73.88947,40.77573],[-73.88991,40.77389],[-73.88942,40.77354],[-73.88463,40.77423],[-73.88541,40.77966],[-73.87891,40.7807],[-73.87899,40.78238],[-73.87975,40.78284],[-73.8797,40.78288],[-73.87885,40.7825],[-73.87834,40.78303],[-73.87508,40.78155],[-73.87125,40.78604],[-73.86976,40.7854],[-73.8681,40.78746],[-73.86788,40.78736],[-73.86984,40.78508],[-73.86943,40.78372],[-73.8685,40.78367],[-73.86943,40.78357],[-73.8722,40.78116],[-73.87022,40.78125],[-73.8723,40.78065],[-73.85505,40.7722],[-73.85642,40.7703],[-73.85726,40.77022],[-73.85625,40.76889],[-73.85709,40.76906],[-73.85937,40.76708],[-73.86252,40.76656],[-73.85941,40.7625],[-73.85839,40.76222],[-73.85776,40.763],[-73.8585,40.76338],[-73.85834,40.76356],[-73.85762,40.76315],[-73.85696,40.76407],[-73.85668,40.76393],[-73.85747,40.76315],[-73.85659,40.76272],[-73.85678,40.76251],[-73.85757,40.76301],[-73.85806,40.76245],[-73.85662,40.76163],[-73.85812,40.76233],[-73.85838,40.76182],[-73.85465,40.76017],[-73.8507,40.75945],[-73.84938,40.76015],[-73.84984,40.76102],[-73.85207,40.76039],[-73.84981,40.76127],[-73.84859,40.76018],[-73.8431,40.76358],[-73.84273,40.76463],[-73.8396,40.7653],[-73.83923,40.76589],[-73.83992,40.76665],[-73.84449,40.76546],[-73.84781,40.76677],[-73.84862,40.76811],[-73.84819,40.76848],[-73.849,40.76915],[-73.84867,40.77076],[-73.84998,40.77192],[-73.85034,40.77174],[-73.8513,40.77181],[-73.85012,40.77204],[-73.84898,40.77355],[-73.84897,40.77799],[-73.84991,40.77933],[-73.85236,40.77917],[-73.85167,40.78003],[-73.84965,40.78012],[-73.8499,40.78105],[-73.85094,40.78111],[-73.84994,40.78117],[-73.8494,40.78227],[-73.85528,40.78197],[-73.85552,40.78311],[-73.85665,40.78289],[-73.85809,40.78373],[-73.8585,40.78516],[-73.85935,40.78503],[-73.85814,40.78705],[-73.85697,40.78666],[-73.85593,40.78769],[-73.85303,40.78805],[-73.8548,40.78861],[-73.85448,40.79025],[-73.85265,40.79114],[-73.85377,40.79234],[-73.85369,40.79402],[-73.85263,40.79494],[-73.84904,40.79337],[-73.84871,40.79542],[-73.84624,40.79616],[-73.84459,40.79491],[-73.84353,40.79492],[-73.84328,40.79617],[-73.84235,40.79565],[-73.84287,40.79692],[-73.84143,40.79525],[-73.8413,40.79622],[-73.84023,40.79696],[-73.84041,40.79768],[-73.8379,40.79851],[-73.84018,40.79743],[-73.8384,40.79676],[-73.83708,40.7939],[-73.83659,40.79208],[-73.83749,40.79107],[-73.83682,40.79047],[-73.83735,40.78981],[-73.83294,40.78852],[-73.83183,40.78912],[-73.83166,40.79111],[-73.82912,40.79189],[-73.8286,40.79243],[-73.82924,40.793],[-73.82836,40.79258],[-73.8278,40.79329],[-73.82883,40.79613],[-73.83052,40.79639],[-73.82996,40.79691],[-73.82743,40.79675],[-73.82674,40.7978],[-73.82506,40.79738],[-73.82406,40.79799],[-73.82423,40.7987],[-73.82379,40.7982],[-73.82375,40.79888],[-73.82286,40.79872],[-73.82268,40.79949],[-73.82225,40.79927],[-73.8205,40.80101],[-73.81577,40.79902],[-73.81592,40.7985],[-73.81329,40.79722],[-73.81225,40.79813],[-73.81159,40.79737],[-73.80654,40.79643],[-73.80623,40.79682],[-73.805,40.79616],[-73.80321,40.79708],[-73.80251,40.79629],[-73.80013,40.79645],[-73.7946,40.79494],[-73.79432,40.79358],[-73.79494,40.79178],[-73.79385,40.78927],[-73.79324,40.78953],[-73.79347,40.78905],[-73.79281,40.78878],[-73.79028,40.79032],[-73.78567,40.79034],[-73.78279,40.79116],[-73.78434,40.79175],[-73.78169,40.79118],[-73.78078,40.79301],[-73.78166,40.79348],[-73.78081,40.79337],[-73.78079,40.79403],[-73.78322,40.79496],[-73.78198,40.79499],[-73.77936,40.79669],[-73.77618,40.7961],[-73.77402,40.79404],[-73.77063,40.78846],[-73.77174,40.78746],[-73.77412,40.78674],[-73.77405,40.7859],[-73.76837,40.77967],[-73.76678,40.77981],[-73.76806,40.77924],[-73.76573,40.77461],[-73.75894,40.76833],[-73.7586,40.76733],[-73.75369,40.76546],[-73.75507,40.76753],[-73.75469,40.76964],[-73.75557,40.77153],[-73.75338,40.77322],[-73.75519,40.7765],[-73.75487,40.77752],[-73.75552,40.7777],[-73.7547,40.77773],[-73.75231,40.782],[-73.75033,40.78247],[-73.74825,40.78076],[-73.74726,40.77889],[-73.74625,40.77844],[-73.745,40.7792],[-73.73938,40.77601],[-73.70163,40.75249],[-73.70001,40.73932],[-73.70766,40.72783],[-73.71694,40.72638],[-73.72568,40.72404],[-73.73027,40.72214],[-73.7269,40.70998],[-73.72678,40.70192],[-73.72591,40.68264],[-73.72563,40.67959],[-73.72755,40.67415],[-73.72824,40.66801],[-73.72782,40.66312],[-73.72827,40.66288],[-73.72557,40.65673],[-73.72498,40.65425],[-73.72523,40.652],[-73.73051,40.65031],[-73.73514,40.64973],[-73.74139,40.6469],[-73.74202,40.64149],[-73.74142,40.6405],[-73.74215,40.64003],[-73.73947,40.63571],[-73.73996,40.63514],[-73.74255,40.63519],[-73.7411,40.63732],[-73.74188,40.63812],[-73.74422,40.63796],[-73.74626,40.63644],[-73.74702,40.63691],[-73.74621,40.64034],[-73.74675,40.6423],[-73.74879,40.64509],[-73.74946,40.64493],[-73.75315,40.64714],[-73.75343,40.64649],[-73.74871,40.64335],[-73.74741,40.64138],[-73.74856,40.63541],[-73.76639,40.62836],[-73.76859,40.62475],[-73.76867,40.62273],[-73.7697,40.62176],[-73.77019,40.61979],[-73.77165,40.62042],[-73.77086,40.6229],[-73.77169,40.6234],[-73.77229,40.62287],[-73.77512,40.61924],[-73.77518,40.61926],[-73.77195,40.62384],[-73.77651,40.62762],[-73.77948,40.62729],[-73.78514,40.62014],[-73.78442,40.61697],[-73.78321,40.61564],[-73.78079,40.61459],[-73.78089,40.61364],[-73.78355,40.61192],[-73.78494,40.61191],[-73.78578,40.61099],[-73.78861,40.61],[-73.7914,40.60761],[-73.79148,40.60868],[-73.79365,40.60899],[-73.79503,40.61047],[-73.8008,40.61193],[-73.79955,40.61335],[-73.79904,40.61555],[-73.79742,40.61666],[-73.79458,40.62251],[-73.79082,40.62232],[-73.78917,40.62299],[-73.78365,40.62812],[-73.78349,40.63016],[-73.78437,40.63138],[-73.78691,40.63226],[-73.78954,40.63412],[-73.79109,40.63416],[-73.79812,40.63104],[-73.79135,40.63408],[-73.79126,40.63489],[-73.79225,40.63589],[-73.79924,40.63842],[-73.81203,40.6443],[-73.8183,40.64627],[-73.82123,40.64898],[-73.82215,40.65014],[-73.82347,40.65531],[-73.82175,40.66012],[-73.8187,40.6611],[-73.81264,40.66016],[-73.8115,40.66024],[-73.81147,40.66073],[-73.81863,40.66209],[-73.82345,40.66009],[-73.82493,40.65545],[-73.82296,40.64804],[-73.8246,40.64945],[-73.8263,40.64943],[-73.8264,40.64832],[-73.82928,40.64958],[-73.83207,40.65402],[-73.8308,40.64898],[-73.83149,40.64789],[-73.83453,40.64802],[-73.83557,40.64843],[-73.83597,40.64935],[-73.83893,40.66127],[-73.83815,40.66208],[-73.83951,40.66227],[-73.83993,40.66173],[-73.83592,40.6455],[-73.84579,40.6441],[-73.84951,40.64413],[-73.85208,40.64618],[-73.85243,40.64716],[-73.85172,40.64892],[-73.84939,40.65143],[-73.85086,40.65151],[-73.8525,40.65055],[-73.85591,40.65131],[-73.85672,40.65281],[-73.85828,40.653],[-73.85935,40.65493],[-73.86135,40.65639],[-73.86103,40.65683],[-73.86161,40.657],[-73.8617,40.65791],[-73.8627,40.65762],[-73.86317,40.65828],[-73.85774,40.6601],[-73.85843,40.66345],[-73.85574,40.66407],[-73.85761,40.67154],[-73.86039,40.67125],[-73.86232,40.67904],[-73.86328,40.67908],[-73.86413,40.68229],[-73.86602,40.68192],[-73.86852,40.69482],[-73.87405,40.69418],[-73.87952,40.69114],[-73.88452,40.68668],[-73.88963,40.68424],[-73.89026,40.68492],[-73.89258,40.68349],[-73.89426,40.68517],[-73.89647,40.68234],[-73.90116,40.68788],[-73.9005,40.6883],[-73.90189,40.69108],[-73.90155,40.69166],[-73.9058,40.69413],[-73.90444,40.69579],[-73.91181,40.69995],[-73.91081,40.70102],[-73.9129,40.70236],[-73.91202,40.70356],[-73.92189,40.7094],[-73.92089,40.71056],[-73.92225,40.71286],[-73.92404,40.71401],[-73.92412,40.71514],[-73.92221,40.71632],[-73.92394,40.71904],[-73.92425,40.72141],[-73.9252,40.72244],[-73.92443,40.72359],[-73.92066,40.72372],[-73.92491,40.72451],[-73.92922,40.72825],[-73.93454,40.72911],[-73.93804,40.73051],[-73.94168,40.73588],[-73.94594,40.73751],[-73.94312,40.739],[-73.94715,40.7379],[-73.95378,40.73982],[-73.95742,40.73956],[-73.96073,40.73808],[-73.96217,40.73827],[-73.96262,40.73903]],[[-73.74491,40.7785],[-73.74445,40.77808],[-73.74439,40.77864],[-73.74491,40.7785]],[[-73.74891,40.76157],[-73.74866,40.76096],[-73.74841,40.76107],[-73.74891,40.76157]],[[-73.75089,40.76217],[-73.75083,40.7617],[-73.7506,40.76195],[-73.75089,40.76217]],[[-73.75311,40.76494],[-73.75379,40.76512],[-73.75325,40.7647],[-73.75311,40.76494]],[[-73.75439,40.64789],[-73.75463,40.64723],[-73.75361,40.64701],[-73.75355,40.64743],[-73.75439,40.64789]],[[-73.83236,40.65494],[-73.83224,40.65449],[-73.83206,40.65477],[-73.83236,40.65494]],[[-73.83326,40.65805],[-73.83266,40.65759],[-73.8326,40.65807],[-73.83326,40.65805]],[[-73.85004,40.78003],[-73.85029,40.77963],[-73.84988,40.7798],[-73.85004,40.78003]],[[-73.86039,40.65778],[-73.85984,40.65733],[-73.86006,40.65791],[-73.86039,40.65778]],[[-73.94236,40.73944],[-73.94149,40.73924],[-73.94053,40.7401],[-73.93868,40.74291],[-73.93986,40.74309],[-73.94119,40.74029],[-73.94236,40.73944]]],[[[-73.72586,40.68324],[-73.72586,40.68324],[-73.72586,40.68324],[-73.72586,40.68324]]],[[[-73.74676,40.77932],[-73.74672,40.78031],[-73.74559,40.77958],[-73.74676,40.77932]]],[[[-73.94074,40.54183],[-73.94027,40.55241],[-73.93925,40.55498],[-73.93647,40.55693],[-73.93222,40.55768],[-73.92587,40.56165],[-73.91767,40.56282],[-73.91205,40.56506],[-73.91197,40.56587],[-73.91175,40.56505],[-73.90972,40.56529],[-73.90979,40.56431],[-73.90793,40.56415],[-73.90799,40.56345],[-73.90664,40.56278],[-73.90287,40.56351],[-73.90162,40.56275],[-73.89613,40.56536],[-73.89537,40.56629],[-73.89567,40.56703],[-73.89261,40.56859],[-73.8891,40.56792],[-73.88373,40.56838],[-73.8839,40.56891],[-73.88328,40.56835],[-73.8778,40.5688],[-73.85045,40.58213],[-73.84521,40.58158],[-73.83941,40.58186],[-73.83855,40.58279],[-73.83584,40.58288],[-73.82862,40.58483],[-73.82803,40.58606],[-73.82481,40.58715],[-73.82294,40.58749],[-73.8214,40.5868],[-73.81758,40.58884],[-73.81764,40.58929],[-73.81362,40.5908],[-73.81359,40.5917],[-73.8132,40.59124],[-73.81171,40.59159],[-73.81149,40.5929],[-73.81002,40.59226],[-73.80961,40.59358],[-73.80434,40.59136],[-73.80427,40.59189],[-73.80783,40.59337],[-73.80798,40.59416],[-73.80711,40.59528],[-73.80605,40.59556],[-73.80411,40.59432],[-73.80392,40.5931],[-73.80252,40.59268],[-73.80249,40.59381],[-73.80313,40.59376],[-73.80511,40.59715],[-73.80298,40.59884],[-73.79422,40.59948],[-73.79152,40.60038],[-73.78786,40.60311],[-73.78636,40.6032],[-73.78793,40.601],[-73.79032,40.59921],[-73.79124,40.59663],[-73.79016,40.59607],[-73.78987,40.59483],[-73.79,40.59621],[-73.78967,40.59516],[-73.78913,40.5954],[-73.78907,40.59802],[-73.78351,40.60256],[-73.78314,40.60375],[-73.78395,40.60482],[-73.78367,40.60532],[-73.77856,40.60964],[-73.77535,40.60974],[-73.77422,40.60889],[-73.77514,40.60464],[-73.77469,40.60432],[-73.77546,40.60408],[-73.77564,40.60286],[-73.77815,40.60041],[-73.78018,40.60069],[-73.78195,40.59906],[-73.78185,40.59836],[-73.77991,40.59712],[-73.77747,40.59877],[-73.7763,40.60106],[-73.77497,40.60174],[-73.77361,40.59814],[-73.76977,40.59814],[-73.76955,40.5986],[-73.77101,40.59893],[-73.77113,40.60041],[-73.77023,40.60264],[-73.77057,40.6048],[-73.76985,40.60611],[-73.77001,40.60723],[-73.76895,40.60922],[-73.77222,40.6115],[-73.77335,40.61112],[-73.77297,40.61016],[-73.77417,40.61183],[-73.77338,40.61368],[-73.76649,40.61424],[-73.76515,40.61374],[-73.76493,40.61198],[-73.76237,40.61137],[-73.76172,40.61185],[-73.75844,40.61028],[-73.75499,40.61014],[-73.74799,40.61231],[-73.74678,40.61163],[-73.74576,40.61199],[-73.74324,40.60735],[-73.73823,40.60257],[-73.7385,40.59729],[-73.73799,40.59456],[-73.73849,40.59435],[-73.74218,40.5949],[-73.74663,40.5943],[-73.75175,40.59129],[-73.75387,40.59092],[-73.76136,40.59173],[-73.77746,40.59008],[-73.78878,40.58745],[-73.81352,40.58347],[-73.83386,40.57765],[-73.85718,40.56911],[-73.86269,40.5665],[-73.86356,40.56703],[-73.86641,40.56616],[-73.86631,40.56555],[-73.86687,40.56609],[-73.86829,40.56554],[-73.86825,40.56507],[-73.86925,40.56538],[-73.87049,40.56483],[-73.87028,40.56417],[-73.87092,40.56476],[-73.87249,40.56412],[-73.87238,40.56358],[-73.87322,40.56406],[-73.89492,40.55708],[-73.89552,40.55741],[-73.89708,40.55666],[-73.89799,40.5571],[-73.90059,40.55642],[-73.90279,40.55673],[-73.90691,40.5556],[-73.94037,40.54287],[-73.94074,40.54183]],[[-73.74057,40.59681],[-73.74099,40.59667],[-73.74069,40.59656],[-73.74057,40.59681]],[[-73.7682,40.5983],[-73.7688,40.59803],[-73.76807,40.59792],[-73.7682,40.5983]],[[-73.81086,40.59216],[-73.81143,40.59227],[-73.81119,40.59176],[-73.81086,40.59216]]],[[[-73.77087,40.61586],[-73.76855,40.62056],[-73.76746,40.62051],[-73.76671,40.61491],[-73.77087,40.61586]]],[[[-73.80401,40.60613],[-73.80131,40.60855],[-73.79709,40.60901],[-73.79582,40.60813],[-73.79528,40.60581],[-73.79593,40.60526],[-73.79563,40.60638],[-73.79646,40.60615],[-73.79611,40.60469],[-73.79732,40.60407],[-73.80171,40.60411],[-73.80381,40.60436],[-73.80401,40.60613]]],[[[-73.80641,40.62234],[-73.80542,40.62379],[-73.80163,40.6256],[-73.79906,40.62658],[-73.79759,40.6261],[-73.79866,40.62543],[-73.79787,40.62437],[-73.7988,40.62504],[-73.79982,40.6245],[-73.79866,40.6236],[-73.79983,40.62006],[-73.80074,40.61949],[-73.80182,40.62036],[-73.80151,40.61772],[-73.80347,40.6144],[-73.80364,40.61604],[-73.8059,40.61962],[-73.80641,40.62234]]],[[[-73.81501,40.60206],[-73.81429,40.60446],[-73.81052,40.60304],[-73.80986,40.6019],[-73.81029,40.59899],[-73.81158,40.59814],[-73.81222,40.59855],[-73.81501,40.60206]]],[[[-73.81448,40.62547],[-73.81249,40.62654],[-73.81199,40.62602],[-73.81237,40.62433],[-73.81168,40.62365],[-73.81301,40.62226],[-73.81304,40.62386],[-73.81448,40.62547]]],[[[-73.81262,40.62025],[-73.81261,40.62065],[-73.81256,40.62017],[-73.81262,40.62025]]],[[[-73.83485,40.59554],[-73.83239,40.5978],[-73.83068,40.59747],[-73.82948,40.59813],[-73.82812,40.59767],[-73.82599,40.59947],[-73.82483,40.59824],[-73.82453,40.59913],[-73.82376,40.60006],[-73.82445,40.6008],[-73.82295,40.60257],[-73.8229,40.60585],[-73.8213,40.60703],[-73.81964,40.61041],[-73.82087,40.61223],[-73.82128,40.6111],[-73.82049,40.61022],[-73.82161,40.60848],[-73.82189,40.6099],[-73.82289,40.61034],[-73.82561,40.61415],[-73.82725,40.61338],[-73.82775,40.61421],[-73.8309,40.615],[-73.83402,40.61438],[-73.83362,40.6226],[-73.83306,40.62287],[-73.83356,40.62394],[-73.83216,40.62469],[-73.8312,40.62432],[-73.83063,40.62615],[-73.8309,40.62685],[-73.83226,40.627],[-73.83246,40.62813],[-73.83306,40.62794],[-73.83114,40.63276],[-73.83341,40.6385],[-73.83222,40.63893],[-73.82808,40.6359],[-73.82548,40.63579],[-73.82443,40.63627],[-73.82419,40.63995],[-73.82338,40.63899],[-73.82067,40.62892],[-73.81623,40.62469],[-73.81675,40.62395],[-73.81799,40.62405],[-73.81866,40.62297],[-73.81744,40.62173],[-73.81621,40.62209],[-73.81539,40.6215],[-73.81543,40.62012],[-73.81719,40.61925],[-73.81777,40.61742],[-73.81643,40.6143],[-73.81408,40.61456],[-73.81536,40.61412],[-73.81485,40.61313],[-73.81605,40.61284],[-73.81552,40.61056],[-73.8145,40.61106],[-73.81518,40.60981],[-73.81487,40.60802],[-73.81553,40.60616],[-73.81736,40.60505],[-73.81849,40.59939],[-73.8212,40.59471],[-73.82548,40.59506],[-73.83322,40.59422],[-73.83485,40.59554]],[[-73.82449,40.59891],[-73.82443,40.59823],[-73.82412,40.59883],[-73.82449,40.59891]],[[-73.82959,40.62418],[-73.82968,40.62372],[-73.8294,40.62397],[-73.82959,40.62418]],[[-73.83125,40.62274],[-73.83174,40.62262],[-73.83141,40.62245],[-73.83125,40.62274]],[[-73.83288,40.62197],[-73.83288,40.62149],[-73.83264,40.62175],[-73.83288,40.62197]]],[[[-73.81645,40.62984],[-73.81597,40.63038],[-73.81467,40.62999],[-73.81467,40.6275],[-73.81645,40.62984]]],[[[-73.83574,40.60576],[-73.83422,40.60805],[-73.83238,40.60949],[-73.82952,40.60732],[-73.83113,40.60525],[-73.83438,40.60515],[-73.83574,40.60576]]],[[[-73.82927,40.60707],[-73.82729,40.60832],[-73.82754,40.60948],[-73.82635,40.60929],[-73.82461,40.60474],[-73.82878,40.6056],[-73.82927,40.60707]]],[[[-73.82769,40.59056],[-73.82707,40.59094],[-73.82729,40.59148],[-73.82548,40.59197],[-73.82636,40.5914],[-73.82686,40.58995],[-73.82737,40.58976],[-73.82769,40.59056]]],[[[-73.8435,40.59508],[-73.84057,40.5973],[-73.83746,40.59686],[-73.83467,40.5939],[-73.83193,40.59345],[-73.83117,40.59149],[-73.83357,40.58904],[-73.83688,40.58952],[-73.84238,40.59248],[-73.84336,40.59347],[-73.8435,40.59508]]],[[[-73.83589,40.63133],[-73.83598,40.63223],[-73.83506,40.63175],[-73.83589,40.63133]]],[[[-73.86099,40.65521],[-73.85979,40.65448],[-73.85894,40.65266],[-73.85732,40.65124],[-73.85722,40.65028],[-73.86099,40.65521]]],[[[-73.87281,40.7859],[-73.87287,40.78597],[-73.87277,40.78594],[-73.87281,40.7859]]]]}},{"type":"Feature","properties":{"boro":"Staten Island"},"geometry":{"type":"MultiPolygon","coordinates":[[[[-74.05107,40.56668],[-74.04998,40.56639],[-74.04924,40.56536],[-74.05003,40.56532],[-74.05107,40.56668]]],[[[-74.25559,40.50771],[-74.25497,40.50881],[-74.25412,40.50901],[-74.25453,40.50997],[-74.25332,40.50986],[-74.25353,40.51168],[-74.25198,40.51298],[-74.25213,40.51371],[-74.25014,40.51507],[-74.25056,40.51611],[-74.24887,40.51598],[-74.24843,40.51663],[-74.24941,40.51698],[-74.24851,40.51748],[-74.24876,40.51705],[-74.24742,40.5158],[-74.24658,40.5162],[-74.247,40.51718],[-74.24629,40.5168],[-74.24538,40.51723],[-74.24563,40.51808],[-74.24234,40.51832],[-74.23993,40.52006],[-74.24108,40.52096],[-74.24293,40.52123],[-74.24282,40.52401],[-74.24396,40.52491],[-74.24151,40.53128],[-74.2422,40.53458],[-74.24412,40.5362],[-74.24417,40.5369],[-74.24535,40.53693],[-74.24443,40.53803],[-74.24558,40.5409],[-74.24803,40.54309],[-74.24614,40.5457],[-74.24336,40.54786],[-74.2422,40.54695],[-74.24039,40.54767],[-74.23642,40.5505],[-74.2364,40.55233],[-74.23489,40.55301],[-74.23333,40.5525],[-74.2307,40.55556],[-74.22948,40.55552],[-74.22833,40.55639],[-74.22344,40.55605],[-74.22261,40.55541],[-74.22087,40.55594],[-74.21971,40.55462],[-74.21871,40.55604],[-74.21771,40.55502],[-74.21491,40.55615],[-74.21499,40.5568],[-74.21335,40.55658],[-74.21198,40.55842],[-74.21117,40.56049],[-74.21138,40.56349],[-74.20809,40.57047],[-74.20709,40.5763],[-74.20593,40.5786],[-74.20599,40.58041],[-74.2044,40.58372],[-74.20465,40.58929],[-74.19974,40.59357],[-74.19752,40.59692],[-74.19733,40.59807],[-74.19875,40.6017],[-74.20222,40.60597],[-74.20282,40.60827],[-74.20244,40.61328],[-74.20047,40.61635],[-74.20091,40.6178],[-74.20035,40.61834],[-74.20163,40.62312],[-74.20108,40.6241],[-74.20142,40.62607],[-74.20099,40.62934],[-74.20043,40.62981],[-74.20079,40.63035],[-74.2004,40.63146],[-74.19683,40.63336],[-74.19457,40.63639],[-74.19462,40.63739],[-74.1938,40.63736],[-74.18652,40.64339],[-74.18484,40.64413],[-74.18362,40.64321],[-74.18366,40.64462],[-74.18087,40.64485],[-74.18017,40.64429],[-74.17996,40.64527],[-74.17961,40.6444],[-74.17915,40.64501],[-74.17876,40.64257],[-74.17562,40.64344],[-74.17568,40.64471],[-74.17436,40.64513],[-74.17297,40.64423],[-74.17239,40.64289],[-74.17145,40.64309],[-74.17177,40.64236],[-74.17099,40.64257],[-74.17107,40.64176],[-74.16906,40.64213],[-74.16659,40.64151],[-74.16622,40.64242],[-74.16578,40.64123],[-74.16544,40.64228],[-74.16494,40.64221],[-74.16515,40.64066],[-74.16441,40.6414],[-74.16457,40.64035],[-74.16386,40.64105],[-74.16391,40.63991],[-74.16325,40.64096],[-74.16168,40.64061],[-74.16211,40.63873],[-74.16145,40.63943],[-74.16123,40.63864],[-74.1609,40.63939],[-74.16039,40.63851],[-74.15987,40.63993],[-74.16011,40.6389],[-74.15938,40.63788],[-74.15901,40.63882],[-74.15807,40.63809],[-74.15773,40.63888],[-74.15768,40.63799],[-74.15588,40.63752],[-74.15486,40.63781],[-74.15469,40.63919],[-74.15459,40.63734],[-74.15292,40.63715],[-74.1523,40.63827],[-74.15125,40.6378],[-74.15139,40.6394],[-74.1511,40.63858],[-74.14962,40.63783],[-74.14878,40.63888],[-74.14519,40.63938],[-74.144,40.63896],[-74.14336,40.63971],[-74.14246,40.63958],[-74.14229,40.64031],[-74.13435,40.64189],[-74.13126,40.6416],[-74.13042,40.64083],[-74.12949,40.64135],[-74.12979,40.64057],[-74.12902,40.64051],[-74.12891,40.64119],[-74.12875,40.64028],[-74.12729,40.63996],[-74.12614,40.64047],[-74.12637,40.64133],[-74.12564,40.64142],[-74.12595,40.64024],[-74.12414,40.64014],[-74.12199,40.64155],[-74.12008,40.64116],[-74.1194,40.64238],[-74.11877,40.64151],[-74.11884,40.64254],[-74.11845,40.64174],[-74.11736,40.64162],[-74.1168,40.64211],[-74.11722,40.64303],[-74.11673,40.64236],[-74.11667,40.64319],[-74.11614,40.64228],[-74.11541,40.64245],[-74.11391,40.64355],[-74.11395,40.64414],[-74.11289,40.64453],[-74.11377,40.64405],[-74.11324,40.64378],[-74.10974,40.64546],[-74.10412,40.64574],[-74.09889,40.64505],[-74.0947,40.64555],[-74.0857,40.64888],[-74.07981,40.64838],[-74.07651,40.64697],[-74.07445,40.64508],[-74.07334,40.64578],[-74.07352,40.64516],[-74.07246,40.64462],[-74.07166,40.64503],[-74.07212,40.64458],[-74.07114,40.64325],[-74.07146,40.64269],[-74.07037,40.64269],[-74.07019,40.64201],[-74.0729,40.64166],[-74.07293,40.64106],[-74.06998,40.64107],[-74.07307,40.64038],[-74.07308,40.63873],[-74.07238,40.63816],[-74.07342,40.63773],[-74.0734,40.63679],[-74.0721,40.63665],[-74.07332,40.63638],[-74.07301,40.63043],[-74.06802,40.62879],[-74.07282,40.62986],[-74.07225,40.62461],[-74.06972,40.6212],[-74.06658,40.61897],[-74.06545,40.6192],[-74.06615,40.61823],[-74.06426,40.61817],[-74.06493,40.61741],[-74.06391,40.61733],[-74.06144,40.61438],[-74.06035,40.61196],[-74.06,40.61278],[-74.0565,40.60726],[-74.05381,40.60591],[-74.05303,40.60147],[-74.05342,40.60056],[-74.05223,40.59977],[-74.05451,40.59872],[-74.06216,40.59202],[-74.06496,40.58906],[-74.06436,40.58827],[-74.06722,40.58673],[-74.07096,40.58318],[-74.07147,40.58223],[-74.07066,40.58163],[-74.07176,40.58189],[-74.07482,40.57938],[-74.07336,40.57828],[-74.07514,40.57908],[-74.07568,40.57841],[-74.07535,40.57789],[-74.0762,40.57813],[-74.0791,40.57578],[-74.07868,40.57508],[-74.07939,40.57558],[-74.0805,40.57498],[-74.08595,40.5703],[-74.08684,40.56908],[-74.08622,40.56853],[-74.08732,40.56904],[-74.08925,40.56702],[-74.09002,40.56735],[-74.09099,40.56674],[-74.09407,40.56273],[-74.0954,40.56315],[-74.09661,40.56209],[-74.09821,40.55978],[-74.09782,40.55905],[-74.09877,40.55941],[-74.1008,40.55832],[-74.10184,40.55622],[-74.10141,40.55554],[-74.10309,40.55591],[-74.10466,40.55412],[-74.10484,40.55303],[-74.10657,40.55418],[-74.10769,40.55398],[-74.11291,40.54782],[-74.11653,40.54787],[-74.11809,40.54727],[-74.11978,40.54547],[-74.1225,40.54486],[-74.13357,40.53151],[-74.13691,40.52928],[-74.13865,40.5298],[-74.14063,40.53436],[-74.14015,40.53548],[-74.13395,40.53557],[-74.13304,40.53655],[-74.13386,40.5366],[-74.12997,40.53997],[-74.12945,40.53943],[-74.12779,40.541],[-74.12749,40.5429],[-74.12902,40.54506],[-74.13057,40.5462],[-74.13348,40.54686],[-74.13695,40.54594],[-74.13612,40.54502],[-74.13687,40.54468],[-74.13809,40.54589],[-74.13883,40.54521],[-74.13762,40.54425],[-74.13834,40.54355],[-74.1403,40.54193],[-74.14141,40.54225],[-74.14067,40.54175],[-74.14096,40.54143],[-74.14213,40.54213],[-74.1421,40.53807],[-74.1413,40.53714],[-74.14382,40.53713],[-74.14474,40.5358],[-74.14921,40.53425],[-74.1507,40.53255],[-74.15247,40.53205],[-74.15599,40.52942],[-74.15619,40.52861],[-74.15697,40.52899],[-74.1597,40.5273],[-74.16229,40.52718],[-74.17,40.52305],[-74.1713,40.52346],[-74.17271,40.52296],[-74.17758,40.51923],[-74.18105,40.52066],[-74.18483,40.51934],[-74.1885,40.51631],[-74.18917,40.51548],[-74.18884,40.51509],[-74.18972,40.51531],[-74.19521,40.50998],[-74.1965,40.50992],[-74.19965,40.51142],[-74.20045,40.51303],[-74.20758,40.51185],[-74.20948,40.51095],[-74.20932,40.5104],[-74.20986,40.51067],[-74.21353,40.5064],[-74.21511,40.50606],[-74.21758,40.50334],[-74.22501,40.50177],[-74.22729,40.5023],[-74.23114,40.50185],[-74.23678,40.5],[-74.23985,40.49758],[-74.24433,40.49755],[-74.24677,40.49613],[-74.24965,40.49684],[-74.25114,40.49896],[-74.25323,40.50022],[-74.25528,40.50406],[-74.25559,40.50771]],[[-74.1365,40.54496],[-74.13693,40.54517],[-74.13677,40.54486],[-74.1365,40.54496]],[[-74.13782,40.54433],[-74.13822,40.54418],[-74.13791,40.54406],[-74.13782,40.54433]],[[-74.13919,40.54353],[-74.13983,40.54344],[-74.13915,40.54325],[-74.13919,40.54353]],[[-74.21855,40.55488],[-74.21905,40.55532],[-74.2188,40.55471],[-74.21855,40.55488]]],[[[-74.0549,40.57778],[-74.05485,40.57995],[-74.05369,40.58055],[-74.05293,40.5799],[-74.05314,40.5777],[-74.05406,40.57712],[-74.0549,40.57778]]],[[[-74.16153,40.64416],[-74.1581,40.64376],[-74.15756,40.64324],[-74.15881,40.64176],[-74.15999,40.64145],[-74.16111,40.64184],[-74.16153,40.64416]]]]}}]}