{"type":"FeatureCollection","features":[{"type":"Feature","properties":{},"geometry":{"type":"MultiPolygon","coordinates":[[[[-75.5,39.8],[-72.2,39.8],[-72.2,41.6],[-75.5,41.6],[-75.5,39.8]],[[-74.0257,40.6504],[-74.0265,40.651],[-74.0257,40.6531],[-74.0241,40.6527],[-74.0239,40.6535],[-74.0223,40.6529],[-74.0237,40.6542],[-74.0232,40.6546],[-74.0218,40.6542],[-74.0219,40.6553],[-74.0204,40.655],[-74.0205,40.6555],[-74.0201,40.6558],[-74.019,40.6554],[-74.0202,40.6562],[-74.0202,40.6567],[-74.0198,40.657],[-74.0189,40.6566],[-74.0195,40.6577],[-74.0187,40.6583],[-74.0181,40.6581],[-74.0181,40.6587],[-74.0176,40.6589],[-74.0179,40.6598],[-74.0158,40.6612],[-74.012,40.6596],[-74.0144,40.6612],[-74.0142,40.662],[-74.0125,40.6625],[-74.0087,40.6602],[-74.0084,40.6605],[-74.011,40.6627],[-74.0087,40.6639],[-74.0067,40.6628],[-74.0065,40.6634],[-74.0081,40.6646],[-74.0079,40.6652],[-74.0056,40.665],[-74.0047,40.6655],[-74.0012,40.6636],[-74.0005,40.6642],[-74.0033,40.6661],[-74.0033,40.6668],[-74.0056,40.6674],[-74.0065,40.6657],[-74.0071,40.6656],[-74.0071,40.6669],[-74.0075,40.6666],[-74.008,40.6669],[-74.0079,40.668],[-74.0095,40.668],[-74.0114,40.6646],[-74.0158,40.6641],[-74.0178,40.6649],[-74.0198,40.6716],[-74.0182,40.6735],[-74.0186,40.6746],[-74.0194,40.675],[-74.0188,40.676],[-74.02,40.6762],[-74.0204,40.677],[-74.0197,40.6779],[-74.0202,40.6784],[-74.0196,40.68],[-74.013,40.6841],[-74.0124,40.6839],[-74.0086,40.6868],[-74.0075,40.6868],[-74.0083,40.6873],[-74.0079,40.6884],[-74.0073,40.6887],[-74.0068,40.6899],[-74.0053,40.6916],[-74.0028,40.696],[-74.0004,40.6956],[-73.9996,40.6969],[-74.0015,40.6979],[-73.9999,40.7006],[-73.9994,40.7008],[-73.9976,40.7002],[-73.9974,40.7006],[-73.9985,40.7011],[-73.9986,40.7018],[-73.9965,40.7038],[-73.9955,40.7038],[-73.9948,40.7048],[-73.9921,40.7052],[-73.9911,40.7047],[-73.9903,40.7054],[-73.9887,40.7051],[-73.988,40.7056],[-73.9783,40.7065],[-73.9779,40.7061],[-73.978,40.7052],[-73.9768,40.7045],[-73.9761,40.7052],[-73.9755,40.705],[-73.9762,40.7029],[-73.9751,40.7034],[-73.9748,40.703],[-73.9751,40.7023],[-73.9735,40.7018],[-73.9738,40.7026],[-73.9726,40.7042],[-73.9751,40.7058],[-73.9749,40.7065],[-73.9737,40.7064],[-73.975,40.7074],[-73.9751,40.7079],[-73.9741,40.7085],[-73.9716,40.7068],[-73.9732,40.7087],[-73.9722,40.7096],[-73.97,40.7074],[-73.9704,40.7114],[-73.9695,40.7119],[-73.9672,40.7178],[-73.9675,40.7186],[-73.9671,40.7189],[-73.9665,40.7186],[-73.967,40.7195],[-73.9665,40.7199],[-73.9658,40.7194],[-73.9661,40.721],[-73.965,40.7219],[-73.9641,40.7215],[-73.9632,40.7227],[-73.9628,40.7244],[-73.9624,40.7247],[-73.9626,40.7253],[-73.9621,40.7256],[-73.9615,40.7287],[-73.9617,40.7295],[-73.9627,40.73],[-73.962,40.7305],[-73.9621,40.7309],[-73.9638,40.7308],[-73.9641,40.7314],[-73.9624,40.732],[-73.9628,40.734],[-73.9602,40.7374],[-73.9583,40.7386],[-73.9608,40.7376],[-73.9624,40.7378],[-73.9631,40.7391],[-73.9621,40.7403],[-73.9624,40.741],[-73.9608,40.7436],[-73.9611,40.7444],[-73.9601,40.7447],[-73.9601,40.7454],[-73.9581,40.7488],[-73.9568,40.7494],[-73.9564,40.7501],[-73.9553,40.7504],[-73.9549,40.7515],[-73.9439,40.7648],[-73.9402,40.7684],[-73.9354,40.7704],[-73.9354,40.7712],[-73.9378,40.7721],[-73.9383,40.7735],[-73.9381,40.7753],[-73.9367,40.7773],[-73.9338,40.7786],[-73.9316,40.7783],[-73.9298,40.7768],[-73.9288,40.7771],[-73.9176,40.7845],[-73.9129,40.7897],[-73.9113,40.7902],[-73.91,40.7914],[-73.9001,40.7895],[-73.8955,40.7858],[-73.8978,40.783],[-73.8943,40.7847],[-73.8939,40.7841],[-73.8949,40.7832],[-73.8932,40.7825],[-73.8932,40.7832],[-73.8927,40.7835],[-73.8913,40.7826],[-73.8912,40.7819],[-73.8918,40.7816],[-73.8912,40.7807],[-73.8918,40.7798],[-73.8907,40.7785],[-73.8917,40.7774],[-73.8902,40.7783],[-73.8897,40.7781],[-73.889,40.7758],[-73.8893,40.7741],[-73.8852,40.7747],[-73.8857,40.7801],[-73.8794,40.7811],[-73.8795,40.7821],[-73.8802,40.7828],[-73.8798,40.7834],[-73.879,40.7831],[-73.8782,40.7835],[-73.8752,40.7822],[-73.8716,40.7864],[-73.8699,40.786],[-73.8684,40.7878],[-73.8676,40.7878],[-73.8674,40.7871],[-73.8693,40.785],[-73.8691,40.7842],[-73.8682,40.7841],[-73.8681,40.7834],[-73.8692,40.7831],[-73.8708,40.7817],[-73.87,40.7817],[-73.8697,40.7812],[-73.8709,40.7805],[-73.8547,40.7725],[-73.8546,40.7719],[-73.8563,40.7698],[-73.8559,40.7685],[-73.8569,40.7685],[-73.8592,40.7666],[-73.8616,40.7662],[-73.8591,40.7629],[-73.8585,40.7628],[-73.859,40.7633],[-73.8586,40.764],[-73.8578,40.7638],[-73.8568,40.7645],[-73.8562,40.764],[-73.8566,40.7633],[-73.8561,40.7628],[-73.8565,40.7621],[-73.8562,40.7614],[-73.8526,40.7603],[-73.8523,40.7608],[-73.8499,40.7618],[-73.8485,40.7608],[-73.8435,40.7639],[-73.843,40.7651],[-73.8399,40.7658],[-73.8445,40.765],[-73.8482,40.7664],[-73.8495,40.769],[-73.8492,40.7706],[-73.8501,40.7713],[-73.8514,40.7713],[-73.8518,40.7718],[-73.8515,40.7723],[-73.8504,40.7725],[-73.8495,40.7737],[-73.8495,40.7778],[-73.8502,40.7788],[-73.8524,40.7787],[-73.8529,40.7791],[-73.8519,40.7805],[-73.8505,40.7806],[-73.8512,40.7807],[-73.8514,40.7812],[-73.8502,40.7817],[-73.8555,40.7815],[-73.8559,40.7825],[-73.8568,40.7824],[-73.8583,40.7833],[-73.8589,40.7846],[-73.8598,40.7848],[-73.8584,40.7874],[-73.8571,40.7872],[-73.8562,40.7881],[-73.8552,40.7883],[-73.8549,40.7905],[-73.8535,40.7913],[-73.8543,40.7922],[-73.8542,40.7942],[-73.8528,40.7954],[-73.8494,40.7941],[-73.8489,40.7959],[-73.8462,40.7967],[-73.8439,40.7954],[-73.8431,40.7974],[-73.8418,40.7964],[-73.8408,40.7972],[-73.8407,40.7981],[-73.8378,40.799],[-73.8375,40.7982],[-73.8389,40.7975],[-73.838,40.7971],[-73.8366,40.7941],[-73.8361,40.7921],[-73.8368,40.7911],[-73.8365,40.7901],[-73.833,40.7891],[-73.8323,40.7894],[-73.832,40.7915],[-73.8294,40.7923],[-73.8297,40.793],[-73.8295,40.7935],[-73.8284,40.7934],[-73.8292,40.7957],[-73.8308,40.796],[-73.8309,40.7968],[-73.83,40.7974],[-73.8277,40.7973],[-73.8269,40.7983],[-73.8251,40.7979],[-73.8246,40.7982],[-73.8245,40.7991],[-73.8232,40.7993],[-73.823,40.7999],[-73.8223,40.7999],[-73.8204,40.8015],[-73.8155,40.7995],[-73.8153,40.7988],[-73.8134,40.7978],[-73.8122,40.7986],[-73.8113,40.7978],[-73.8067,40.797],[-73.8061,40.7973],[-73.805,40.7967],[-73.8031,40.7976],[-73.8023,40.7968],[-73.8001,40.7969],[-73.7944,40.7954],[-73.7938,40.7936],[-73.7944,40.7918],[-73.7936,40.7899],[-73.793,40.79],[-73.7928,40.7894],[-73.7904,40.7908],[-73.7844,40.7912],[-73.7848,40.7917],[-73.7844,40.7922],[-73.782,40.7918],[-73.7814,40.7928],[-73.7821,40.7933],[-73.7819,40.7939],[-73.7836,40.7946],[-73.7835,40.7953],[-73.7821,40.7955],[-73.7795,40.7972],[-73.7761,40.7966],[-73.7736,40.7943],[-73.7701,40.7886],[-73.7714,40.7871],[-73.7736,40.7861],[-73.7682,40.7802],[-73.7664,40.7801],[-73.7664,40.7795],[-73.7674,40.779],[-73.7653,40.7749],[-73.7586,40.7687],[-73.7582,40.7677],[-73.755,40.7665],[-73.7556,40.7675],[-73.7552,40.7696],[-73.7561,40.7716],[-73.754,40.7734],[-73.756,40.7778],[-73.755,40.7782],[-73.7527,40.7824],[-73.7502,40.783],[-73.7479,40.7811],[-73.7472,40.7799],[-73.7471,40.7806],[-73.7465,40.7808],[-73.7391,40.7764],[-73.7012,40.7526],[-73.6995,40.7392],[-73.7073,40.7275],[-73.7168,40.7259],[-73.7255,40.7236],[-73.7297,40.7218],[-73.7264,40.71],[-73.7251,40.6796],[-73.7271,40.674],[-73.7277,40.668],[-73.7273,40.6631],[-73.7276,40.6627],[-73.7251,40.6568],[-73.7245,40.6543],[-73.7247,40.6519],[-73.7304,40.6498],[-73.735,40.6492],[-73.7409,40.6466],[-73.7415,40.6416],[-73.7409,40.6405],[-73.7415,40.6399],[-73.739,40.6359],[-73.7397,40.6347],[-73.7429,40.6349],[-73.7417,40.6373],[-73.7421,40.6376],[-73.744,40.6375],[-73.7461,40.636],[-73.7474,40.6365],[-73.7469,40.6411],[-73.7482,40.6351],[-73.7661,40.628],[-73.7681,40.6246],[-73.7682,40.6226],[-73.7693,40.6215],[-73.7701,40.6193],[-73.7721,40.6202],[-73.7716,40.6228],[-73.7748,40.6189],[-73.7755,40.6189],[-73.7756,40.6195],[-73.7726,40.6238],[-73.7767,40.6271],[-73.7792,40.6268],[-73.7846,40.62],[-73.784,40.6172],[-73.7829,40.6161],[-73.7804,40.6149],[-73.7805,40.6134],[-73.7833,40.6115],[-73.7847,40.6114],[-73.7856,40.6105],[-73.7884,40.6096],[-73.7915,40.6071],[-73.7919,40.6082],[-73.7939,40.6086],[-73.7953,40.61],[-73.801,40.6115],[-73.8013,40.6121],[-73.8,40.6136],[-73.7995,40.6158],[-73.7978,40.617],[-73.7949,40.6228],[-73.7909,40.6228],[-73.7894,40.6234],[-73.7841,40.6284],[-73.784,40.63],[-73.7847,40.631],[-73.7872,40.6318],[-73.7897,40.6336],[-73.791,40.6337],[-73.7983,40.6306],[-73.7984,40.6315],[-73.7918,40.6347],[-73.7925,40.6355],[-73.7994,40.638],[-73.8122,40.6438],[-73.8186,40.6459],[-73.8226,40.65],[-73.824,40.6553],[-73.8223,40.66],[-73.823,40.6597],[-73.8244,40.6554],[-73.8225,40.6481],[-73.8227,40.6476],[-73.8248,40.6489],[-73.8258,40.6489],[-73.826,40.648],[-73.8266,40.6479],[-73.8296,40.6492],[-73.8308,40.6511],[-73.8303,40.6489],[-73.8313,40.6474],[-73.8347,40.6475],[-73.8361,40.6485],[-73.8354,40.6456],[-73.8358,40.645],[-73.8458,40.6436],[-73.8496,40.6436],[-73.8524,40.6458],[-73.8529,40.6471],[-73.8521,40.6492],[-73.8505,40.651],[-73.8526,40.6501],[-73.8561,40.6509],[-73.857,40.6523],[-73.8579,40.6525],[-73.8568,40.6513],[-73.8567,40.6501],[-73.8578,40.6472],[-73.8567,40.6438],[-73.8569,40.6433],[-73.8619,40.6424],[-73.8659,40.6399],[-73.8658,40.6393],[-73.8663,40.639],[-73.869,40.6406],[-73.871,40.6444],[-73.8727,40.6451],[-73.8728,40.6442],[-73.8696,40.6394],[-73.8677,40.6385],[-73.8677,40.6378],[-73.8695,40.6366],[-73.8701,40.6372],[-73.8739,40.6359],[-73.8779,40.6381],[-73.8767,40.6358],[-73.8779,40.6342],[-73.8832,40.6307],[-73.8834,40.6296],[-73.8822,40.6285],[-73.8823,40.6279],[-73.8837,40.6271],[-73.8852,40.6282],[-73.8873,40.6279],[-73.8901,40.6259],[-73.8927,40.623],[-73.8953,40.622],[-73.9161,40.6315],[-73.9166,40.6313],[-73.9021,40.6248],[-73.9021,40.6238],[-73.9007,40.6231],[-73.9002,40.6222],[-73.8962,40.6218],[-73.8951,40.6198],[-73.8961,40.6173],[-73.8954,40.615],[-73.8917,40.614],[-73.8892,40.6116],[-73.8898,40.6101],[-73.8919,40.6087],[-73.893,40.6063],[-73.8982,40.6048],[-73.9004,40.6052],[-73.9012,40.6063],[-73.9014,40.6053],[-73.9053,40.6044],[-73.9063,40.6059],[-73.9085,40.6061],[-73.9091,40.6058],[-73.9079,40.6038],[-73.9099,40.6032],[-73.9087,40.6031],[-73.9087,40.6022],[-73.8994,40.604],[-73.8956,40.6035],[-73.8925,40.6038],[-73.8876,40.6058],[-73.8839,40.606],[-73.8826,40.6049],[-73.8828,40.6029],[-73.8813,40.5995],[-73.8796,40.5927],[-73.879,40.5924],[-73.8791,40.5916],[-73.8785,40.591],[-73.8784,40.5884],[-73.8762,40.5849],[-73.8794,40.5798],[-73.8837,40.5782],[-73.8911,40.5774],[-73.8958,40.5763],[-73.897,40.5789],[-73.8972,40.5829],[-73.8991,40.5868],[-73.8998,40.5866],[-73.9001,40.5873],[-73.9012,40.5869],[-73.9017,40.5872],[-73.9043,40.5864],[-73.906,40.5872],[-73.9063,40.5865],[-73.9119,40.5858],[-73.9125,40.5867],[-73.9119,40.5911],[-73.9129,40.5946],[-73.9125,40.5918],[-73.9151,40.5911],[-73.9144,40.5905],[-73.9141,40.5886],[-73.9187,40.5857],[-73.9157,40.5867],[-73.9134,40.5866],[-73.9123,40.586],[-73.912,40.5835],[-73.911,40.5828],[-73.9114,40.5813],[-73.9151,40.581],[-73.9245,40.5831],[-73.9295,40.5829],[-73.9312,40.5822],[-73.9475,40.583],[-73.9519,40.5826],[-73.9497,40.5828],[-73.9427,40.5815],[-73.9324,40.5817],[-73.9306,40.576],[-73.9348,40.5747],[-73.9362,40.5752],[-73.9367,40.5749],[-73.9441,40.5753],[-73.9445,40.5748],[-73.9457,40.575],[-73.9525,40.5737],[-73.9582,40.5736],[-73.959,40.5729],[-73.96,40.5734],[-73.9671,40.5728],[-73.9688,40.5725],[-73.9692,40.5718],[-73.9707,40.5722],[-73.9711,40.5714],[-73.9719,40.5721],[-73.9726,40.572],[-73.9732,40.5711],[-73.9739,40.5717],[-73.9749,40.5716],[-73.9753,40.5709],[-73.9769,40.5714],[-73.9776,40.5707],[-73.9786,40.5714],[-73.9794,40.5707],[-73.9803,40.5712],[-73.9827,40.571],[-73.9826,40.57],[-73.9834,40.569],[-73.9843,40.5708],[-73.9908,40.5698],[-74.0007,40.57],[-74.0022,40.5691],[-74.003,40.5714],[-74.005,40.5724],[-74.0114,40.5737],[-74.0125,40.5746],[-74.0135,40.5778],[-74.0121,40.5802],[-74.0075,40.5823],[-74.0006,40.5818],[-73.9983,40.5822],[-74.0005,40.5827],[-74.0009,40.5842],[-73.9998,40.5852],[-74.0001,40.586],[-74.0008,40.5862],[-74.0009,40.5873],[-73.999,40.5884],[-73.9999,40.5893],[-73.9986,40.591],[-74.0004,40.5908],[-74.0006,40.5914],[-73.9998,40.5924],[-74.0014,40.5921],[-74.0043,40.5959],[-74.0104,40.5999],[-74.021,40.603],[-74.0302,40.6043],[-74.0324,40.6055],[-74.0364,40.609],[-74.0374,40.611],[-74.0403,40.6141],[-74.0422,40.6223],[-74.0416,40.6303],[-74.0376,40.6386],[-74.0391,40.6392],[-74.0392,40.6398],[-74.0369,40.6398],[-74.0364,40.6406],[-74.0371,40.6419],[-74.0343,40.6448],[-74.0329,40.6442],[-74.0306,40.6458],[-74.028,40.6449],[-74.0269,40.6462],[-74.0301,40.6482],[-74.0296,40.6492],[-74.0252,40.6473],[-74.0249,40.6477],[-74.026,40.6496],[-74.0257,40.6504]],[[-73.9178,40.5633],[-73.9125,40.5654],[-73.9124,40.5662],[-73.9119,40.5664],[-73.9114,40.5656],[-73.9095,40.5657],[-73.9093,40.5648],[-73.9077,40.5646],[-73.9075,40.5637],[-73.9066,40.5633],[-73.9029,40.564],[-73.9016,40.5633],[-73.8964,40.5658],[-73.8959,40.5664],[-73.896,40.5674],[-73.8927,40.5691],[-73.8891,40.5684],[-73.8844,40.5688],[-73.8839,40.5694],[-73.8831,40.5689],[-73.8779,40.5693],[-73.8506,40.5826],[-73.8452,40.5821],[-73.8396,40.5823],[-73.8387,40.5833],[-73.8359,40.5834],[-73.829,40.5853],[-73.8283,40.5865],[-73.825,40.5876],[-73.8229,40.588],[-73.8214,40.5874],[-73.8181,40.5891],[-73.8179,40.5897],[-73.8141,40.5912],[-73.8138,40.5922],[-73.8121,40.592],[-73.8117,40.5933],[-73.8103,40.5929],[-73.8097,40.5941],[-73.8084,40.5936],[-73.8084,40.5944],[-73.8073,40.5957],[-73.806,40.5961],[-73.8045,40.5952],[-73.8056,40.5973],[-73.8032,40.5993],[-73.7943,40.6],[-73.7918,40.6008],[-73.7881,40.6036],[-73.7862,40.6037],[-73.7859,40.603],[-73.7875,40.6007],[-73.7899,40.5989],[-73.7906,40.5969],[-73.7896,40.5965],[-73.7895,40.5983],[-73.7839,40.6029],[-73.7837,40.6037],[-73.7844,40.6048],[-73.7841,40.6056],[-73.7787,40.6101],[-73.7753,40.6102],[-73.7738,40.6091],[-73.7746,40.6049],[-73.7742,40.6042],[-73.775,40.6037],[-73.7752,40.6026],[-73.7761,40.6017],[-73.7747,40.6021],[-73.7733,40.5986],[-73.7714,40.5986],[-73.7716,40.6005],[-73.7707,40.6027],[-73.7711,40.6049],[-73.7696,40.6091],[-73.7723,40.6109],[-73.7727,40.6108],[-73.7726,40.6099],[-73.7732,40.6097],[-73.7747,40.6119],[-73.7736,40.6141],[-73.7678,40.6146],[-73.7714,40.6158],[-73.7687,40.621],[-73.767,40.6207],[-73.7663,40.6147],[-73.7647,40.614],[-73.7645,40.6124],[-73.7625,40.6119],[-73.7616,40.6123],[-73.7583,40.6108],[-73.7551,40.6106],[-73.7481,40.6128],[-73.7467,40.6122],[-73.7456,40.6125],[-73.7428,40.6077],[-73.7377,40.6027],[-73.738,40.5973],[-73.7375,40.5945],[-73.7383,40.5939],[-73.7422,40.5944],[-73.7465,40.5938],[-73.7515,40.5908],[-73.7538,40.5904],[-73.7614,40.5912],[-73.7774,40.5896],[-73.7887,40.587],[-73.8134,40.583],[-73.8337,40.5772],[-73.857,40.5686],[-73.8625,40.566],[-73.8636,40.5665],[-73.8658,40.5658],[-73.8661,40.5651],[-73.867,40.5655],[-73.8681,40.5646],[-73.8692,40.5648],[-73.8699,40.5646],[-73.8701,40.5637],[-73.871,40.5642],[-73.8719,40.5638],[-73.8722,40.5631],[-73.8733,40.5635],[-73.8948,40.5566],[-73.8955,40.5568],[-73.8971,40.5562],[-73.898,40.5566],[-73.9006,40.5559],[-73.9028,40.5562],[-73.9068,40.5551],[-73.94,40.5425],[-73.9404,40.5415],[-73.9411,40.5415],[-73.9408,40.5525],[-73.9396,40.5554],[-73.9367,40.5574],[-73.9324,40.5582],[-73.926,40.5621],[-73.9178,40.5633]],[[-73.7651,40.8546],[-73.7675,40.854],[-73.7688,40.8525],[-73.7681,40.8507],[-73.769,40.8476],[-73.7674,40.8452],[-73.7691,40.8446],[-73.772,40.8473],[-73.7715,40.8497],[-73.7734,40.8521],[-73.7727,40.8528],[-73.7735,40.8538],[-73.7726,40.8547],[-73.7727,40.8601],[-73.7706,40.8605],[-73.7649,40.8553],[-73.7651,40.8546]],[[-73.7664,40.8677],[-73.7665,40.8667],[-73.7673,40.8667],[-73.7675,40.8676],[-73.7664,40.8677]],[[-73.7694,40.8651],[-73.7701,40.8653],[-73.7701,40.8661],[-73.769,40.866],[-73.7694,40.8651]],[[-73.7707,40.8712],[-73.7722,40.8711],[-73.7731,40.8716],[-73.7728,40.8723],[-73.771,40.8723],[-73.7704,40.8718],[-73.7707,40.8712]],[[-73.773,40.8612],[-73.7728,40.8605],[-73.7735,40.8602],[-73.7738,40.8611],[-73.773,40.8612]],[[-73.7746,40.8736],[-73.7754,40.8736],[-73.7755,40.8749],[-73.7742,40.8749],[-73.7746,40.8736]],[[-73.7755,40.8609],[-73.7756,40.8616],[-73.7751,40.8624],[-73.7742,40.8623],[-73.7749,40.8607],[-73.7755,40.8609]],[[-73.7934,40.8537],[-73.7922,40.8547],[-73.7936,40.8568],[-73.7927,40.8582],[-73.7914,40.8586],[-73.7909,40.8583],[-73.789,40.8592],[-73.7884,40.858],[-73.7875,40.8576],[-73.7883,40.8564],[-73.788,40.8548],[-73.7865,40.8543],[-73.7871,40.8534],[-73.7857,40.8523],[-73.7831,40.852],[-73.7829,40.8514],[-73.7837,40.8508],[-73.7832,40.8497],[-73.7813,40.8499],[-73.7805,40.8487],[-73.7811,40.8474],[-73.7801,40.8474],[-73.7799,40.8468],[-73.7809,40.8458],[-73.7815,40.8459],[-73.7814,40.8451],[-73.782,40.8448],[-73.7804,40.845],[-73.7795,40.8442],[-73.7797,40.842],[-73.7809,40.8406],[-73.7807,40.8393],[-73.7815,40.8374],[-73.7824,40.837],[-73.7826,40.8359],[-73.7862,40.8369],[-73.7863,40.8374],[-73.7858,40.8378],[-73.7861,40.8388],[-73.7877,40.8393],[-73.7887,40.8405],[-73.7888,40.8421],[-73.7892,40.8426],[-73.7904,40.8428],[-73.79,40.8442],[-73.7924,40.8472],[-73.7913,40.8494],[-73.7914,40.8501],[-73.7907,40.8507],[-73.7912,40.8513],[-73.7933,40.8511],[-73.794,40.8521],[-73.7934,40.8528],[-73.7934,40.8537]],[[-73.7817,40.855],[-73.7809,40.8558],[-73.7802,40.8554],[-73.7807,40.8543],[-73.7817,40.855]],[[-73.7824,40.8741],[-73.7829,40.875],[-73.7822,40.8758],[-73.7825,40.8768],[-73.7808,40.8769],[-73.7808,40.8758],[-73.7818,40.8742],[-73.7824,40.8741]],[[-73.7821,40.8549],[-73.7824,40.8544],[-73.784,40.8544],[-73.7844,40.8548],[-73.7833,40.8563],[-73.7821,40.8549]],[[-73.7824,40.8629],[-73.7829,40.8616],[-73.7851,40.8623],[-73.7845,40.8636],[-73.7834,40.8636],[-73.7824,40.8629]],[[-74.019,40.7075],[-74.0193,40.7081],[-74.0171,40.7189],[-74.0136,40.719],[-74.0137,40.7195],[-74.0165,40.7199],[-74.0169,40.7204],[-74.0165,40.7209],[-74.015,40.7209],[-74.016,40.7212],[-74.0158,40.722],[-74.0129,40.7222],[-74.0123,40.7254],[-74.0153,40.7259],[-74.0157,40.7265],[-74.0152,40.7273],[-74.012,40.7271],[-74.012,40.7278],[-74.0145,40.728],[-74.0149,40.7285],[-74.0145,40.731],[-74.0116,40.7311],[-74.0115,40.7325],[-74.0142,40.7329],[-74.0145,40.7334],[-74.0141,40.7338],[-74.0123,40.7339],[-74.0123,40.7347],[-74.0113,40.7349],[-74.011,40.7377],[-74.012,40.7391],[-74.012,40.7401],[-74.0132,40.7408],[-74.0115,40.7413],[-74.0119,40.7419],[-74.0113,40.7428],[-74.0125,40.7432],[-74.0125,40.7439],[-74.0097,40.7445],[-74.012,40.7446],[-74.0123,40.7451],[-74.0117,40.7461],[-74.012,40.7468],[-74.0115,40.7471],[-74.0119,40.7478],[-74.0112,40.7482],[-74.0117,40.7489],[-74.0103,40.7494],[-74.0098,40.7501],[-74.011,40.7516],[-74.0092,40.7516],[-74.0104,40.7532],[-74.0087,40.7531],[-74.0082,40.7546],[-74.0055,40.7578],[-74.0073,40.7589],[-74.0074,40.7595],[-74.0065,40.7604],[-74.0046,40.7597],[-74.0031,40.7613],[-74.0051,40.7626],[-74.0045,40.763],[-74.0024,40.7624],[-74.0041,40.7637],[-74.0033,40.7642],[-74.0034,40.7652],[-74.0021,40.7649],[-74.0028,40.7654],[-74.0026,40.766],[-73.9992,40.7652],[-74.0019,40.7666],[-74.002,40.7673],[-73.9983,40.7666],[-74.0009,40.7678],[-74.0011,40.7685],[-74.0006,40.7687],[-73.9973,40.7679],[-74.0,40.7691],[-74.0001,40.7698],[-73.9987,40.7698],[-73.9995,40.7704],[-73.9989,40.7713],[-73.9965,40.7705],[-73.9962,40.7718],[-73.9974,40.7728],[-73.9966,40.7733],[-73.9966,40.7743],[-73.9941,40.7738],[-73.9927,40.7754],[-73.99,40.779],[-73.9918,40.7791],[-73.992,40.7799],[-73.9893,40.7804],[-73.9862,40.7853],[-73.9872,40.7847],[-73.9875,40.7855],[-73.9861,40.7871],[-73.9848,40.7872],[-73.9645,40.8161],[-73.9598,40.8212],[-73.9595,40.8217],[-73.9604,40.8225],[-73.96,40.8238],[-73.9577,40.8274],[-73.9565,40.8284],[-73.9548,40.8283],[-73.9516,40.8329],[-73.9489,40.8401],[-73.9466,40.844],[-73.9474,40.8507],[-73.9438,40.8527],[-73.9423,40.8542],[-73.9329,40.8677],[-73.9324,40.8713],[-73.9296,40.8759],[-73.9265,40.8781],[-73.9259,40.8776],[-73.9235,40.8778],[-73.9221,40.8771],[-73.9221,40.8746],[-73.921,40.8736],[-73.9213,40.8755],[-73.921,40.876],[-73.9186,40.8751],[-73.9184,40.8745],[-73.9168,40.875],[-73.9193,40.8756],[-73.9229,40.8784],[-73.925,40.8784],[-73.9254,40.879],[-73.9209,40.8878],[-73.9155,40.9032],[-73.9131,40.9083],[-73.9121,40.9136],[-73.9106,40.9159],[-73.8601,40.9012],[-73.8599,40.9028],[-73.8585,40.9028],[-73.8576,40.9038],[-73.8572,40.9065],[-73.855,40.9076],[-73.855,40.9093],[-73.8531,40.9108],[-73.8523,40.9104],[-73.8509,40.9108],[-73.8506,40.9102],[-73.8525,40.9077],[-73.8511,40.9072],[-73.85,40.908],[-73.8446,40.906],[-73.8443,40.9047],[-73.841,40.9045],[-73.8403,40.9018],[-73.8387,40.8996],[-73.8391,40.8974],[-73.838,40.8945],[-73.8238,40.8905],[-73.8227,40.8917],[-73.7927,40.8837],[-73.7926,40.8831],[-73.7948,40.8804],[-73.7946,40.8796],[-73.7971,40.8748],[-73.7994,40.8738],[-73.8004,40.8712],[-73.8022,40.8698],[-73.8026,40.8684],[-73.8044,40.8683],[-73.8042,40.8674],[-73.8026,40.8674],[-73.8023,40.8663],[-73.7981,40.8727],[-73.7951,40.8737],[-73.794,40.8768],[-73.7949,40.8778],[-73.7932,40.88],[-73.7892,40.8818],[-73.7886,40.8813],[-73.7886,40.88],[-73.7891,40.8795],[-73.7861,40.8796],[-73.7861,40.8801],[-73.785,40.8812],[-73.7833,40.8803],[-73.7834,40.8796],[-73.7854,40.8793],[-73.7831,40.8778],[-73.7833,40.8763],[-73.7841,40.8762],[-73.7866,40.8731],[-73.7852,40.8741],[-73.7846,40.8738],[-73.7841,40.8743],[-73.7831,40.8741],[-73.7832,40.873],[-73.7826,40.8722],[-73.7828,40.8705],[-73.7854,40.8679],[-73.786,40.868],[-73.7863,40.8688],[-73.7884,40.8687],[-73.7911,40.867],[-73.7917,40.8652],[-73.791,40.8623],[-73.7914,40.8609],[-73.7933,40.8601],[-73.7937,40.8595],[-73.7943,40.858],[-73.794,40.8562],[-73.7966,40.8558],[-73.7977,40.8545],[-73.7984,40.8544],[-73.7975,40.8532],[-73.7973,40.8518],[-73.7978,40.8503],[-73.7989,40.8495],[-73.7999,40.8478],[-73.8018,40.8484],[-73.8047,40.8532],[-73.805,40.855],[-73.8041,40.8558],[-73.8052,40.8611],[-73.8055,40.8596],[-73.8072,40.8596],[-73.8083,40.859],[-73.8112,40.862],[-73.8137,40.8633],[-73.8154,40.8615],[-73.8135,40.8609],[-73.8123,40.8591],[-73.8118,40.854],[-73.8123,40.8537],[-73.816,40.8536],[-73.8166,40.8522],[-73.8166,40.8515],[-73.8153,40.8511],[-73.8156,40.8502],[-73.8146,40.8493],[-73.8153,40.8472],[-73.8136,40.8478],[-73.8132,40.8472],[-73.8139,40.8464],[-73.8118,40.8472],[-73.8112,40.8467],[-73.8123,40.8439],[-73.813,40.8438],[-73.8133,40.8432],[-73.8149,40.843],[-73.8138,40.8395],[-73.8159,40.8375],[-73.8157,40.8365],[-73.815,40.8361],[-73.8156,40.8351],[-73.8144,40.8313],[-73.8135,40.8312],[-73.8136,40.8303],[-73.8125,40.8288],[-73.8099,40.8287],[-73.8094,40.8283],[-73.8098,40.8277],[-73.8123,40.8274],[-73.8129,40.8269],[-73.8126,40.826],[-73.8117,40.8259],[-73.8118,40.8249],[-73.8092,40.8264],[-73.8067,40.8258],[-73.8062,40.8237],[-73.8055,40.823],[-73.8055,40.8209],[-73.8043,40.8194],[-73.8033,40.8188],[-73.8005,40.8185],[-73.7972,40.8168],[-73.797,40.8154],[-73.7988,40.815],[-73.8008,40.813],[-73.8011,40.812],[-73.8033,40.8121],[-73.8022,40.8107],[-73.8009,40.8112],[-73.8006,40.8105],[-73.7983,40.81],[-73.7923,40.8074],[-73.7906,40.8078],[-73.7896,40.8054],[-73.7908,40.8038],[-73.7936,40.8037],[-73.7959,40.8056],[-73.7981,40.8063],[-73.8018,40.8085],[-73.8041,40.8081],[-73.8101,40.8125],[-73.8138,40.813],[-73.8146,40.8124],[-73.815,40.8131],[-73.8162,40.8133],[-73.8196,40.8127],[-73.821,40.8117],[-73.8216,40.8123],[-73.8239,40.8117],[-73.8252,40.8105],[-73.828,40.8109],[-73.8299,40.8104],[-73.8316,40.808],[-73.8311,40.805],[-73.8314,40.8045],[-73.8376,40.8057],[-73.8409,40.8125],[-73.8401,40.8146],[-73.8406,40.8179],[-73.8393,40.8197],[-73.8395,40.8222],[-73.8396,40.8197],[-73.8416,40.8184],[-73.8458,40.8103],[-73.8475,40.8102],[-73.8486,40.812],[-73.8493,40.8089],[-73.8484,40.8087],[-73.8485,40.8078],[-73.8471,40.8061],[-73.8477,40.8045],[-73.8562,40.8041],[-73.8596,40.8059],[-73.8598,40.8078],[-73.8609,40.8092],[-73.8679,40.8101],[-73.8711,40.8141],[-73.872,40.8143],[-73.8701,40.8123],[-73.8676,40.8068],[-73.8715,40.8011],[-73.8735,40.8004],[-73.8782,40.8008],[-73.8787,40.8022],[-73.8792,40.8023],[-73.8837,40.8014],[-73.8851,40.8016],[-73.8882,40.8045],[-73.8893,40.8048],[-73.8901,40.8044],[-73.8905,40.8052],[-73.8914,40.8045],[-73.8925,40.8049],[-73.8931,40.8057],[-73.8948,40.8052],[-73.897,40.8056],[-73.9019,40.8043],[-73.9106,40.7966],[-73.9137,40.7963],[-73.9146,40.7966],[-73.9133,40.7945],[-73.9148,40.7917],[-73.9166,40.7899],[-73.9182,40.7893],[-73.9217,40.7853],[-73.9225,40.7832],[-73.9243,40.7819],[-73.9282,40.7804],[-73.9312,40.7819],[-73.9352,40.7826],[-73.9366,40.7841],[-73.9361,40.786],[-73.9327,40.7901],[-73.9299,40.7918],[-73.928,40.7917],[-73.9288,40.793],[-73.9275,40.7956],[-73.9276,40.7968],[-73.9282,40.7973],[-73.9274,40.7999],[-73.9277,40.8005],[-73.9261,40.8021],[-73.928,40.8024],[-73.9281,40.8035],[-73.9291,40.8037],[-73.9327,40.8081],[-73.9334,40.8103],[-73.9329,40.8213],[-73.9341,40.8329],[-73.9334,40.8359],[-73.929,40.845],[-73.92,40.8571],[-73.9109,40.8668],[-73.9092,40.8713],[-73.9099,40.8727],[-73.9111,40.8735],[-73.9099,40.8713],[-73.9121,40.8662],[-73.9141,40.8638],[-73.9149,40.8638],[-73.915,40.8628],[-73.9169,40.8613],[-73.9192,40.8584],[-73.921,40.8591],[-73.9204,40.8582],[-73.9211,40.8563],[-73.9293,40.845],[-73.9344,40.8351],[-73.9347,40.8327],[-73.9333,40.8197],[-73.9338,40.8097],[-73.9286,40.8013],[-73.9288,40.7957],[-73.9299,40.7942],[-73.9355,40.7907],[-73.9363,40.7896],[-73.9357,40.7886],[-73.937,40.7885],[-73.9395,40.7849],[-73.9428,40.783],[-73.9434,40.7815],[-73.9432,40.7805],[-73.9416,40.7795],[-73.9423,40.7786],[-73.9415,40.7761],[-73.9425,40.7744],[-73.9619,40.7541],[-73.9713,40.7427],[-73.9722,40.7392],[-73.972,40.7357],[-73.9727,40.7347],[-73.9737,40.7345],[-73.973,40.7315],[-73.971,40.7294],[-73.971,40.7273],[-73.9731,40.7184],[-73.976,40.7116],[-73.9777,40.7101],[-73.9811,40.7093],[-73.9884,40.7086],[-73.9891,40.7094],[-73.9979,40.708],[-74.0006,40.7066],[-74.0001,40.7053],[-74.0012,40.7044],[-74.0028,40.7036],[-74.0041,40.7045],[-74.0057,40.7037],[-74.005,40.7026],[-74.0053,40.702],[-74.0069,40.7029],[-74.0085,40.7018],[-74.0071,40.7014],[-74.0081,40.7002],[-74.0098,40.7013],[-74.0105,40.7011],[-74.0105,40.6998],[-74.0113,40.7],[-74.0131,40.6993],[-74.0137,40.7],[-74.0142,40.6996],[-74.0154,40.7],[-74.0155,40.7006],[-74.0194,40.7046],[-74.0198,40.7061],[-74.019,40.7075]],[[-73.7873,40.8606],[-73.7845,40.861],[-73.784,40.8604],[-73.7849,40.8584],[-73.7862,40.8587],[-73.7881,40.8585],[-73.7873,40.8606]],[[-73.7879,40.8344],[-73.7892,40.834],[-73.7898,40.8343],[-73.7899,40.8356],[-73.7882,40.8357],[-73.7879,40.8344]],[[-73.7953,40.6083],[-73.7948,40.6058],[-73.7958,40.6043],[-73.7973,40.6036],[-73.8039,40.6039],[-73.8043,40.6042],[-73.8045,40.6062],[-73.8015,40.609],[-73.797,40.6095],[-73.7953,40.6083]],[[-73.7975,40.624],[-73.7988,40.6245],[-73.7982,40.6235],[-73.7994,40.6199],[-73.8006,40.619],[-73.8012,40.6192],[-73.8011,40.6175],[-73.8031,40.6141],[-73.8037,40.6139],[-73.8041,40.6159],[-73.8064,40.6194],[-73.8069,40.6225],[-73.8057,40.6242],[-73.7991,40.6271],[-73.7971,40.6261],[-73.7979,40.6253],[-73.7975,40.624]],[[-73.8071,40.8429],[-73.804,40.8431],[-73.8018,40.8419],[-73.8024,40.8407],[-73.8074,40.8412],[-73.8071,40.8429]],[[-73.8118,40.5977],[-73.8154,40.6017],[-73.8144,40.6049],[-73.8103,40.6035],[-73.8094,40.6019],[-73.8099,40.5987],[-73.8118,40.5977]],[[-73.8135,40.6222],[-73.8135,40.6237],[-73.8149,40.6257],[-73.8123,40.627],[-73.8115,40.6262],[-73.8118,40.6245],[-73.8112,40.6235],[-73.813,40.6218],[-73.8135,40.6222]],[[-73.8122,40.6198],[-73.8129,40.6198],[-73.8128,40.6211],[-73.8123,40.621],[-73.8122,40.6198]],[[-73.8332,40.5887],[-73.837,40.589],[-73.8427,40.5921],[-73.8438,40.5933],[-73.8439,40.5954],[-73.8405,40.5978],[-73.8373,40.5973],[-73.8353,40.5953],[-73.8352,40.5959],[-73.8326,40.5983],[-73.8308,40.598],[-73.8295,40.5986],[-73.8282,40.5982],[-73.826,40.6],[-73.825,40.5992],[-73.8244,40.6],[-73.8249,40.601],[-73.8234,40.6028],[-73.8234,40.6061],[-73.8214,40.608],[-73.822,40.6082],[-73.8223,40.6095],[-73.8233,40.61],[-73.8258,40.6135],[-73.8273,40.6129],[-73.8281,40.6138],[-73.8309,40.6145],[-73.8341,40.6139],[-73.8383,40.6155],[-73.8355,40.6178],[-73.8362,40.6196],[-73.8353,40.6206],[-73.8354,40.6229],[-73.8337,40.6231],[-73.834,40.6243],[-73.8323,40.6252],[-73.8315,40.625],[-73.8312,40.6261],[-73.8325,40.6266],[-73.8329,40.6275],[-73.8335,40.6278],[-73.8317,40.6328],[-73.8338,40.6388],[-73.8321,40.6394],[-73.8279,40.6364],[-73.8256,40.6363],[-73.8249,40.6366],[-73.8247,40.6401],[-73.8241,40.6404],[-73.8229,40.6392],[-73.8202,40.6292],[-73.8158,40.6248],[-73.8164,40.6236],[-73.8177,40.6235],[-73.818,40.623],[-73.8173,40.6223],[-73.816,40.6225],[-73.8149,40.6216],[-73.815,40.6199],[-73.8168,40.6189],[-73.8172,40.6174],[-73.8161,40.6148],[-73.814,40.6151],[-73.8136,40.6147],[-73.8138,40.6142],[-73.8147,40.6138],[-73.8145,40.6128],[-73.8155,40.6125],[-73.8152,40.6113],[-73.8144,40.6116],[-73.814,40.6112],[-73.8147,40.6097],[-73.8144,40.6079],[-73.8151,40.6059],[-73.8169,40.6047],[-73.818,40.5992],[-73.8209,40.5943],[-73.8255,40.5946],[-73.8317,40.5939],[-73.8307,40.5913],[-73.8332,40.5887]],[[-73.8143,40.6303],[-73.8142,40.6275],[-73.815,40.6271],[-73.8169,40.6296],[-73.8162,40.6308],[-73.8143,40.6303]],[[-73.8345,40.6047],[-73.8362,40.6058],[-73.8357,40.6072],[-73.8326,40.6099],[-73.8292,40.6077],[-73.8279,40.6086],[-73.828,40.6096],[-73.8275,40.61],[-73.8259,40.6096],[-73.8241,40.6047],[-73.8247,40.6042],[-73.8289,40.6051],[-73.8296,40.6064],[-73.8311,40.6048],[-73.8345,40.6047]],[[-73.8259,40.5911],[-73.8265,40.5896],[-73.8278,40.5894],[-73.8282,40.5905],[-73.8277,40.5918],[-73.8252,40.5924],[-73.8251,40.5917],[-73.8259,40.5911]],[[-73.836,40.6309],[-73.8365,40.6322],[-73.8358,40.6327],[-73.8346,40.6316],[-73.836,40.6309]],[[-73.8486,40.6048],[-73.8487,40.6055],[-73.8499,40.6056],[-73.8502,40.6067],[-73.8478,40.6075],[-73.8464,40.6088],[-73.8462,40.6115],[-73.8457,40.6123],[-73.8461,40.6137],[-73.8459,40.6142],[-73.8434,40.6141],[-73.8409,40.6122],[-73.8382,40.6136],[-73.8358,40.6125],[-73.8385,40.6076],[-73.8405,40.6066],[-73.8399,40.6056],[-73.8413,40.6041],[-73.8444,40.6038],[-73.8447,40.6032],[-73.8457,40.603],[-73.8486,40.6048]],[[-73.8424,40.6279],[-73.8411,40.6275],[-73.8406,40.628],[-73.839,40.6274],[-73.8406,40.6254],[-73.8429,40.6274],[-73.8424,40.6279]],[[-73.8458,40.6242],[-73.8464,40.6247],[-73.8462,40.6255],[-73.8446,40.6253],[-73.8443,40.6248],[-73.8435,40.6246],[-73.8425,40.6231],[-73.8455,40.6226],[-73.8458,40.6242]],[[-73.8447,40.6353],[-73.8463,40.6348],[-73.8476,40.6323],[-73.8504,40.6318],[-73.8504,40.6342],[-73.8486,40.638],[-73.8462,40.6391],[-73.8438,40.6367],[-73.8447,40.6353]],[[-73.8482,40.628],[-73.8488,40.6286],[-73.8484,40.6294],[-73.8476,40.6287],[-73.8482,40.628]],[[-73.8491,40.6303],[-73.8486,40.631],[-73.848,40.6308],[-73.8482,40.63],[-73.8491,40.6303]],[[-73.8529,40.623],[-73.852,40.6238],[-73.8501,40.624],[-73.8492,40.623],[-73.8481,40.6228],[-73.848,40.6222],[-73.8513,40.6197],[-73.8566,40.6191],[-73.8579,40.6202],[-73.8578,40.6209],[-73.8553,40.6225],[-73.8542,40.6213],[-73.8522,40.6211],[-73.8519,40.6217],[-73.8529,40.623]],[[-73.8555,40.6072],[-73.8553,40.608],[-73.8571,40.6106],[-73.8568,40.6113],[-73.8551,40.6107],[-73.853,40.6108],[-73.853,40.6116],[-73.8507,40.6128],[-73.8492,40.6123],[-73.849,40.6095],[-73.8542,40.6067],[-73.8555,40.6072]],[[-73.8571,40.5955],[-73.8605,40.596],[-73.8639,40.6003],[-73.8609,40.6031],[-73.8546,40.6023],[-73.8525,40.6014],[-73.8503,40.599],[-73.8526,40.5967],[-73.8571,40.5955]],[[-73.8512,40.6311],[-73.8516,40.6301],[-73.8536,40.6304],[-73.8568,40.6293],[-73.8591,40.6305],[-73.8578,40.6331],[-73.8555,40.6333],[-73.8539,40.6343],[-73.8519,40.6338],[-73.8524,40.6321],[-73.8512,40.6311]],[[-73.8575,40.6244],[-73.8581,40.6251],[-73.8577,40.6258],[-73.8568,40.6252],[-73.8575,40.6244]],[[-73.8629,40.5835],[-73.8675,40.5812],[-73.8692,40.5812],[-73.8708,40.5828],[-73.8717,40.5869],[-73.8702,40.5898],[-73.8663,40.5924],[-73.863,40.5913],[-73.8608,40.5879],[-73.8612,40.5859],[-73.8629,40.5835]],[[-73.8615,40.624],[-73.8627,40.6229],[-73.8634,40.6229],[-73.8642,40.6242],[-73.8636,40.6247],[-73.8617,40.6247],[-73.8615,40.624]],[[-73.8645,40.6255],[-73.8659,40.6234],[-73.8644,40.6211],[-73.866,40.6177],[-73.8739,40.6153],[-73.8784,40.6154],[-73.8802,40.6168],[-73.8798,40.6201],[-73.8781,40.622],[-73.8665,40.6288],[-73.8647,40.6277],[-73.8645,40.6255]],[[-73.8692,40.6069],[-73.8692,40.6083],[-73.8686,40.6087],[-73.8669,40.6085],[-73.8665,40.608],[-73.8688,40.6065],[-73.8692,40.6069]],[[-73.8683,40.6043],[-73.8671,40.6047],[-73.8665,40.6041],[-73.8673,40.6028],[-73.8686,40.6027],[-73.8683,40.6043]],[[-73.8701,40.5985],[-73.871,40.5984],[-73.8716,40.599],[-73.871,40.6027],[-73.8704,40.6031],[-73.87,40.6027],[-73.8697,40.5992],[-73.869,40.5988],[-73.8693,40.5963],[-73.8706,40.5966],[-73.8701,40.5985]],[[-73.8729,40.611],[-73.8708,40.6102],[-73.8692,40.6065],[-73.8711,40.6042],[-73.8716,40.6046],[-73.8716,40.6061],[-73.8729,40.608],[-73.8735,40.6106],[-73.8729,40.611]],[[-73.8838,40.7963],[-73.8783,40.795],[-73.8726,40.7919],[-73.8708,40.7903],[-73.8703,40.7878],[-73.8726,40.7855],[-73.8783,40.7849],[-73.8879,40.7864],[-73.8894,40.7871],[-73.8909,40.7896],[-73.8926,40.7901],[-73.8933,40.7927],[-73.8922,40.797],[-73.8911,40.7984],[-73.8894,40.7984],[-73.8891,40.7992],[-73.888,40.7991],[-73.8838,40.7963]],[[-73.9005,40.8011],[-73.8987,40.8028],[-73.898,40.8028],[-73.896,40.8006],[-73.8985,40.7986],[-73.9004,40.7988],[-73.9005,40.8011]],[[-73.8966,40.7954],[-73.8979,40.7952],[-73.8997,40.7965],[-73.8979,40.7976],[-73.8963,40.7958],[-73.8966,40.7954]],[[-73.9374,40.7814],[-73.9371,40.7805],[-73.9394,40.7791],[-73.94,40.7794],[-73.9389,40.7815],[-73.9374,40.7814]],[[-73.9408,40.7691],[-73.9425,40.7679],[-73.9529,40.7561],[-73.9576,40.7517],[-73.9613,40.7493],[-73.9619,40.7494],[-73.962,40.75],[-73.9594,40.7539],[-73.9451,40.7701],[-73.9424,40.7725],[-73.9399,40.7734],[-73.9398,40.7704],[-73.9408,40.7691]],[[-73.9643,40.7459],[-73.9649,40.7463],[-73.9641,40.7473],[-73.9637,40.747],[-73.9643,40.7459]],[[-74.0209,40.6839],[-74.0214,40.6843],[-74.0218,40.6834],[-74.0233,40.6825],[-74.0237,40.6829],[-74.0234,40.6837],[-74.026,40.6839],[-74.0271,40.686],[-74.0201,40.6935],[-74.0154,40.6938],[-74.0134,40.6927],[-74.0114,40.6928],[-74.0114,40.6922],[-74.012,40.6918],[-74.0113,40.6909],[-74.0127,40.6879],[-74.0151,40.6869],[-74.0147,40.6866],[-74.0148,40.6861],[-74.0172,40.6863],[-74.019,40.6854],[-74.0192,40.6846],[-74.0209,40.6839]],[[-74.0379,40.698],[-74.0394,40.6976],[-74.0417,40.696],[-74.0442,40.698],[-74.0399,40.7014],[-74.0372,40.6994],[-74.0379,40.698]],[[-74.0421,40.6897],[-74.0441,40.6881],[-74.0481,40.6896],[-74.0475,40.6913],[-74.0461,40.6916],[-74.0435,40.6903],[-74.0424,40.6905],[-74.0421,40.6897]],[[-74.0498,40.5668],[-74.0488,40.5657],[-74.049,40.5649],[-74.0502,40.5649],[-74.0515,40.5669],[-74.051,40.5672],[-74.0498,40.5668]],[[-74.2525,40.5132],[-74.2526,40.5136],[-74.2508,40.5153],[-74.2509,40.5165],[-74.2496,40.5165],[-74.2498,40.5172],[-74.2488,40.5179],[-74.2481,40.5178],[-74.2481,40.5171],[-74.2473,40.5164],[-74.2474,40.5175],[-74.246,40.5175],[-74.2459,40.5185],[-74.2425,40.5188],[-74.2408,40.5201],[-74.2433,40.5209],[-74.2433,40.5238],[-74.2445,40.5248],[-74.242,40.5313],[-74.2427,40.5343],[-74.2446,40.5364],[-74.2458,40.5367],[-74.245,40.5381],[-74.246,40.5406],[-74.2485,40.543],[-74.2465,40.546],[-74.2435,40.5483],[-74.2421,40.5475],[-74.2406,40.5481],[-74.2369,40.5508],[-74.2367,40.5527],[-74.235,40.5535],[-74.2335,40.5531],[-74.2309,40.556],[-74.2296,40.556],[-74.2283,40.5569],[-74.2234,40.5565],[-74.2225,40.556],[-74.2208,40.5564],[-74.2198,40.5554],[-74.2187,40.5565],[-74.2176,40.5556],[-74.2155,40.5565],[-74.2152,40.5573],[-74.2136,40.5571],[-74.2124,40.5587],[-74.2117,40.5606],[-74.2119,40.5637],[-74.2086,40.5706],[-74.2076,40.5764],[-74.2064,40.5787],[-74.2065,40.5805],[-74.2049,40.5838],[-74.2051,40.5895],[-74.2001,40.5939],[-74.198,40.5971],[-74.1978,40.598],[-74.1992,40.6014],[-74.2027,40.6057],[-74.2033,40.6082],[-74.2029,40.6134],[-74.201,40.6164],[-74.2014,40.6178],[-74.2009,40.6185],[-74.2021,40.6231],[-74.2016,40.6242],[-74.2019,40.6261],[-74.2013,40.6305],[-74.2007,40.6319],[-74.1972,40.6337],[-74.1951,40.6365],[-74.195,40.6378],[-74.194,40.6379],[-74.1868,40.6438],[-74.1849,40.6446],[-74.1841,40.6442],[-74.1838,40.6451],[-74.1805,40.6452],[-74.1799,40.6458],[-74.1787,40.6453],[-74.1784,40.6432],[-74.1761,40.6438],[-74.176,40.6451],[-74.1743,40.6456],[-74.1726,40.6446],[-74.1721,40.6435],[-74.1711,40.6435],[-74.1705,40.6424],[-74.169,40.6426],[-74.1669,40.6421],[-74.1664,40.6429],[-74.1648,40.6427],[-74.1639,40.6415],[-74.1614,40.641],[-74.1611,40.6398],[-74.1605,40.6397],[-74.1602,40.6403],[-74.1596,40.6403],[-74.1595,40.6389],[-74.159,40.6393],[-74.1583,40.6389],[-74.1576,40.6394],[-74.1572,40.6384],[-74.1559,40.638],[-74.1553,40.6382],[-74.1551,40.6394],[-74.1546,40.6397],[-74.1541,40.6378],[-74.1532,40.6377],[-74.1526,40.6387],[-74.1518,40.6386],[-74.1515,40.6399],[-74.1498,40.6385],[-74.1489,40.6394],[-74.1452,40.6399],[-74.1442,40.6395],[-74.1424,40.6408],[-74.1344,40.6424],[-74.1312,40.6421],[-74.1303,40.6414],[-74.1294,40.6418],[-74.1285,40.6415],[-74.1283,40.6407],[-74.1273,40.6405],[-74.1267,40.6408],[-74.1267,40.6417],[-74.1256,40.6419],[-74.1252,40.6415],[-74.1253,40.6407],[-74.1243,40.6406],[-74.1221,40.642],[-74.1203,40.6417],[-74.1197,40.6427],[-74.119,40.643],[-74.1175,40.6421],[-74.1174,40.6435],[-74.1165,40.6437],[-74.1156,40.6429],[-74.1144,40.6438],[-74.1142,40.6446],[-74.1129,40.645],[-74.1124,40.6447],[-74.1099,40.6459],[-74.1041,40.6462],[-74.0989,40.6456],[-74.0948,40.646],[-74.0858,40.6494],[-74.0797,40.6489],[-74.0763,40.6474],[-74.0744,40.6457],[-74.0733,40.6463],[-74.0725,40.6452],[-74.0713,40.6453],[-74.0715,40.6445],[-74.0706,40.6432],[-74.0699,40.643],[-74.07,40.6416],[-74.0695,40.641],[-74.0698,40.6406],[-74.0726,40.64],[-74.0726,40.639],[-74.0719,40.6381],[-74.0729,40.6372],[-74.0716,40.6367],[-74.0728,40.636],[-74.0725,40.6308],[-74.0678,40.6292],[-74.0675,40.6288],[-74.0681,40.6283],[-74.0722,40.6292],[-74.0718,40.6248],[-74.0694,40.6216],[-74.0665,40.6195],[-74.0652,40.6196],[-74.0652,40.6187],[-74.0639,40.6185],[-74.0639,40.6178],[-74.061,40.6147],[-74.0603,40.6131],[-74.0596,40.6131],[-74.0562,40.6076],[-74.0534,40.6062],[-74.0525,40.6015],[-74.0528,40.6007],[-74.0518,40.6001],[-74.0518,40.5995],[-74.0542,40.5983],[-74.0618,40.5917],[-74.0643,40.589],[-74.064,40.5879],[-74.0669,40.5863],[-74.0706,40.5829],[-74.0708,40.5824],[-74.0702,40.5818],[-74.0703,40.5813],[-74.0716,40.5813],[-74.074,40.5794],[-74.073,40.5786],[-74.073,40.5779],[-74.075,40.5785],[-74.075,40.5775],[-74.0761,40.5776],[-74.0784,40.5757],[-74.0784,40.5747],[-74.0794,40.575],[-74.0802,40.5746],[-74.0856,40.57],[-74.0862,40.5692],[-74.0857,40.5687],[-74.0859,40.5681],[-74.0872,40.5684],[-74.089,40.5666],[-74.09,40.5668],[-74.0906,40.5664],[-74.0937,40.5624],[-74.0953,40.5626],[-74.0962,40.5618],[-74.0976,40.5597],[-74.0975,40.5587],[-74.0987,40.5589],[-74.1004,40.558],[-74.1013,40.5562],[-74.1011,40.5551],[-74.1029,40.5554],[-74.1047,40.5525],[-74.1067,40.5537],[-74.1074,40.5535],[-74.1127,40.5474],[-74.1164,40.5474],[-74.1178,40.5468],[-74.1195,40.545],[-74.1222,40.5444],[-74.1333,40.5311],[-74.1368,40.5288],[-74.1388,40.5293],[-74.1411,40.5344],[-74.1403,40.536],[-74.1342,40.5361],[-74.1342,40.537],[-74.1303,40.5404],[-74.1294,40.5401],[-74.1283,40.5412],[-74.128,40.5428],[-74.1294,40.5447],[-74.1308,40.5457],[-74.1335,40.5463],[-74.136,40.5457],[-74.1358,40.5446],[-74.1371,40.5442],[-74.1407,40.541],[-74.1416,40.5412],[-74.1416,40.5383],[-74.1408,40.5373],[-74.1411,40.5367],[-74.1436,40.5366],[-74.1445,40.5353],[-74.1489,40.5338],[-74.1504,40.5322],[-74.1522,40.5316],[-74.1555,40.5291],[-74.156,40.5282],[-74.1569,40.5284],[-74.1595,40.5268],[-74.1622,40.5267],[-74.1699,40.5226],[-74.1713,40.5229],[-74.1725,40.5225],[-74.1774,40.5188],[-74.1811,40.5201],[-74.1846,40.5189],[-74.1881,40.516],[-74.1885,40.5147],[-74.1896,40.5148],[-74.195,40.5095],[-74.1966,40.5094],[-74.1999,40.511],[-74.2007,40.5125],[-74.2074,40.5114],[-74.2089,40.5107],[-74.2091,40.51],[-74.2097,40.51],[-74.2132,40.506],[-74.2148,40.5056],[-74.2174,40.5029],[-74.225,40.5013],[-74.2273,40.5018],[-74.231,40.5014],[-74.2365,40.4996],[-74.2397,40.4971],[-74.2442,40.4971],[-74.2467,40.4956],[-74.25,40.4965],[-74.2515,40.4986],[-74.2536,40.4999],[-74.2558,40.5039],[-74.2561,40.5079],[-74.2548,40.5094],[-74.2549,40.5103],[-74.2539,40.5104],[-74.254,40.5119],[-74.2525,40.5132]],[[-74.0552,40.5774],[-74.0553,40.58],[-74.0537,40.581],[-74.0526,40.5802],[-74.0528,40.5773],[-74.0541,40.5766],[-74.0552,40.5774]],[[-74.1615,40.6416],[-74.162,40.6441],[-74.1616,40.6447],[-74.158,40.6442],[-74.1571,40.6431],[-74.1585,40.6414],[-74.1601,40.641],[-74.1615,40.6416]]],[[[-73.9954,40.5817],[-73.9979,40.5822],[-73.9973,40.5811],[-73.9888,40.5794],[-73.992,40.5808],[-73.9914,40.5836],[-73.9954,40.5817]]],[[[-73.9201,40.5852],[-73.9193,40.5855],[-73.9246,40.5852],[-73.9201,40.5852]]],[[[-73.9278,40.5868],[-73.9277,40.5869],[-73.9279,40.587],[-73.9278,40.5868]]],[[[-73.9292,40.5875],[-73.9286,40.5876],[-73.9285,40.5881],[-73.9295,40.5881],[-73.9292,40.5875]]],[[[-73.9319,40.5941],[-73.9307,40.5924],[-73.9306,40.5933],[-73.9319,40.5941]]],[[[-73.9216,40.5956],[-73.9166,40.5924],[-73.9182,40.5943],[-73.9212,40.596],[-73.9227,40.5984],[-73.9198,40.6001],[-73.9161,40.5987],[-73.9148,40.5972],[-73.916,40.5988],[-73.9216,40.6012],[-73.9237,40.5993],[-73.9248,40.5992],[-73.9298,40.6024],[-73.9299,40.6034],[-73.9308,40.6034],[-73.9314,40.6028],[-73.9308,40.6021],[-73.9271,40.6005],[-73.9216,40.5956]]],[[[-73.9143,40.6034],[-73.9128,40.6033],[-73.914,40.6036],[-73.9171,40.6065],[-73.917,40.6082],[-73.9176,40.6089],[-73.918,40.6069],[-73.9143,40.6034]]],[[[-73.9174,40.6101],[-73.9172,40.6097],[-73.9167,40.6106],[-73.9174,40.6101]]],[[[-73.9153,40.6132],[-73.9152,40.6119],[-73.9151,40.6118],[-73.9153,40.6132]]],[[[-73.8501,40.7604],[-73.8513,40.7601],[-73.8508,40.76],[-73.8501,40.7604],[-73.8501,40.7604]]],[[[-74.0109,40.6837],[-74.0119,40.6834],[-74.0117,40.6827],[-74.0132,40.6816],[-74.0129,40.6812],[-74.0105,40.6833],[-74.0109,40.6837]]],[[[-74.0166,40.6725],[-74.0178,40.6716],[-74.017,40.6712],[-74.0161,40.6659],[-74.0126,40.6662],[-74.011,40.6689],[-74.0119,40.6699],[-74.0144,40.6693],[-74.0147,40.67],[-74.0135,40.6706],[-74.0142,40.6708],[-74.0152,40.6703],[-74.016,40.6706],[-74.0162,40.6712],[-74.0155,40.6718],[-74.0166,40.6725]]],[[[-74.0019,40.668],[-74.0026,40.6671],[-74.0004,40.6682],[-74.0019,40.668]]],[[[-73.9997,40.6688],[-73.9999,40.6685],[-73.9997,40.6685],[-73.9997,40.6688]]],[[[-73.9464,40.7376],[-73.9467,40.7375],[-73.9464,40.7374],[-73.9464,40.7376]]],[[[-73.946,40.7368],[-73.9459,40.737],[-73.946,40.7369],[-73.946,40.7368]]],[[[-73.9444,40.7364],[-73.9449,40.7366],[-73.9447,40.7364],[-73.9444,40.7364]]],[[[-73.9391,40.7312],[-73.9397,40.7321],[-73.9394,40.7315],[-73.9391,40.7312]]],[[[-73.9248,40.724],[-73.9274,40.726],[-73.9253,40.7207],[-73.9247,40.7207],[-73.9257,40.7224],[-73.9248,40.724]]],[[[-73.9239,40.7181],[-73.9243,40.7187],[-73.9244,40.7184],[-73.9239,40.7181]]],[[[-73.7479,40.643],[-73.7472,40.6419],[-73.7472,40.6421],[-73.7479,40.643]]],[[[-73.7494,40.6444],[-73.7484,40.6438],[-73.749,40.6445],[-73.7494,40.6444]]],[[[-73.8392,40.6617],[-73.8393,40.6617],[-73.8393,40.6616],[-73.8392,40.6617]]],[[[-73.8623,40.6561],[-73.8613,40.6558],[-73.8621,40.6573],[-73.8627,40.6571],[-73.8623,40.6561]]],[[[-73.8847,40.6437],[-73.879,40.6388],[-73.8809,40.6407],[-73.8812,40.6418],[-73.8819,40.6421],[-73.8827,40.6435],[-73.8835,40.644],[-73.8847,40.6437]]],[[[-73.9017,40.6102],[-73.9014,40.6081],[-73.9012,40.61],[-73.9017,40.6102]]],[[[-73.9075,40.6155],[-73.906,40.6143],[-73.9075,40.6156],[-73.9075,40.6155]]],[[[-73.8888,40.6478],[-73.89,40.6484],[-73.8892,40.6476],[-73.8888,40.6478]]],[[[-73.9396,40.7425],[-73.9397,40.7423],[-73.9395,40.7425],[-73.9396,40.7425]]],[[[-73.7779,40.5991],[-73.777,40.6009],[-73.778,40.5999],[-73.78,40.6002],[-73.7814,40.5987],[-73.7799,40.5977],[-73.7779,40.5991]]],[[[-73.859,40.8079],[-73.859,40.8078],[-73.859,40.8078],[-73.859,40.8079]]],[[[-73.8046,40.8127],[-73.8042,40.8126],[-73.8051,40.8144],[-73.8053,40.8146],[-73.8046,40.8127]]],[[[-73.9115,40.8739],[-73.913,40.8742],[-73.9113,40.8737],[-73.9112,40.8736],[-73.9115,40.8739]]],[[[-73.8399,40.8232],[-73.8396,40.8224],[-73.8395,40.8225],[-73.8399,40.8232]]],[[[-73.8344,40.5944],[-73.8341,40.5943],[-73.8352,40.5951],[-73.8344,40.5944]]]]}}]}