{"type":"FeatureCollection","features":[{"type":"Feature","properties":{"name":"Arthur Kill Generating Station","mw":896,"src":"natural gas","tech":"Natural Gas Fired Combustion Turbine; Natural Gas Steam Turbine;","sector":"IPP Non-CHP","utility":"NRG Arthur Kill Operations Inc","city":"Staten Island","county":"Richmond","fuels":{"Natural gas":896},"period":"202502"},"geometry":{"type":"Point","coordinates":[-74.20003,40.59156]}},{"type":"Feature","properties":{"name":"East River","mw":630.7,"src":"natural gas","tech":"Natural Gas Fired Combustion Turbine; Natural Gas Steam Turbine;","sector":"Electric Utility","utility":"Consolidated Edison Co-NY Inc","city":"New York","county":"New York","fuels":{"Natural gas":630.7},"period":"202502"},"geometry":{"type":"Point","coordinates":[-73.9742,40.7281]}},{"type":"Feature","properties":{"name":"Gowanus Gas Turbines Generating","mw":580.2,"src":"natural gas","tech":"Natural Gas Fired Combustion Turbine; Petroleum Liquids;","sector":"IPP Non-CHP","utility":"U S Power Generating Company LLC","city":"Brooklyn","county":"Kings","fuels":{"Natural gas":299.6,"Petroleum":280.6},"period":"202502"},"geometry":{"type":"Point","coordinates":[-74.0051,40.6635]}},{"type":"Feature","properties":{"name":"Narrows Gas Turbines Generating","mw":309.1,"src":"natural gas","tech":"Natural Gas Fired Combustion Turbine","sector":"IPP Non-CHP","utility":"U S Power Generating Company LLC","city":"Brooklyn","county":"Kings","fuels":{"Natural gas":309.1},"period":"202502"},"geometry":{"type":"Point","coordinates":[-74.02083,40.64861]}},{"type":"Feature","properties":{"name":"Ravenswood","mw":1955,"src":"natural gas","tech":"Natural Gas Fired Combined Cycle; Natural Gas Steam Turbine;","sector":"IPP Non-CHP","utility":"Ravenswood Operations LLC","city":"Long Island","county":"Queens","fuels":{"Natural gas":1955},"period":"202502"},"geometry":{"type":"Point","coordinates":[-73.94611,40.75917]}},{"type":"Feature","properties":{"name":"59th Street","mw":14.5,"src":"natural gas","tech":"Natural Gas Fired Combustion Turbine","sector":"Electric Utility","utility":"Consolidated Edison Co-NY Inc","city":"New York","county":"New York","fuels":{"Natural gas":14.5},"period":"202502"},"geometry":{"type":"Point","coordinates":[-73.99115,40.77128]}},{"type":"Feature","properties":{"name":"74th Street","mw":37.8,"src":"petroleum","tech":"Petroleum Liquids","sector":"Electric Utility","utility":"Consolidated Edison Co-NY Inc","city":"New York","county":"New York","fuels":{"Petroleum":37.8},"period":"202502"},"geometry":{"type":"Point","coordinates":[-73.9515,40.768]}},{"type":"Feature","properties":{"name":"Bronx Zoo","mw":3.6,"src":"natural gas","tech":"Natural Gas Internal Combustion Engine","sector":"Commercial CHP","utility":"New York Zoological Society","city":"New York","county":"Bronx","fuels":{"Natural gas":3.6},"period":"202502"},"geometry":{"type":"Point","coordinates":[-73.87689,40.84411]}},{"type":"Feature","properties":{"name":"NewYork-Presbyterian Brooklyn Methodist","mw":5.9,"src":"petroleum","tech":"Petroleum Liquids","sector":"Commercial Non-CHP","utility":"NewYork-Presbyterian Brooklyn Methodist Hospital","city":"Brooklyn","county":"Kings","fuels":{"Petroleum":5.9},"period":"202502"},"geometry":{"type":"Point","coordinates":[-73.9787,40.6679]}},{"type":"Feature","properties":{"name":"Riverbay","mw":42.1,"src":"natural gas","tech":"Natural Gas Fired Combined Cycle; Petroleum Liquids;","sector":"Commercial CHP","utility":"Riverbay Corp","city":"New York","county":"Bronx","fuels":{"Natural gas":40.6,"Petroleum":1.5},"period":"202502"},"geometry":{"type":"Point","coordinates":[-73.82444,40.86997]}},{"type":"Feature","properties":{"name":"Kennedy International Airport Cogen","mw":125.1,"src":"natural gas","tech":"Natural Gas Fired Combined Cycle","sector":"IPP CHP","utility":"KIAC Partners","city":"Jamaica","county":"Queens","fuels":{"Natural gas":125.1},"period":"202502"},"geometry":{"type":"Point","coordinates":[-73.7778,40.6417]}},{"type":"Feature","properties":{"name":"Vernon Boulevard","mw":79.9,"src":"natural gas","tech":"Natural Gas Fired Combustion Turbine","sector":"Electric Utility","utility":"New York Power Authority","city":"Long Island City","county":"Queens","fuels":{"Natural gas":79.9},"period":"202502"},"geometry":{"type":"Point","coordinates":[-73.9508,40.7537]}},{"type":"Feature","properties":{"name":"Joseph J Seymour Power Project","mw":79.9,"src":"natural gas","tech":"Natural Gas Fired Combustion Turbine","sector":"Electric Utility","utility":"New York Power Authority","city":"Brooklyn","county":"Kings","fuels":{"Natural gas":79.9},"period":"202502"},"geometry":{"type":"Point","coordinates":[-74,40.6631]}},{"type":"Feature","properties":{"name":"Hell Gate","mw":79.5,"src":"natural gas","tech":"Natural Gas Fired Combustion Turbine","sector":"Electric Utility","utility":"New York Power Authority","city":"Bronx","county":"Bronx","fuels":{"Natural gas":79.5},"period":"202502"},"geometry":{"type":"Point","coordinates":[-73.9094,40.799]}},{"type":"Feature","properties":{"name":"Harlem River Yard","mw":79.5,"src":"natural gas","tech":"Natural Gas Fired Combustion Turbine","sector":"Electric Utility","utility":"New York Power Authority","city":"Bronx","county":"Bronx","fuels":{"Natural gas":79.5},"period":"202502"},"geometry":{"type":"Point","coordinates":[-73.9156,40.7991]}},{"type":"Feature","properties":{"name":"North 1st","mw":46,"src":"natural gas","tech":"Natural Gas Fired Combustion Turbine","sector":"Electric Utility","utility":"New York Power Authority","city":"Brooklyn","county":"Kings","fuels":{"Natural gas":46},"period":"202502"},"geometry":{"type":"Point","coordinates":[-73.9664,40.7171]}},{"type":"Feature","properties":{"name":"Pouch","mw":45.4,"src":"natural gas","tech":"Natural Gas Fired Combustion Turbine","sector":"Electric Utility","utility":"New York Power Authority","city":"Staten Island","county":"Richmond","fuels":{"Natural gas":45.4},"period":"202502"},"geometry":{"type":"Point","coordinates":[-74.06849,40.6182]}},{"type":"Feature","properties":{"name":"Astoria Generating Station","mw":1315.2,"src":"natural gas","tech":"Natural Gas Fired Combustion Turbine; Natural Gas Steam Turbine;","sector":"IPP Non-CHP","utility":"U S Power Generating Company LLC","city":"Astoria","county":"Queens","fuels":{"Natural gas":1315.2},"period":"202502"},"geometry":{"type":"Point","coordinates":[-73.91256,40.78767]}},{"type":"Feature","properties":{"name":"NYU Langone Hospital- Brooklyn","mw":4.6,"src":"petroleum","tech":"Natural Gas Internal Combustion Engine; Petroleum Liquids;","sector":"Commercial CHP","utility":"NYU Langone Health","city":"New York City","county":"Kings","fuels":{"Natural gas":1.6,"Petroleum":3},"period":"202502"},"geometry":{"type":"Point","coordinates":[-74.0211,40.6467]}},{"type":"Feature","properties":{"name":"New York University Central Plant","mw":12.8,"src":"natural gas","tech":"Natural Gas Fired Combined Cycle","sector":"Commercial CHP","utility":"New York University","city":"New York","county":"New York","fuels":{"Natural gas":12.8},"period":"202502"},"geometry":{"type":"Point","coordinates":[-73.9233,40.7899]}},{"type":"Feature","properties":{"name":"Brooklyn Navy Yard Cogeneration","mw":260,"src":"natural gas","tech":"Natural Gas Fired Combined Cycle","sector":"IPP CHP","utility":"Brooklyn Navy Yard Cogen PLP","city":"Brooklyn","county":"Kings","fuels":{"Natural gas":260},"period":"202502"},"geometry":{"type":"Point","coordinates":[-73.97639,40.69936]}},{"type":"Feature","properties":{"name":"Astoria Energy","mw":558,"src":"natural gas","tech":"Natural Gas Fired Combined Cycle","sector":"IPP Non-CHP","utility":"Astoria Energy LLC","city":"New York","county":"Queens","fuels":{"Natural gas":558},"period":"202502"},"geometry":{"type":"Point","coordinates":[-73.8964,40.7825]}},{"type":"Feature","properties":{"name":"Bayswater Peaking Facility LLC","mw":55.8,"src":"natural gas","tech":"Natural Gas Fired Combustion Turbine","sector":"IPP Non-CHP","utility":"Bayswater Peaking Facility LLC","city":"Far Rockaway","county":"Queens","fuels":{"Natural gas":55.8},"period":"202502"},"geometry":{"type":"Point","coordinates":[-73.76222,40.61065]}},{"type":"Feature","properties":{"name":"Jamaica Bay Peaking","mw":55.8,"src":"natural gas","tech":"Natural Gas Fired Combustion Turbine","sector":"IPP Non-CHP","utility":"Jamaica Bay Peaking Facility, LLC","city":"Far Rockaway","county":"Queens","fuels":{"Natural gas":55.8},"period":"202502"},"geometry":{"type":"Point","coordinates":[-73.7622,40.6097]}},{"type":"Feature","properties":{"name":"Zeltmann","mw":476,"src":"natural gas","tech":"Natural Gas Fired Combined Cycle","sector":"Electric Utility","utility":"New York Power Authority","city":"Astoria","county":"Queens","fuels":{"Natural gas":476},"period":"202502"},"geometry":{"type":"Point","coordinates":[-73.9069,40.7889]}},{"type":"Feature","properties":{"name":"Astoria Energy II","mw":540,"src":"natural gas","tech":"Natural Gas Fired Combined Cycle","sector":"IPP Non-CHP","utility":"Astoria Energy II LLC","city":"Astoria","county":"Queens","fuels":{"Natural gas":540},"period":"202502"},"geometry":{"type":"Point","coordinates":[-73.89662,40.78132]}},{"type":"Feature","properties":{"name":"Peak Power 1 Cogen","mw":6,"src":"natural gas","tech":"Natural Gas Internal Combustion Engine","sector":"Commercial CHP","utility":"Peak Power 1, LLC","city":"New York","county":"New York","fuels":{"Natural gas":6},"period":"202502"},"geometry":{"type":"Point","coordinates":[-73.99167,40.75111]}},{"type":"Feature","properties":{"name":"OBP Cogen","mw":4.6,"src":"natural gas","tech":"Natural Gas Fired Combustion Turbine","sector":"Commercial CHP","utility":"OBP Cogen LLC","city":"New York","county":"New York","fuels":{"Natural gas":4.6},"period":"202502"},"geometry":{"type":"Point","coordinates":[-73.98325,40.75487]}},{"type":"Feature","properties":{"name":"Montefieor Medical Center Moses Division","mw":17,"src":"natural gas","tech":"Natural Gas Fired Combustion Turbine; Natural Gas Internal Combustion Engine; Petroleum Liquids","sector":"Commercial CHP","utility":"Montefiore Medical Center Moses Division","city":"Bronx","county":"Bronx","fuels":{"Natural gas":8.4,"Petroleum":8.6},"period":"202502"},"geometry":{"type":"Point","coordinates":[-73.88028,40.88139]}},{"type":"Feature","properties":{"name":"Port Richmond WWT Solar","mw":1,"src":"solar","tech":"Solar Photovoltaic","sector":"IPP Non-CHP","utility":"Consolidated Edison Solutions Inc.","city":"Staten Island","county":"Richmond","fuels":{"Solar":1},"period":"202502"},"geometry":{"type":"Point","coordinates":[-74.12611,40.63806]}},{"type":"Feature","properties":{"name":"Montefiore - Westchester Square","mw":1,"src":"petroleum","tech":"Petroleum Liquids","sector":"Commercial Non-CHP","utility":"Montefiore-Westchester Square","city":"Bronx","county":"Bronx","fuels":{"Petroleum":1},"period":"202502"},"geometry":{"type":"Point","coordinates":[-73.84837,40.84065]}},{"type":"Feature","properties":{"name":"New York Presbyterian Hospital-168th St","mw":11.9,"src":"petroleum","tech":"Petroleum Liquids","sector":"Commercial Non-CHP","utility":"New York Presbyterian Hospital- 168th Street","city":"New York","county":"New York","fuels":{"Petroleum":11.9},"period":"202502"},"geometry":{"type":"Point","coordinates":[-73.94139,40.84085]}},{"type":"Feature","properties":{"name":"New York Presbyterian Hospital- 68th Street","mw":22.9,"src":"petroleum","tech":"Natural Gas Fired Combustion Turbine; Petroleum Liquids;","sector":"Commercial CHP","utility":"NY - PRESBYTERIAN HOSPITAL- 68TH ST","city":"New York","county":"New York","fuels":{"Natural gas":7.7,"Petroleum":15.2},"period":"202502"},"geometry":{"type":"Point","coordinates":[-73.95393,40.7644]}},{"type":"Feature","properties":{"name":"Kings Plaza Total Energy Plant (TEP)","mw":12.8,"src":"natural gas","tech":"Natural Gas Internal Combustion Engine","sector":"Commercial CHP","utility":"Veolia North America","city":"Brooklyn","county":"Kings","fuels":{"Natural gas":12.8},"period":"202502"},"geometry":{"type":"Point","coordinates":[-73.92001,40.61018]}},{"type":"Feature","properties":{"name":"Montefiore Weiler (Einstein) Hospital","mw":1.5,"src":"petroleum","tech":"Petroleum Liquids","sector":"Commercial Non-CHP","utility":"Montefiore Weiler (Einstein) Hospital","city":"Bronx","county":"Bronx","fuels":{"Petroleum":1.5},"period":"202502"},"geometry":{"type":"Point","coordinates":[-73.87908,40.88038]}},{"type":"Feature","properties":{"name":"Fordham University","mw":2.9,"src":"petroleum","tech":"Petroleum Liquids","sector":"Commercial Non-CHP","utility":"Fordham University","city":"Bronx","county":"Bronx","fuels":{"Petroleum":2.9},"period":"202502"},"geometry":{"type":"Point","coordinates":[-73.88742,40.86128]}},{"type":"Feature","properties":{"name":"Richmond University Medical Center","mw":2.8,"src":"petroleum","tech":"Petroleum Liquids","sector":"Commercial Non-CHP","utility":"Richmond University Medical Center","city":"Staten Island","county":"Richmond","fuels":{"Petroleum":2.8},"period":"202502"},"geometry":{"type":"Point","coordinates":[-74.10579,40.63589]}},{"type":"Feature","properties":{"name":"Mount Sinai - Brooklyn","mw":1.5,"src":"petroleum","tech":"Petroleum Liquids","sector":"Commercial Non-CHP","utility":"Mount Sinai - Brooklyn","city":"Brooklyn","county":"Kings","fuels":{"Petroleum":1.5},"period":"202502"},"geometry":{"type":"Point","coordinates":[-73.94298,40.61873]}},{"type":"Feature","properties":{"name":"NYU Langone - Orthopedic","mw":1.6,"src":"petroleum","tech":"Petroleum Liquids","sector":"Commercial Non-CHP","utility":"NYU Langone - Orthopedic","city":"New york","county":"Kings","fuels":{"Petroleum":1.6},"period":"202502"},"geometry":{"type":"Point","coordinates":[-73.98285,40.73402]}},{"type":"Feature","properties":{"name":"North Central Bronx Hospital","mw":1.6,"src":"petroleum","tech":"Petroleum Liquids","sector":"Commercial Non-CHP","utility":"North Central Bronx Hospital","city":"Bronx","county":"Bronx","fuels":{"Petroleum":1.6},"period":"202502"},"geometry":{"type":"Point","coordinates":[-73.8812,40.88043]}},{"type":"Feature","properties":{"name":"Wyckoff Heights Medical Center","mw":1.6,"src":"petroleum","tech":"Petroleum Liquids","sector":"Commercial Non-CHP","utility":"Wyckoff Heights Medical Center","city":"Brooklyn","county":"Kings","fuels":{"Petroleum":1.6},"period":"202502"},"geometry":{"type":"Point","coordinates":[-73.91773,40.70412]}},{"type":"Feature","properties":{"name":"Jacobi Medical Center","mw":9.1,"src":"petroleum","tech":"Petroleum Liquids","sector":"Commercial Non-CHP","utility":"Jacobi Medical Center","city":"Bronx","county":"Bronx","fuels":{"Petroleum":9.1},"period":"202502"},"geometry":{"type":"Point","coordinates":[-73.84737,40.85652]}},{"type":"Feature","properties":{"name":"SDM000 Clarkson Fuel Cell","mw":1.8,"src":"natural gas","tech":"Other Natural Gas","sector":"IPP Non-CHP","utility":"2016 ESA Project Company, LLC","city":"Brooklyn","county":"Kings","fuels":{"Natural gas":1.8},"period":"202502"},"geometry":{"type":"Point","coordinates":[-73.94415,40.65511]}},{"type":"Feature","properties":{"name":"NHH003 Clarkson Fuel Cell","mw":1.1,"src":"natural gas","tech":"Other Natural Gas","sector":"IPP Non-CHP","utility":"2016 ESA Project Company, LLC","city":"Brooklyn","county":"Kings","fuels":{"Natural gas":1.1},"period":"202502"},"geometry":{"type":"Point","coordinates":[-73.94278,40.65653]}},{"type":"Feature","properties":{"name":"NHH004 Winthrop Fuel Cell","mw":1,"src":"natural gas","tech":"Other Natural Gas","sector":"IPP Non-CHP","utility":"2016 ESA Project Company, LLC","city":"Brooklyn","county":"Kings","fuels":{"Natural gas":1},"period":"202502"},"geometry":{"type":"Point","coordinates":[-73.94666,40.65685]}},{"type":"Feature","properties":{"name":"NYC-HH - CONEY ISLAND HOSPITAL","mw":7.8,"src":"petroleum","tech":"Petroleum Liquids","sector":"Commercial Non-CHP","utility":"NYC-HH Coney Island Hospital","city":"Brooklyn","county":"Kings","fuels":{"Petroleum":7.8},"period":"202502"},"geometry":{"type":"Point","coordinates":[-73.96558,40.58549]}},{"type":"Feature","properties":{"name":"NY Times Daily Production Facility","mw":12,"src":"petroleum","tech":"Petroleum Liquids","sector":"Industrial Non-CHP","utility":"The NY Times Production Facility","city":"Flushing","county":"Queens","fuels":{"Petroleum":12},"period":"202502"},"geometry":{"type":"Point","coordinates":[-73.83092,40.7754]}},{"type":"Feature","properties":{"name":"The Mount Sinai Hospital","mw":18.2,"src":"petroleum","tech":"Petroleum Liquids","sector":"Commercial Non-CHP","utility":"Mount Sinai Hospital","city":"New York","county":"New York","fuels":{"Petroleum":18.2},"period":"202502"},"geometry":{"type":"Point","coordinates":[-73.95369,40.78999]}},{"type":"Feature","properties":{"name":"NYU LANGONE HEALTH","mw":26.6,"src":"petroleum","tech":"Natural Gas Fired Combustion Turbine; Petroleum Liquids;","sector":"Commercial CHP","utility":"NYU LANGONE HEALTH","city":"New York","county":"New York","fuels":{"Natural gas":7.5,"Petroleum":19.1},"period":"202502"},"geometry":{"type":"Point","coordinates":[-73.97223,40.74678]}},{"type":"Feature","properties":{"name":"Woodhull Hospital","mw":8,"src":"petroleum","tech":"Petroleum Liquids","sector":"Commercial Non-CHP","utility":"Woodhull Hospital","city":"Brooklyn","county":"Kings","fuels":{"Petroleum":8},"period":"202502"},"geometry":{"type":"Point","coordinates":[-73.94186,40.70477]}},{"type":"Feature","properties":{"name":"The Allen Hospital","mw":1,"src":"petroleum","tech":"Petroleum Liquids","sector":"Commercial Non-CHP","utility":"The Allen Hospital","city":"New York","county":"New York","fuels":{"Petroleum":1},"period":"202502"},"geometry":{"type":"Point","coordinates":[-73.91297,40.87327]}},{"type":"Feature","properties":{"name":"Mount Sinai Beth Israel","mw":3.5,"src":"petroleum","tech":"Petroleum Liquids","sector":"Commercial Non-CHP","utility":"Mount Sinai Beth Israel","city":"New York","county":"New York","fuels":{"Petroleum":3.5},"period":"202502"},"geometry":{"type":"Point","coordinates":[-73.9816,40.73267]}},{"type":"Feature","properties":{"name":"NYC-HH-New Bellevue Hospital","mw":7.4,"src":"petroleum","tech":"Petroleum Liquids","sector":"Commercial Non-CHP","utility":"NYC-HH-New Bellevue Hospital","city":"New York","county":"New York","fuels":{"Petroleum":7.4},"period":"202502"},"geometry":{"type":"Point","coordinates":[-73.97608,40.73956]}},{"type":"Feature","properties":{"name":"NYPH-Queens","mw":4.5,"src":"petroleum","tech":"Petroleum Liquids","sector":"Commercial Non-CHP","utility":"NYPH-Queens","city":"Flushing","county":"Queens","fuels":{"Petroleum":4.5},"period":"202502"},"geometry":{"type":"Point","coordinates":[-73.82573,40.75043]}},{"type":"Feature","properties":{"name":"NYP-Lower Manhattan Hospital","mw":1.5,"src":"petroleum","tech":"Petroleum Liquids","sector":"Commercial Non-CHP","utility":"NYP-Lower Manhattan Hospital","city":"New York","county":"New York","fuels":{"Petroleum":1.5},"period":"202502"},"geometry":{"type":"Point","coordinates":[-74.00496,40.71032]}},{"type":"Feature","properties":{"name":"Albert Einstein College of Medicine","mw":8.2,"src":"petroleum","tech":"Natural Gas Internal Combustion Engine; Petroleum Liquids;","sector":"Commercial Non-CHP","utility":"Albert Einstein College of Medicine","city":"Bronx","county":"Bronx","fuels":{"Natural gas":0.2,"Petroleum":8},"period":"202502"},"geometry":{"type":"Point","coordinates":[-73.8483,40.85132]}},{"type":"Feature","properties":{"name":"St. Johns Episcopal Hospital","mw":1.2,"src":"petroleum","tech":"Petroleum Liquids","sector":"Commercial Non-CHP","utility":"St. Johns Episcopal Hospital","city":"Far Rockaway","county":"Queens","fuels":{"Petroleum":1.2},"period":"202502"},"geometry":{"type":"Point","coordinates":[-73.75346,40.59869]}},{"type":"Feature","properties":{"name":"MER Queens","mw":1.2,"src":"natural gas","tech":"Other Natural Gas","sector":"IPP Non-CHP","utility":"Bloom Energy","city":"Elmhurst","county":"Queens","fuels":{"Natural gas":1.2},"period":"202502"},"geometry":{"type":"Point","coordinates":[-73.87094,40.7345]}},{"type":"Feature","properties":{"name":"Kinder Morgan Fordham","mw":1.7,"src":"solar","tech":"Solar Photovoltaic","sector":"IPP Non-CHP","utility":"EnterSolar","city":"Staten Island","county":"Richmond","fuels":{"Solar":1.7},"period":"202502"},"geometry":{"type":"Point","coordinates":[-74.23658,40.54256]}},{"type":"Feature","properties":{"name":"98th Street Battery Storage Station","mw":1.5,"src":"batteries","tech":"Batteries","sector":"Electric Utility","utility":"Consolidated Edison Co-NY Inc","city":"South Ozone Park","county":"Queens","fuels":{"Battery":1.5},"period":"202502"},"geometry":{"type":"Point","coordinates":[-73.84019,40.67914]}},{"type":"Feature","properties":{"name":"The Bank of New York","mw":7.2,"src":"petroleum","tech":"Petroleum Liquids","sector":"Commercial Non-CHP","utility":"The Bank of New York","city":"New York","county":"Kings","fuels":{"Petroleum":7.2},"period":"202502"},"geometry":{"type":"Point","coordinates":[-73.93375,40.65933]}},{"type":"Feature","properties":{"name":"Brooklyn Hospital Center","mw":1.5,"src":"petroleum","tech":"Petroleum Liquids","sector":"Commercial Non-CHP","utility":"Brooklyn Hospital Center","city":"Brooklyn","county":"Kings","fuels":{"Petroleum":1.5},"period":"202502"},"geometry":{"type":"Point","coordinates":[-73.97793,40.69054]}},{"type":"Feature","properties":{"name":"Kingsbrook Jewish Medical Center","mw":2.6,"src":"petroleum","tech":"Petroleum Liquids","sector":"Commercial Non-CHP","utility":"Kingsbrook Jewish Medical Center","city":"Brooklyn","county":"Kings","fuels":{"Petroleum":2.6},"period":"202502"},"geometry":{"type":"Point","coordinates":[-73.93375,40.65933]}},{"type":"Feature","properties":{"name":"Maimonides Medical Center","mw":3.9,"src":"petroleum","tech":"Petroleum Liquids","sector":"Commercial Non-CHP","utility":"Maimonides Medical Center","city":"Brooklyn","county":"Kings","fuels":{"Petroleum":3.9},"period":"202502"},"geometry":{"type":"Point","coordinates":[-73.99883,40.63954]}},{"type":"Feature","properties":{"name":"Lincoln Medical and Mental Health Center","mw":7,"src":"petroleum","tech":"Batteries; Petroleum Liquids;","sector":"Commercial Non-CHP","utility":"Lincoln Medical and Mental Health Center","city":"Bronx","county":"Bronx","fuels":{"Battery":3,"Petroleum":4},"period":"202502"},"geometry":{"type":"Point","coordinates":[-73.92411,40.81697]}},{"type":"Feature","properties":{"name":"Amazon JFK8 Solar Project","mw":4.9,"src":"solar","tech":"Solar Photovoltaic","sector":"IPP Non-CHP","utility":"Solar Star Prime 2, LLC","city":"Staten Island","county":"Richmond","fuels":{"Solar":4.9},"period":"202502"},"geometry":{"type":"Point","coordinates":[-74.18752,40.61889]}},{"type":"Feature","properties":{"name":"St. Mary's Hospital For Children","mw":2,"src":"petroleum","tech":"Petroleum Liquids","sector":"Commercial Non-CHP","utility":"St. Mary's Hospital For Children","city":"Bayside","county":"Queens","fuels":{"Petroleum":2},"period":"202502"},"geometry":{"type":"Point","coordinates":[-73.77045,40.77698]}},{"type":"Feature","properties":{"name":"Harlem Hospital Center","mw":4.7,"src":"petroleum","tech":"Petroleum Liquids","sector":"Commercial Non-CHP","utility":"Harlem Hospital Center","city":"New York","county":"New York","fuels":{"Petroleum":4.7},"period":"202502"},"geometry":{"type":"Point","coordinates":[-73.9399,40.81453]}},{"type":"Feature","properties":{"name":"Interfaith Medical Center","mw":1.2,"src":"petroleum","tech":"Petroleum Liquids","sector":"Commercial Non-CHP","utility":"Interfaith Medical Center","city":"Brooklyn","county":"Kings","fuels":{"Petroleum":1.2},"period":"202502"},"geometry":{"type":"Point","coordinates":[-73.93742,40.67855]}},{"type":"Feature","properties":{"name":"Certain Solar - Staten Island","mw":7.5,"src":"natural gas","tech":"Other Natural Gas","sector":"IPP Non-CHP","utility":"Bloom Energy","city":"Staten Island","county":"Richmond","fuels":{"Natural gas":7.5},"period":"202502"},"geometry":{"type":"Point","coordinates":[-74.17685,40.54042]}},{"type":"Feature","properties":{"name":"Fuel Cell 3245 Yates Avenue","mw":5,"src":"natural gas","tech":"Other Natural Gas","sector":"IPP Non-CHP","utility":"Bronx Community Clean Energy Project LLC","city":"Bronx","county":"Bronx","fuels":{"Natural gas":5},"period":"202502"},"geometry":{"type":"Point","coordinates":[-73.85519,40.87317]}},{"type":"Feature","properties":{"name":"Fuel Cell 18A Sneden Avenue","mw":3.5,"src":"natural gas","tech":"Other Natural Gas","sector":"IPP Non-CHP","utility":"Annadale Community Clean Energy Projects LLC","city":"Staten Island","county":"Richmond","fuels":{"Natural gas":3.5},"period":"202502"},"geometry":{"type":"Point","coordinates":[-74.17676,40.54038]}},{"type":"Feature","properties":{"name":"Fuel Cell 18B Sneden Avenue","mw":4,"src":"natural gas","tech":"Other Natural Gas","sector":"IPP Non-CHP","utility":"Annadale Community Clean Energy Projects LLC","city":"Staten Island","county":"Richmond","fuels":{"Natural gas":4},"period":"202502"},"geometry":{"type":"Point","coordinates":[-74.17656,40.54046]}},{"type":"Feature","properties":{"name":"Fox Hills Battery Station","mw":7.5,"src":"batteries","tech":"Batteries","sector":"Electric Utility","utility":"Consolidated Edison Co-NY Inc","city":"Staten Island","county":"Richmond","fuels":{"Battery":7.5},"period":"202502"},"geometry":{"type":"Point","coordinates":[-74.07717,40.61081]}},{"type":"Feature","properties":{"name":"NY - PANYNJ - LaGuardia - Rooftop","mw":1,"src":"solar","tech":"Solar Photovoltaic","sector":"IPP Non-CHP","utility":"Forefront Power, LLC","city":"Queens","county":"Queens","fuels":{"Solar":1},"period":"202502"},"geometry":{"type":"Point","coordinates":[-73.87472,40.77298]}},{"type":"Feature","properties":{"name":"Apple Staten Island - Industrial Loop","mw":5,"src":"natural gas","tech":"Other Natural Gas","sector":"IPP Non-CHP","utility":"Bloom Energy","city":"Staten Island","county":"Richmond","fuels":{"Natural gas":5},"period":"202502"},"geometry":{"type":"Point","coordinates":[-74.23256,40.55218]}},{"type":"Feature","properties":{"name":"Apple Staten Island - Winant Place","mw":5,"src":"natural gas","tech":"Other Natural Gas","sector":"IPP Non-CHP","utility":"Bloom Energy","city":"Staten Island","county":"Richmond","fuels":{"Natural gas":5},"period":"202502"},"geometry":{"type":"Point","coordinates":[-74.24094,40.53656]}},{"type":"Feature","properties":{"name":"Arthur Kill Energy, LLC","mw":5,"src":"batteries","tech":"Batteries","sector":"IPP Non-CHP","utility":"NineDot Holdings, LLC","city":"Staten Island","county":"Richmond","fuels":{"Battery":5},"period":"202502"},"geometry":{"type":"Point","coordinates":[-74.21179,40.55625]}},{"type":"Feature","properties":{"name":"Empire Clean Energy, LLC","mw":5,"src":"batteries","tech":"Batteries","sector":"IPP Non-CHP","utility":"NineDot Holdings, LLC","city":"Staten Island","county":"Richmond","fuels":{"Battery":5},"period":"202502"},"geometry":{"type":"Point","coordinates":[-74.21489,40.55534]}},{"type":"Feature","properties":{"name":"Gabby Giffords Clean Energy, LLC","mw":8,"src":"batteries","tech":"Batteries","sector":"IPP Non-CHP","utility":"NineDot Holdings, LLC","city":"Staten Island","county":"Richmond","fuels":{"Battery":8},"period":"202502"},"geometry":{"type":"Point","coordinates":[-74.15088,40.55257]}},{"type":"Feature","properties":{"name":"Gunther","mw":3,"src":"batteries","tech":"Batteries","sector":"IPP Non-CHP","utility":"NineDot Holdings, LLC","city":"Bronx","county":"Bronx","fuels":{"Battery":3},"period":"202502"},"geometry":{"type":"Point","coordinates":[-73.83598,40.86451]}}]}