{"type":"FeatureCollection","features":[{"type":"Feature","properties":{"name":"Unnamed Substation","kv":345,"lines":8,"status":"In Service","county":"Queens"},"geometry":{"type":"Point","coordinates":[-73.89809,40.78179]}},{"type":"Feature","properties":{"name":"Unnamed Substation","kv":null,"lines":null,"status":"In Service","county":"Kings"},"geometry":{"type":"Point","coordinates":[-73.99955,40.66276]}},{"type":"Feature","properties":{"name":"East 13Th Street","kv":345,"lines":2,"status":"In Service","county":"New York"},"geometry":{"type":"Point","coordinates":[-73.97462,40.72754]}},{"type":"Feature","properties":{"name":"West Astoria","kv":138,"lines":6,"status":"In Service","county":"Queens"},"geometry":{"type":"Point","coordinates":[-73.90931,40.78769]}},{"type":"Feature","properties":{"name":"East Astoria","kv":345,"lines":5,"status":"In Service","county":"Queens"},"geometry":{"type":"Point","coordinates":[-73.9034,40.78383]}},{"type":"Feature","properties":{"name":"Unnamed Substation","kv":69,"lines":1,"status":"In Service","county":"Queens"},"geometry":{"type":"Point","coordinates":[-73.75005,40.66809]}},{"type":"Feature","properties":{"name":"Unnamed Substation","kv":230,"lines":3,"status":"In Service","county":"Richmond"},"geometry":{"type":"Point","coordinates":[-74.19619,40.61702]}},{"type":"Feature","properties":{"name":"Bruckner","kv":138,"lines":3,"status":"In Service","county":"Bronx"},"geometry":{"type":"Point","coordinates":[-73.91109,40.79907]}},{"type":"Feature","properties":{"name":"Tremont","kv":138,"lines":2,"status":"In Service","county":"Bronx"},"geometry":{"type":"Point","coordinates":[-73.86334,40.84268]}},{"type":"Feature","properties":{"name":"North Queens","kv":138,"lines":8,"status":"In Service","county":"Queens"},"geometry":{"type":"Point","coordinates":[-73.90642,40.78203]}},{"type":"Feature","properties":{"name":"Fresh Meadows","kv":null,"lines":null,"status":"Not Available","county":"Queens"},"geometry":{"type":"Point","coordinates":[-73.79658,40.73931]}},{"type":"Feature","properties":{"name":"Bayside","kv":null,"lines":null,"status":"Not Available","county":"Queens"},"geometry":{"type":"Point","coordinates":[-73.7708,40.7597]}},{"type":"Feature","properties":{"name":"Hell Gate","kv":null,"lines":null,"status":"Not Available","county":"Bronx"},"geometry":{"type":"Point","coordinates":[-73.90995,40.79912]}},{"type":"Feature","properties":{"name":"Parkchester","kv":138,"lines":2,"status":"Not Available","county":"Bronx"},"geometry":{"type":"Point","coordinates":[-73.86337,40.84205]}},{"type":"Feature","properties":{"name":"Chisholm","kv":null,"lines":null,"status":"Not Available","county":"Queens"},"geometry":{"type":"Point","coordinates":[-73.85091,40.78421]}},{"type":"Feature","properties":{"name":"Causeway","kv":null,"lines":null,"status":"Not Available","county":"Queens"},"geometry":{"type":"Point","coordinates":[-73.84184,40.77887]}},{"type":"Feature","properties":{"name":"Whitestone","kv":null,"lines":null,"status":"Not Available","county":"Queens"},"geometry":{"type":"Point","coordinates":[-73.8121,40.78877]}},{"type":"Feature","properties":{"name":"Auburndale","kv":null,"lines":null,"status":"Not Available","county":"Queens"},"geometry":{"type":"Point","coordinates":[-73.79932,40.77653]}},{"type":"Feature","properties":{"name":"Beechhurst","kv":null,"lines":null,"status":"Not Available","county":"Queens"},"geometry":{"type":"Point","coordinates":[-73.79533,40.78551]}},{"type":"Feature","properties":{"name":"Clearview","kv":null,"lines":null,"status":"Not Available","county":"Queens"},"geometry":{"type":"Point","coordinates":[-73.78058,40.77706]}},{"type":"Feature","properties":{"name":"East 179Th Street","kv":138,"lines":3,"status":"Not Available","county":"Bronx"},"geometry":{"type":"Point","coordinates":[-73.89331,40.84945]}},{"type":"Feature","properties":{"name":"Flushing","kv":null,"lines":null,"status":"Not Available","county":"Queens"},"geometry":{"type":"Point","coordinates":[-73.8361,40.76432]}},{"type":"Feature","properties":{"name":"Douglaston","kv":null,"lines":null,"status":"Not Available","county":"Queens"},"geometry":{"type":"Point","coordinates":[-73.7423,40.76524]}},{"type":"Feature","properties":{"name":"Corona","kv":138,"lines":2,"status":"Not Available","county":"Queens"},"geometry":{"type":"Point","coordinates":[-73.8622,40.74021]}},{"type":"Feature","properties":{"name":"Oakland","kv":null,"lines":null,"status":"Not Available","county":"Queens"},"geometry":{"type":"Point","coordinates":[-73.76206,40.7479]}},{"type":"Feature","properties":{"name":"Alley Park","kv":null,"lines":null,"status":"Not Available","county":"Queens"},"geometry":{"type":"Point","coordinates":[-73.76148,40.74372]}},{"type":"Feature","properties":{"name":"North Hills","kv":null,"lines":null,"status":"Not Available","county":"Queens"},"geometry":{"type":"Point","coordinates":[-73.73738,40.74865]}},{"type":"Feature","properties":{"name":"Parkway","kv":null,"lines":null,"status":"Not Available","county":"Queens"},"geometry":{"type":"Point","coordinates":[-73.72756,40.74032]}},{"type":"Feature","properties":{"name":"Glen Oaks","kv":null,"lines":null,"status":"Not Available","county":"Queens"},"geometry":{"type":"Point","coordinates":[-73.71719,40.74387]}},{"type":"Feature","properties":{"name":"Floral Park","kv":null,"lines":null,"status":"Not Available","county":"Queens"},"geometry":{"type":"Point","coordinates":[-73.70695,40.73734]}},{"type":"Feature","properties":{"name":"Hillcrest","kv":null,"lines":null,"status":"Not Available","county":"Queens"},"geometry":{"type":"Point","coordinates":[-73.80441,40.72426]}},{"type":"Feature","properties":{"name":"Cunningham","kv":null,"lines":null,"status":"Not Available","county":"Queens"},"geometry":{"type":"Point","coordinates":[-73.78405,40.72796]}},{"type":"Feature","properties":{"name":"Union","kv":null,"lines":null,"status":"Not Available","county":"Queens"},"geometry":{"type":"Point","coordinates":[-73.75846,40.73351]}},{"type":"Feature","properties":{"name":"Hollis","kv":null,"lines":null,"status":"Not Available","county":"Queens"},"geometry":{"type":"Point","coordinates":[-73.75488,40.71336]}},{"type":"Feature","properties":{"name":"Far Rockaway","kv":69,"lines":7,"status":"In Service","county":"Queens"},"geometry":{"type":"Point","coordinates":[-73.76011,40.61046]}},{"type":"Feature","properties":{"name":"Rockaway Beach","kv":null,"lines":1,"status":"In Service","county":"Queens"},"geometry":{"type":"Point","coordinates":[-73.8338,40.58275]}},{"type":"Feature","properties":{"name":"Jamaica","kv":138,"lines":4,"status":"Not Available","county":"Queens"},"geometry":{"type":"Point","coordinates":[-73.81391,40.69919]}},{"type":"Feature","properties":{"name":"Unnamed Substation","kv":null,"lines":null,"status":"Not Available","county":"Queens"},"geometry":{"type":"Point","coordinates":[-73.77092,40.67904]}},{"type":"Feature","properties":{"name":"Linden","kv":null,"lines":null,"status":"Not Available","county":"Queens"},"geometry":{"type":"Point","coordinates":[-73.73364,40.69282]}},{"type":"Feature","properties":{"name":"Arverne","kv":null,"lines":null,"status":"Not Available","county":"Queens"},"geometry":{"type":"Point","coordinates":[-73.78324,40.59251]}},{"type":"Feature","properties":{"name":"Creedmoor","kv":null,"lines":null,"status":"Not Available","county":"Queens"},"geometry":{"type":"Point","coordinates":[-73.72519,40.73404]}},{"type":"Feature","properties":{"name":"Unnamed Substation","kv":null,"lines":null,"status":"Not Available","county":"Queens"},"geometry":{"type":"Point","coordinates":[-73.76571,40.71059]}},{"type":"Feature","properties":{"name":"151St Avenue","kv":null,"lines":null,"status":"Not Available","county":"Queens"},"geometry":{"type":"Point","coordinates":[-73.85506,40.66686]}},{"type":"Feature","properties":{"name":"160Th Avenue","kv":null,"lines":null,"status":"Not Available","county":"Queens"},"geometry":{"type":"Point","coordinates":[-73.8476,40.65659]}},{"type":"Feature","properties":{"name":"Unnamed Substation","kv":null,"lines":null,"status":"Not Available","county":"Queens"},"geometry":{"type":"Point","coordinates":[-73.84446,40.68886]}},{"type":"Feature","properties":{"name":"Woodhaven","kv":null,"lines":null,"status":"Not Available","county":"Queens"},"geometry":{"type":"Point","coordinates":[-73.84396,40.68983]}},{"type":"Feature","properties":{"name":"Howard Beach","kv":null,"lines":null,"status":"Not Available","county":"Queens"},"geometry":{"type":"Point","coordinates":[-73.84001,40.66286]}},{"type":"Feature","properties":{"name":"Centerville","kv":null,"lines":null,"status":"Not Available","county":"Queens"},"geometry":{"type":"Point","coordinates":[-73.83643,40.6746]}},{"type":"Feature","properties":{"name":"Unnamed Substation","kv":null,"lines":null,"status":"Not Available","county":"Queens"},"geometry":{"type":"Point","coordinates":[-73.82522,40.695]}},{"type":"Feature","properties":{"name":"Aqueduct","kv":null,"lines":null,"status":"Not Available","county":"Queens"},"geometry":{"type":"Point","coordinates":[-73.82035,40.6702]}},{"type":"Feature","properties":{"name":"Lefferts","kv":null,"lines":null,"status":"Not Available","county":"Queens"},"geometry":{"type":"Point","coordinates":[-73.81912,40.67657]}},{"type":"Feature","properties":{"name":"Rockaway","kv":null,"lines":null,"status":"Not Available","county":"Queens"},"geometry":{"type":"Point","coordinates":[-73.80544,40.67533]}},{"type":"Feature","properties":{"name":"Sutphin","kv":null,"lines":null,"status":"Not Available","county":"Queens"},"geometry":{"type":"Point","coordinates":[-73.79547,40.68902]}},{"type":"Feature","properties":{"name":"Unnamed Substation","kv":null,"lines":null,"status":"Not Available","county":"Queens"},"geometry":{"type":"Point","coordinates":[-73.79062,40.67586]}},{"type":"Feature","properties":{"name":"Brinkerhoff","kv":null,"lines":null,"status":"Not Available","county":"Queens"},"geometry":{"type":"Point","coordinates":[-73.78801,40.69466]}},{"type":"Feature","properties":{"name":"Cedar Manor","kv":null,"lines":null,"status":"Not Available","county":"Queens"},"geometry":{"type":"Point","coordinates":[-73.78515,40.68897]}},{"type":"Feature","properties":{"name":"Springfield","kv":null,"lines":null,"status":"Not Available","county":"Queens"},"geometry":{"type":"Point","coordinates":[-73.76088,40.679]}},{"type":"Feature","properties":{"name":"146Th Avenue","kv":null,"lines":null,"status":"Not Available","county":"Queens"},"geometry":{"type":"Point","coordinates":[-73.75463,40.65992]}},{"type":"Feature","properties":{"name":"Montefiore","kv":null,"lines":null,"status":"Not Available","county":"Queens"},"geometry":{"type":"Point","coordinates":[-73.75085,40.68385]}},{"type":"Feature","properties":{"name":"Cambria","kv":null,"lines":null,"status":"Not Available","county":"Queens"},"geometry":{"type":"Point","coordinates":[-73.74675,40.69653]}},{"type":"Feature","properties":{"name":"Rosedale","kv":null,"lines":null,"status":"Not Available","county":"Queens"},"geometry":{"type":"Point","coordinates":[-73.73679,40.66799]}},{"type":"Feature","properties":{"name":"253Rd Place","kv":null,"lines":null,"status":"Not Available","county":"Queens"},"geometry":{"type":"Point","coordinates":[-73.73523,40.6567]}},{"type":"Feature","properties":{"name":"Unnamed Substation","kv":null,"lines":null,"status":"Not Available","county":"Queens"},"geometry":{"type":"Point","coordinates":[-73.81715,40.69838]}},{"type":"Feature","properties":{"name":"Mott Haven","kv":null,"lines":null,"status":"In Service","county":"Bronx"},"geometry":{"type":"Point","coordinates":[-73.90622,40.80802]}},{"type":"Feature","properties":{"name":"Brownsville","kv":null,"lines":null,"status":"Not Available","county":"Kings"},"geometry":{"type":"Point","coordinates":[-73.89869,40.66966]}},{"type":"Feature","properties":{"name":"Bensonhurst","kv":null,"lines":null,"status":"Not Available","county":"Kings"},"geometry":{"type":"Point","coordinates":[-73.97593,40.62157]}},{"type":"Feature","properties":{"name":"East 64Th Street","kv":null,"lines":null,"status":"Not Available","county":"Kings"},"geometry":{"type":"Point","coordinates":[-73.91758,40.61974]}},{"type":"Feature","properties":{"name":"Newtown","kv":null,"lines":null,"status":"Not Available","county":"Queens"},"geometry":{"type":"Point","coordinates":[-73.93155,40.74298]}},{"type":"Feature","properties":{"name":"Queensbridge","kv":138,"lines":2,"status":"Not Available","county":"Queens"},"geometry":{"type":"Point","coordinates":[-73.93823,40.75629]}},{"type":"Feature","properties":{"name":"Parkview","kv":null,"lines":null,"status":"Not Available","county":"New York"},"geometry":{"type":"Point","coordinates":[-73.93656,40.80775]}},{"type":"Feature","properties":{"name":"Academy","kv":null,"lines":null,"status":"Not Available","county":"New York"},"geometry":{"type":"Point","coordinates":[-73.91914,40.86002]}},{"type":"Feature","properties":{"name":"Avenue N","kv":null,"lines":null,"status":"Not Available","county":"Kings"},"geometry":{"type":"Point","coordinates":[-73.93036,40.6185]}},{"type":"Feature","properties":{"name":"Mill Avenue","kv":null,"lines":null,"status":"Not Available","county":"Kings"},"geometry":{"type":"Point","coordinates":[-73.91334,40.61454]}},{"type":"Feature","properties":{"name":"East 83Rd Street","kv":null,"lines":null,"status":"Not Available","county":"Kings"},"geometry":{"type":"Point","coordinates":[-73.90238,40.62887]}},{"type":"Feature","properties":{"name":"Greenwood","kv":null,"lines":null,"status":"Not Available","county":"Kings"},"geometry":{"type":"Point","coordinates":[-73.99378,40.65929]}},{"type":"Feature","properties":{"name":"Livonia Avenue","kv":null,"lines":null,"status":"Not Available","county":"Kings"},"geometry":{"type":"Point","coordinates":[-73.8891,40.66573]}},{"type":"Feature","properties":{"name":"Gowanus","kv":345,"lines":1,"status":"In Service","county":"Kings"},"geometry":{"type":"Point","coordinates":[-74.00302,40.66195]}},{"type":"Feature","properties":{"name":"Fresh Kills","kv":null,"lines":4,"status":"In Service","county":"Richmond"},"geometry":{"type":"Point","coordinates":[-74.1972,40.58922]}},{"type":"Feature","properties":{"name":"Willowbrook","kv":null,"lines":null,"status":"Not Available","county":"Richmond"},"geometry":{"type":"Point","coordinates":[-74.14563,40.61078]}},{"type":"Feature","properties":{"name":"Woodrow","kv":null,"lines":null,"status":"Not Available","county":"Richmond"},"geometry":{"type":"Point","coordinates":[-74.21526,40.55477]}},{"type":"Feature","properties":{"name":"Unnamed Substation","kv":null,"lines":null,"status":"Not Available","county":"Richmond"},"geometry":{"type":"Point","coordinates":[-74.15236,40.62581]}},{"type":"Feature","properties":{"name":"Westerleigh","kv":null,"lines":null,"status":"Not Available","county":"Richmond"},"geometry":{"type":"Point","coordinates":[-74.13125,40.62794]}},{"type":"Feature","properties":{"name":"Odin","kv":null,"lines":null,"status":"Not Available","county":"Richmond"},"geometry":{"type":"Point","coordinates":[-74.12058,40.57583]}},{"type":"Feature","properties":{"name":"Clove Lakes","kv":null,"lines":null,"status":"Not Available","county":"Richmond"},"geometry":{"type":"Point","coordinates":[-74.11751,40.61375]}},{"type":"Feature","properties":{"name":"Naughton","kv":null,"lines":null,"status":"Not Available","county":"Richmond"},"geometry":{"type":"Point","coordinates":[-74.09449,40.58481]}},{"type":"Feature","properties":{"name":"Silver Lake","kv":null,"lines":null,"status":"Not Available","county":"Richmond"},"geometry":{"type":"Point","coordinates":[-74.08646,40.63214]}},{"type":"Feature","properties":{"name":"Dongan Hills","kv":null,"lines":null,"status":"Not Available","county":"Richmond"},"geometry":{"type":"Point","coordinates":[-74.08525,40.58884]}},{"type":"Feature","properties":{"name":"Seaside","kv":null,"lines":null,"status":"Not Available","county":"Richmond"},"geometry":{"type":"Point","coordinates":[-74.08242,40.58202]}},{"type":"Feature","properties":{"name":"Fox Hill","kv":null,"lines":null,"status":"Not Available","county":"Richmond"},"geometry":{"type":"Point","coordinates":[-74.07759,40.61044]}},{"type":"Feature","properties":{"name":"Clifton","kv":null,"lines":null,"status":"Not Available","county":"Richmond"},"geometry":{"type":"Point","coordinates":[-74.07144,40.6197]}},{"type":"Feature","properties":{"name":"Wadsworth","kv":null,"lines":null,"status":"Not Available","county":"Richmond"},"geometry":{"type":"Point","coordinates":[-74.0665,40.60552]}},{"type":"Feature","properties":{"name":"Howland Hook","kv":null,"lines":null,"status":"Not Available","county":"Richmond"},"geometry":{"type":"Point","coordinates":[-74.18221,40.64126]}},{"type":"Feature","properties":{"name":"Port Richmond","kv":null,"lines":null,"status":"Not Available","county":"Richmond"},"geometry":{"type":"Point","coordinates":[-74.13039,40.63896]}},{"type":"Feature","properties":{"name":"Unnamed Substation","kv":null,"lines":null,"status":"Not Available","county":"Richmond"},"geometry":{"type":"Point","coordinates":[-74.1093,40.64485]}},{"type":"Feature","properties":{"name":"Rainey","kv":345,"lines":2,"status":"In Service","county":"Queens"},"geometry":{"type":"Point","coordinates":[-73.94303,40.76323]}},{"type":"Feature","properties":{"name":"Hudson Avenue","kv":138,"lines":2,"status":"In Service","county":"Kings"},"geometry":{"type":"Point","coordinates":[-73.98174,40.70381]}},{"type":"Feature","properties":{"name":"Farragut","kv":345,"lines":5,"status":"In Service","county":"Kings"},"geometry":{"type":"Point","coordinates":[-73.98451,40.7051]}},{"type":"Feature","properties":{"name":"Vernon","kv":138,"lines":6,"status":"In Service","county":"Queens"},"geometry":{"type":"Point","coordinates":[-73.94693,40.75814]}},{"type":"Feature","properties":{"name":"Leonard Street","kv":345,"lines":3,"status":"Not Available","county":"New York"},"geometry":{"type":"Point","coordinates":[-74.0065,40.7184]}},{"type":"Feature","properties":{"name":"Water Street","kv":null,"lines":null,"status":"Not Available","county":"Kings"},"geometry":{"type":"Point","coordinates":[-73.98188,40.70337]}},{"type":"Feature","properties":{"name":"West 65Th Street","kv":138,"lines":1,"status":"Not Available","county":"New York"},"geometry":{"type":"Point","coordinates":[-73.98809,40.77584]}},{"type":"Feature","properties":{"name":"East 36Th Street","kv":null,"lines":null,"status":"Not Available","county":"New York"},"geometry":{"type":"Point","coordinates":[-73.97134,40.74495]}},{"type":"Feature","properties":{"name":"West 19Th Street","kv":null,"lines":null,"status":"Not Available","county":"New York"},"geometry":{"type":"Point","coordinates":[-73.99733,40.74124]}},{"type":"Feature","properties":{"name":"East 63Rd Street","kv":null,"lines":null,"status":"Not Available","county":"New York"},"geometry":{"type":"Point","coordinates":[-73.96099,40.76289]}},{"type":"Feature","properties":{"name":"Unnamed Substation","kv":null,"lines":null,"status":"Not Available","county":"New York"},"geometry":{"type":"Point","coordinates":[-73.98923,40.76869]}},{"type":"Feature","properties":{"name":"East 75Th Street","kv":null,"lines":null,"status":"Not Available","county":"New York"},"geometry":{"type":"Point","coordinates":[-73.95046,40.76844]}},{"type":"Feature","properties":{"name":"West 49Th Street","kv":345,"lines":7,"status":"In Service","county":"New York"},"geometry":{"type":"Point","coordinates":[-73.99588,40.766]}},{"type":"Feature","properties":{"name":"Cherry Street","kv":null,"lines":null,"status":"Not Available","county":"New York"},"geometry":{"type":"Point","coordinates":[-73.99069,40.71137]}},{"type":"Feature","properties":{"name":"Plymouth","kv":null,"lines":null,"status":"Not Available","county":"Kings"},"geometry":{"type":"Point","coordinates":[-73.98343,40.70399]}},{"type":"Feature","properties":{"name":"New Brighton Substation","kv":null,"lines":null,"status":"Not Available","county":"Richmond"},"geometry":{"type":"Point","coordinates":[-74.09312,40.64513]}},{"type":"Feature","properties":{"name":"Unnamed Substation","kv":138,"lines":2,"status":"Not Available","county":"Queens"},"geometry":{"type":"Point","coordinates":[-73.91297,40.78633]}},{"type":"Feature","properties":{"name":"Unnamed Substation","kv":138,"lines":2,"status":"Not Available","county":"Queens"},"geometry":{"type":"Point","coordinates":[-73.91269,40.78652]}},{"type":"Feature","properties":{"name":"Unnamed Substation","kv":null,"lines":2,"status":"Not Available","county":"Queens"},"geometry":{"type":"Point","coordinates":[-73.76194,40.61078]}},{"type":"Feature","properties":{"name":"Unnamed Substation","kv":null,"lines":null,"status":"In Service","county":"Queens"},"geometry":{"type":"Point","coordinates":[-73.8885,40.77053]}}]}